NLLOC "./loc/global.19500815.141150.grid0" "LOCATED" "Location completed."
SIGNATURE "Vipin Maurya (GPT, IIT Roorkee)   obs:./obs/19500815.1409_ASSAM.isf   NLLoc:v7.00.00(27Oct2017)  run:29Mar2022 17h09m14"
COMMENT "ISC_IMS1.0 events"
GRID  361 181 601  -180 -90 0  1 1 1 PROB_DENSITY
SEARCH OCTREE nInitial 17628 nEvaluated 50020 smallestNodeSide 1.839622/1.628832/0.391276 oct_tree_integral 2.075871e+04 scatter_volume 2.075871e+04
HYPOCENTER  x 96.6756 y 28.2495 z 0.195638  OT 31.4151  ix -1 iy -1 iz -1 MAXIMUM_LIKELIHOOD
GEOGRAPHIC  OT 1950 08 15  14 09 31.415092  Lat 28.249512 Long 96.675551 Depth 0.195638
QUALITY  Pmax 3.1868e+122 MFmin 20.4153 MFmax 20.4694 RMS 1.35041 Nphs 50 Gap 85.175 Dist 19.4557 Mamp -9.90 0 Mdur -9.90 0
VPVSRATIO  VpVsRatio 1.7854  Npair 134  Diff 654
STATISTICS  ExpectX 96.657 Y 28.2537 Z 50.7012  CovXX 32.6065 XY -3.13278 XZ -79.1205 YY 111.736 YZ 24.8491 ZZ 1754.41 EllAz1  88.615 Dip1  2.60474 Len1  10.1056 Az2  178.657 Dip2  0.93088 Len2  19.8309 Len3  7.878587e+01
STAT_GEOG  ExpectLat 28.253727 Long 96.657029 Depth 50.701197
TRANSFORM  GLOBAL
QML_OriginQuality  assocPhCt 573  usedPhCt 50  assocStaCt -1  usedStaCt 50  depthPhCt -1  stdErr 1.35041  azGap 85.175  secAzGap 142.47  gtLevel -  minDist 2163.38 maxDist 3494.91 medDist 3379.36
QML_OriginUncertainty  horUnc -1  minHorUnc 8.6435  maxHorUnc 16.0399  azMaxHorUnc 177.736
QML_ConfidenceEllipsoid  semiMajorAxisLength 78.7859  semiMinorAxisLength 10.1056  semiIntermediateAxisLength 19.8309  majorAxisPlunge -87.2337  majorAxisAzimuth 108.307  majorAxisRotation 250.413
FOCALMECH  Hyp  28.249512 96.675551 0.195638 Mech  0 0 0 mf  0 nObs 0
PHASE ID Ins Cmp On Pha  FM Date     HrMn   Sec     Err  ErrMag    Coda      Amp       Per  >   TTpred    Res       Weight    StaLoc(X  Y         Z)        SDist    SAzim  RAz  RDip RQual    Tcorr 
DDI    ?    ?    e P      _ 19500815 1416    6.0000 GAU  5.00e-01 -1.00e+00 -1.00e+00 -1.00e+00 >  230.8944  163.6906    0.0000   78.0556   30.3225   -0.6820   16.3531 281.80  -1.0  -1.0  0     0.0000
DDI    ?    ?    e S      _ 19500815 1418   48.0000 GAU  5.00e-01 -1.00e+00 -1.00e+00 -1.00e+00 >  412.9479  143.6370    0.0000   78.0556   30.3225   -0.6820   16.3531 281.80  -1.0  -1.0  0     0.0000
NAN    ?    ?    i P      c 19500815 1413   58.0000 GAU  2.00e-01 -1.00e+00 -1.00e+00 -1.00e+00 >  268.1212   -1.5363    1.0892  118.7833   32.0633   -0.0100   19.4557  73.25  -1.0  -1.0  0     0.0000
NAN    ?    ?    i S      _ 19500815 1417   40.0000 GAU  2.00e-01 -1.00e+00 -1.00e+00 -1.00e+00 >  488.0618    0.5231    0.0000  118.7833   32.0633   -0.0100   19.4557  73.25  -1.0  -1.0  0     0.0000
HYD    ?    ?    i P      _ 19500815 1414    5.0000 GAU  2.00e-01 -1.00e+00 -1.00e+00 -1.00e+00 >  273.3722    0.2127    1.2106   78.4500   17.4333   -0.5280   19.9364 241.06  -1.0  -1.0  0     0.0000
NRN    ?    ?    i P      _ 19500815 1414   20.0000 GAU  2.00e-01 -1.00e+00 -1.00e+00 -1.00e+00 >  289.1466   -0.5617    1.2002   76.0000   41.4333   -2.8490   21.3918 313.47  -1.0  -1.0  0     0.0000
ZKW    ?    ?    _ P      _ 19500815 1414   30.0000 GAU  1.00e+00 -1.00e+00 -1.00e+00 -1.00e+00 >  291.9784    6.6066    0.1449  121.4333   31.1833   -0.0070   21.6552  76.14  -1.0  -1.0  0     0.0000
ZKW    ?    ?    _ S      _ 19500815 1418   28.0000 GAU  1.00e+00 -1.00e+00 -1.00e+00 -1.00e+00 >  532.5038    4.0811    0.0000  121.4333   31.1833   -0.0070   21.6552  76.14  -1.0  -1.0  0     0.0000
AAA    ?    ?    i P      _ 19500815 1414   25.0000 GAU  2.00e-01 -1.00e+00 -1.00e+00 -1.00e+00 >  294.0431   -0.4582    1.2058   76.9467   43.2717   -0.8000   21.8477 318.66  -1.0  -1.0  0     0.0000
FRU    ?    ?    i P      _ 19500815 1414   38.0000 GAU  2.00e-01 -1.00e+00 -1.00e+00 -1.00e+00 >  306.3265    0.2584    1.2089   74.6167   42.8333   -0.6550   23.0017 315.19  -1.0  -1.0  0     0.0000
POO    ?    ?    i P      c 19500815 1414   36.0000 GAU  2.00e-01 -1.00e+00 -1.00e+00 -1.00e+00 >  306.7282   -2.1433    0.9780   73.8492   18.5295   -0.5600   23.0398 250.03  -1.0  -1.0  0     0.0000
POO    ?    ?    i S      _ 19500815 1418   48.0000 GAU  2.00e-01 -1.00e+00 -1.00e+00 -1.00e+00 >  558.4793   -1.8944    0.0000   73.8492   18.5295   -0.5600   23.0398 250.03  -1.0  -1.0  0     0.0000
ANR    ?    ?    i P      _ 19500815 1414   43.0000 GAU  2.00e-01 -1.00e+00 -1.00e+00 -1.00e+00 >  311.5438    0.0411    1.2147   72.3600   40.7550   -0.4940   23.4969 308.53  -1.0  -1.0  0     0.0000
BOM    ?    ?    i P      _ 19500815 1414   45.0000 GAU  2.00e-01 -1.00e+00 -1.00e+00 -1.00e+00 >  313.7923   -0.2074    1.2141   72.8127   18.8958   -0.0060   23.7289 252.02  -1.0  -1.0  0     0.0000
FRG    ?    ?    i P      _ 19500815 1414   44.0000 GAU  2.00e-01 -1.00e+00 -1.00e+00 -1.00e+00 >  313.9691   -1.3842    1.1127   71.7833   40.3833   -0.5770   23.7482 307.24  -1.0  -1.0  0     0.0000
IRK    ?    ?    i P      _ 19500815 1414   54.0000 GAU  2.00e-01 -1.00e+00 -1.00e+00 -1.00e+00 >  322.2207    0.3642    1.2040  104.2711   52.2431   -0.4670   24.6519  11.19  -1.0  -1.0  0     0.0000
IRK    ?    ?    i S      _ 19500815 1419   17.0000 GAU  2.00e-01 -1.00e+00 -1.00e+00 -1.00e+00 >  584.5952    0.9897    0.0000  104.2711   52.2431   -0.4670   24.6519  11.19  -1.0  -1.0  0     0.0000
OBG    ?    ?    _ P      _ 19500815 1414   49.0000 GAU  1.00e+00 -1.00e+00 -1.00e+00 -1.00e+00 >  322.4563   -4.8714    0.4273   69.7167   38.7167   -1.3500   24.6778 302.09  -1.0  -1.0  0     0.0000
DSH    ?    ?    i P      _ 19500815 1415    0.0000 GAU  2.00e-01 -1.00e+00 -1.00e+00 -1.00e+00 >  328.4769    0.1080    1.2135   68.7750   38.5583   -0.8470   25.3395 301.24  -1.0  -1.0  0     0.0000
DSH    ?    ?    i S      _ 19500815 1419   15.0000 GAU  2.00e-01 -1.00e+00 -1.00e+00 -1.00e+00 >  595.6039  -12.0190    0.0000   68.7750   38.5583   -0.8470   25.3395 301.24  -1.0  -1.0  0     0.0000
SEM    ?    ?    i P      _ 19500815 1415    1.0000 GAU  2.00e-01 -1.00e+00 -1.00e+00 -1.00e+00 >  329.1544    0.4305    1.2002   80.2500   50.4083   -0.2090   25.4141 335.17  -1.0  -1.0  0     0.0000
SEM    ?    ?    i S      _ 19500815 1419   26.0000 GAU  2.00e-01 -1.00e+00 -1.00e+00 -1.00e+00 >  596.7928   -2.2079    0.0000   80.2500   50.4083   -0.2090   25.4141 335.17  -1.0  -1.0  0     0.0000
KOD    ?    ?    i P      _ 19500815 1415    3.0000 GAU  2.00e-01 -1.00e+00 -1.00e+00 -1.00e+00 >  329.7890    1.7959    1.0165   77.4667   10.2333   -2.3450   25.4839 228.81  -1.0  -1.0  0     0.0000
KOD    ?    ?    i S      _ 19500815 1419   33.0000 GAU  2.00e-01 -1.00e+00 -1.00e+00 -1.00e+00 >  597.9058    3.6791    0.0000   77.4667   10.2333   -2.3450   25.4839 228.81  -1.0  -1.0  0     0.0000
TAS    ?    ?    i P      _ 19500815 1415    4.0000 GAU  2.00e-01 -1.00e+00 -1.00e+00 -1.00e+00 >  333.0806   -0.4957    1.2039   69.2950   41.3250   -0.4700   25.8469 307.61  -1.0  -1.0  0     0.0000
TAS    ?    ?    i S      _ 19500815 1419   34.0000 GAU  2.00e-01 -1.00e+00 -1.00e+00 -1.00e+00 >  603.6685   -1.0836    0.0000   69.2950   41.3250   -0.4700   25.8469 307.61  -1.0  -1.0  0     0.0000
COC    ?    ?    i P      _ 19500815 1415   12.0000 GAU  2.00e-01 -1.00e+00 -1.00e+00 -1.00e+00 >  340.0542    0.5307    1.1934   79.8667    6.9000   -0.0070   26.6180 219.85  -1.0  -1.0  0     0.0000
COC    ?    ?    _ S      _ 19500815 1419   30.0000 GAU  1.00e+00 -1.00e+00 -1.00e+00 -1.00e+00 >  615.8428  -17.2579    0.0000   79.8667    6.9000   -0.0070   26.6180 219.85  -1.0  -1.0  0     0.0000
SAM    ?    ?    i P      _ 19500815 1415   17.0000 GAU  2.00e-01 -1.00e+00 -1.00e+00 -1.00e+00 >  343.2732    2.3117    0.9077   66.9900   39.6733   -0.7040   26.9752 302.82  -1.0  -1.0  0     0.0000
NGS    ?    ?    i P      d 19500815 1415   27.0000 GAU  2.00e-01 -1.00e+00 -1.00e+00 -1.00e+00 >  359.9037   -4.3188    0.5050  129.8700   32.7317   -0.0270   28.8340  72.74  -1.0  -1.0  0     0.0000
NGS    ?    ?    i S      _ 19500815 1420   26.0000 GAU  2.00e-01 -1.00e+00 -1.00e+00 -1.00e+00 >  650.7559    3.8291    0.0000  129.8700   32.7317   -0.0270   28.8340  72.74  -1.0  -1.0  0     0.0000
UNZ    ?    ?    _ P      _ 19500815 1415   26.0000 GAU  1.00e+00 -1.00e+00 -1.00e+00 -1.00e+00 >  362.8523   -8.2674    0.0969  130.2650   32.7400   -0.6780   29.1663  72.72  -1.0  -1.0  0     0.0000
UNZ    ?    ?    e S      _ 19500815 1420   32.0000 GAU  5.00e-01 -1.00e+00 -1.00e+00 -1.00e+00 >  655.9813    4.6036    0.0000  130.2650   32.7400   -0.6780   29.1663  72.72  -1.0  -1.0  0     0.0000
FKK    ?    ?    i P      _ 19500815 1415   36.0000 GAU  2.00e-01 -1.00e+00 -1.00e+00 -1.00e+00 >  363.7795    0.8054    1.1690  130.3800   33.5800   -0.0020   29.2710  71.00  -1.0  -1.0  0     0.0000
FKK    ?    ?    _ S      _ 19500815 1420   40.0000 GAU  1.00e+00 -1.00e+00 -1.00e+00 -1.00e+00 >  657.6264   10.9585    0.0000  130.3800   33.5800   -0.0020   29.2710  71.00  -1.0  -1.0  0     0.0000
YKS    ?    ?    _ P      _ 19500815 1415   34.0000 GAU  1.00e+00 -1.00e+00 -1.00e+00 -1.00e+00 >  365.3942   -2.8093    0.8294  130.4967   30.4500   -0.0150   29.4533  77.38  -1.0  -1.0  0     0.0000
YKS    ?    ?    _ S      _ 19500815 1421    4.0000 GAU  1.00e+00 -1.00e+00 -1.00e+00 -1.00e+00 >  660.4915   32.0934    0.0000  130.4967   30.4500   -0.0150   29.4533  77.38  -1.0  -1.0  0     0.0000
KUM    ?    ?    i P      c 19500815 1415   37.0000 GAU  2.00e-01 -1.00e+00 -1.00e+00 -1.00e+00 >  366.1644   -0.5794    1.1991  130.7100   32.8100   -0.0390   29.5402  72.57  -1.0  -1.0  0     0.0000
KUM    ?    ?    _ S      _ 19500815 1420   32.0000 GAU  1.00e+00 -1.00e+00 -1.00e+00 -1.00e+00 >  661.8577   -1.2728    0.0000  130.7100   32.8100   -0.0390   29.5402  72.57  -1.0  -1.0  0     0.0000
MYZ    ?    ?    i P      _ 19500815 1415   43.0000 GAU  2.00e-01 -1.00e+00 -1.00e+00 -1.00e+00 >  371.6906   -0.1057    1.2153  131.4267   31.9167   -0.0070   30.1645  74.34  -1.0  -1.0  0     0.0000
MYZ    ?    ?    _ S      _ 19500815 1420   55.0000 GAU  1.00e+00 -1.00e+00 -1.00e+00 -1.00e+00 >  671.6594   11.9255    0.0000  131.4267   31.9167   -0.0070   30.1645  74.34  -1.0  -1.0  0     0.0000
OIT    ?    ?    i P      _ 19500815 1415   47.0000 GAU  2.00e-01 -1.00e+00 -1.00e+00 -1.00e+00 >  372.9323    2.6526    0.8297  131.6233   33.2333   -0.0060   30.3050  71.72  -1.0  -1.0  0     0.0000
OIT    ?    ?    e S      _ 19500815 1420   58.0000 GAU  5.00e-01 -1.00e+00 -1.00e+00 -1.00e+00 >  673.8617   12.7232    0.0000  131.6233   33.2333   -0.0060   30.3050  71.72  -1.0  -1.0  0     0.0000
MRY    ?    ?    e P      _ 19500815 1415   46.0000 GAU  5.00e-01 -1.00e+00 -1.00e+00 -1.00e+00 >  374.4589    0.1260    1.2011   61.8667   37.6000    0.0000   30.4776 296.91  -1.0  -1.0  0     0.0000
HIR    ?    ?    e P      _ 19500815 1415   50.0000 GAU  5.00e-01 -1.00e+00 -1.00e+00 -1.00e+00 >  379.0253   -0.4404    1.1950  132.4367   34.3633   -0.0300   30.9948  69.52  -1.0  -1.0  0     0.0000
HIR    ?    ?    e S      _ 19500815 1421   22.0000 GAU  5.00e-01 -1.00e+00 -1.00e+00 -1.00e+00 >  684.6698   25.9151    0.0000  132.4367   34.3633   -0.0300   30.9948  69.52  -1.0  -1.0  0     0.0000
MTY    ?    ?    e P      _ 19500815 1415   52.0000 GAU  5.00e-01 -1.00e+00 -1.00e+00 -1.00e+00 >  381.4604   -0.8755    1.1648  132.7800   33.8400   -0.0320   31.2709  70.54  -1.0  -1.0  0     0.0000
MTY    ?    ?    e S      _ 19500815 1421   28.0000 GAU  5.00e-01 -1.00e+00 -1.00e+00 -1.00e+00 >  688.9908   27.5941    0.0000  132.7800   33.8400   -0.0320   31.2709  70.54  -1.0  -1.0  0     0.0000
SHM    ?    ?    _ P      _ 19500815 1415   56.0000 GAU  1.00e+00 -1.00e+00 -1.00e+00 -1.00e+00 >  382.8664    1.7185    1.0015  132.9583   32.7750   -0.0210   31.4305  72.59  -1.0  -1.0  0     0.0000
SHM    ?    ?    _ S      _ 19500815 1421   46.0000 GAU  1.00e+00 -1.00e+00 -1.00e+00 -1.00e+00 >  691.4864   43.0985    0.0000  132.9583   32.7750   -0.0210   31.4305  72.59  -1.0  -1.0  0     0.0000
KOC    ?    ?    i P      _ 19500815 1415   48.0000 GAU  2.00e-01 -1.00e+00 -1.00e+00 -1.00e+00 >  387.0060  -10.4211    0.0356  133.5367   33.5533    0.0010   31.9009  71.09  -1.0  -1.0  0     0.0000
KOC    ?    ?    e S      _ 19500815 1420   59.0000 GAU  5.00e-01 -1.00e+00 -1.00e+00 -1.00e+00 >  698.8356  -11.2507    0.0000  133.5367   33.5533    0.0010   31.9009  71.09  -1.0  -1.0  0     0.0000
VLA    ?    ?    i P      _ 19500815 1415   57.0000 GAU  2.00e-01 -1.00e+00 -1.00e+00 -1.00e+00 >  387.1422   -1.5573    1.0858  131.8933   43.1200   -0.0730   31.9164  52.77  -1.0  -1.0  0     0.0000
SUM    ?    ?    i P      _ 19500815 1416    9.0000 GAU  2.00e-01 -1.00e+00 -1.00e+00 -1.00e+00 >  396.9477    0.6372    1.1850  134.9083   34.3350   -0.1100   33.0348  69.62  -1.0  -1.0  0     0.0000
SUM    ?    ?    i S      _ 19500815 1422   30.0000 GAU  2.00e-01 -1.00e+00 -1.00e+00 -1.00e+00 >  716.5030   62.0819    0.0000  134.9083   34.3350   -0.1100   33.0348  69.62  -1.0  -1.0  0     0.0000
KOB    ?    ?    _ P      _ 19500815 1416   11.0000 GAU  1.00e+00 -1.00e+00 -1.00e+00 -1.00e+00 >  398.9113    0.6736    1.1333  135.1800   34.6883   -0.0580   33.2595  68.97  -1.0  -1.0  0     0.0000
KOB    ?    ?    e S      _ 19500815 1422   32.0000 GAU  5.00e-01 -1.00e+00 -1.00e+00 -1.00e+00 >  719.9944   60.5905    0.0000  135.1800   34.6883   -0.0580   33.2595  68.97  -1.0  -1.0  0     0.0000
ASH    ?    ?    i P      _ 19500815 1416   10.0000 GAU  2.00e-01 -1.00e+00 -1.00e+00 -1.00e+00 >  399.0802   -0.4953    1.2040   58.3500   37.9500   -0.2200   33.2789 296.98  -1.0  -1.0  0     0.0000
OSA    ?    ?    i P      _ 19500815 1416   14.0000 GAU  2.00e-01 -1.00e+00 -1.00e+00 -1.00e+00 >  401.3630    1.2219    1.1160  135.5217   34.6783   -0.0130   33.5405  68.99  -1.0  -1.0  0     0.0000
OSA    ?    ?    e S      _ 19500815 1423    8.0000 GAU  5.00e-01 -1.00e+00 -1.00e+00 -1.00e+00 >  724.3540   92.2309    0.0000  135.5217   34.6783   -0.0130   33.5405  68.99  -1.0  -1.0  0     0.0000
OWA    ?    ?    i P      d 19500815 1416   18.0000 GAU  2.00e-01 -1.00e+00 -1.00e+00 -1.00e+00 >  406.2470    0.3379    1.2053  136.1950   34.0667   -0.0140   34.1018  70.08  -1.0  -1.0  0     0.0000
OWA    ?    ?    i S      _ 19500815 1422   46.0000 GAU  2.00e-01 -1.00e+00 -1.00e+00 -1.00e+00 >  733.0471   61.5378    0.0000  136.1950   34.0667   -0.0140   34.1018  70.08  -1.0  -1.0  0     0.0000
HIK    ?    ?    e P      _ 19500815 1415   20.0000 GAU  5.00e-01 -1.00e+00 -1.00e+00 -1.00e+00 >  406.5625  -57.9776    0.0000  136.2467   35.2733   -0.0880   34.1382  67.93  -1.0  -1.0  0     0.0000
HIK    ?    ?    e S      _ 19500815 1420   55.0000 GAU  5.00e-01 -1.00e+00 -1.00e+00 -1.00e+00 >  733.6091  -50.0242    0.0000  136.2467   35.2733   -0.0880   34.1382  67.93  -1.0  -1.0  0     0.0000
KAM    ?    ?    i P      _ 19500815 1416   19.0000 GAU  2.00e-01 -1.00e+00 -1.00e+00 -1.00e+00 >  408.0992   -0.5142    1.2029  136.4650   34.8567   -0.0710   34.3153  68.67  -1.0  -1.0  0     0.0000
KAM    ?    ?    e S      _ 19500815 1421   44.0000 GAU  5.00e-01 -1.00e+00 -1.00e+00 -1.00e+00 >  736.3469   -3.7620    0.0000  136.4650   34.8567   -0.0710   34.3153  68.67  -1.0  -1.0  0     0.0000
GIF    ?    ?    i P      _ 19500815 1416   22.0000 GAU  2.00e-01 -1.00e+00 -1.00e+00 -1.00e+00 >  410.2370    0.3479    1.2048  136.7650   35.3983   -0.0140   34.5621  67.72  -1.0  -1.0  0     0.0000
NAG    ?    ?    i P      _ 19500815 1416   24.0000 GAU  2.00e-01 -1.00e+00 -1.00e+00 -1.00e+00 >  411.6644    0.9206    1.1561  136.9683   35.1650   -0.0520   34.7271  68.13  -1.0  -1.0  0     0.0000
NAG    ?    ?    _ S      _ 19500815 1422    1.0000 GAU  1.00e+00 -1.00e+00 -1.00e+00 -1.00e+00 >  742.7027    6.8822    0.0000  136.9683   35.1650   -0.0520   34.7271  68.13  -1.0  -1.0  0     0.0000
WAJ    ?    ?    _ P      _ 19500815 1416   23.0000 GAU  1.00e+00 -1.00e+00 -1.00e+00 -1.00e+00 >  411.7240   -0.1391    1.1628  136.8983   37.3900   -0.0070   34.7340  64.22  -1.0  -1.0  0     0.0000
WAJ    ?    ?    e S      _ 19500815 1423   54.0000 GAU  5.00e-01 -1.00e+00 -1.00e+00 -1.00e+00 >  742.8091  119.7759    0.0000  136.8983   37.3900   -0.0070   34.7340  64.22  -1.0  -1.0  0     0.0000
KAT    ?    ?    i P      _ 19500815 1416   27.0000 GAU  2.00e-01 -1.00e+00 -1.00e+00 -1.00e+00 >  414.0382    1.5468    1.0630   56.2700   39.0280   -0.2000   35.0020 298.62  -1.0  -1.0  0     0.0000
NGN    ?    ?    i P      _ 19500815 1416   33.0000 GAU  2.00e-01 -1.00e+00 -1.00e+00 -1.00e+00 >  420.3912    1.1937    1.1201  138.1967   36.6600   -0.4180   35.7403  65.56  -1.0  -1.0  0     0.0000
NGN    ?    ?    e S      _ 19500815 1422    3.0000 GAU  5.00e-01 -1.00e+00 -1.00e+00 -1.00e+00 >  758.2836   -6.6987    0.0000  138.1967   36.6600   -0.4180   35.7403  65.56  -1.0  -1.0  0     0.0000
MAT    ?    ?    _ P      _ 19500815 1416   32.0000 GAU  1.00e+00 -1.00e+00 -1.00e+00 -1.00e+00 >  420.4522    0.1327    1.1607  138.2089   36.5417   -0.4220   35.7474  65.76  -1.0  -1.0  0     0.0000
MAT    ?    ?    i S      _ 19500815 1422   14.0000 GAU  2.00e-01 -1.00e+00 -1.00e+00 -1.00e+00 >  758.3927    4.1922    0.0000  138.2089   36.5417   -0.4220   35.7474  65.76  -1.0  -1.0  0     0.0000
DJA    ?    ?    i P      _ 19500815 1416   31.0000 GAU  2.00e-01 -1.00e+00 -1.00e+00 -1.00e+00 >  420.9108   -1.3259    1.1212  106.8362   -6.1833   -0.0080   35.8009 162.55  -1.0  -1.0  0     0.0000
DJA    ?    ?    e S      _ 19500815 1422   14.0000 GAU  5.00e-01 -1.00e+00 -1.00e+00 -1.00e+00 >  759.2124    3.3725    0.0000  106.8362   -6.1833   -0.0080   35.8009 162.55  -1.0  -1.0  0     0.0000
AIK    ?    ?    i P      _ 19500815 1416   30.0000 GAU  2.00e-01 -1.00e+00 -1.00e+00 -1.00e+00 >  421.1685   -2.5836    0.8848  138.2417   38.0200   -0.0340   35.8309  63.24  -1.0  -1.0  0     0.0000
AIK    ?    ?    e S      _ 19500815 1422   36.0000 GAU  5.00e-01 -1.00e+00 -1.00e+00 -1.00e+00 >  759.6730   24.9119    0.0000  138.2417   38.0200   -0.0340   35.8309  63.24  -1.0  -1.0  0     0.0000
SHZ    ?    ?    i P      _ 19500815 1416   33.0000 GAU  2.00e-01 -1.00e+00 -1.00e+00 -1.00e+00 >  421.8137   -0.2288    1.2137  138.4067   34.9733   -0.0150   35.9061  68.44  -1.0  -1.0  0     0.0000
SHZ    ?    ?    e S      _ 19500815 1422   57.0000 GAU  5.00e-01 -1.00e+00 -1.00e+00 -1.00e+00 >  760.8261   44.7588    0.0000  138.4067   34.9733   -0.0150   35.9061  68.44  -1.0  -1.0  0     0.0000
FUN    ?    ?    i P      _ 19500815 1416   36.0000 GAU  2.00e-01 -1.00e+00 -1.00e+00 -1.00e+00 >  424.2439    0.3410    1.2052  138.7633   35.4983   -0.8600   36.1899  67.54  -1.0  -1.0  0     0.0000
FUN    ?    ?    _ S      _ 19500815 1422   38.0000 GAU  1.00e+00 -1.00e+00 -1.00e+00 -1.00e+00 >  765.1717   21.4132    0.0000  138.7633   35.4983   -0.8600   36.1899  67.54  -1.0  -1.0  0     0.0000
MAE    ?    ?    i P      _ 19500815 1416   37.0000 GAU  2.00e-01 -1.00e+00 -1.00e+00 -1.00e+00 >  426.3281   -0.7432    1.1872  139.0650   36.4017   -0.1130   36.4337  66.02  -1.0  -1.0  0     0.0000
MAE    ?    ?    e S      _ 19500815 1423    9.0000 GAU  5.00e-01 -1.00e+00 -1.00e+00 -1.00e+00 >  768.9000   48.6849    0.0000  139.0650   36.4017   -0.1130   36.4337  66.02  -1.0  -1.0  0     0.0000
KMG    ?    ?    _ P      _ 19500815 1416   38.0000 GAU  1.00e+00 -1.00e+00 -1.00e+00 -1.00e+00 >  428.5210   -1.9361    0.0000  139.3850   36.1467   -0.0310   36.6906  66.45  -1.0  -1.0  0     0.0000
KMG    ?    ?    e S      _ 19500815 1423   30.0000 GAU  5.00e-01 -1.00e+00 -1.00e+00 -1.00e+00 >  772.8250   65.7599    0.0000  139.3850   36.1467   -0.0310   36.6906  66.45  -1.0  -1.0  0     0.0000
OSH    ?    ?    i P      _ 19500815 1416   41.0000 GAU  2.00e-01 -1.00e+00 -1.00e+00 -1.00e+00 >  428.6735    0.9114    0.0000  139.3783   34.7617   -0.1910   36.7085  68.76  -1.0  -1.0  0     0.0000
OSH    ?    ?    _ S      _ 19500815 1423   38.0000 GAU  1.00e+00 -1.00e+00 -1.00e+00 -1.00e+00 >  773.0980   73.4869    0.0000  139.3783   34.7617   -0.1910   36.7085  68.76  -1.0  -1.0  0     0.0000
