NLLOC "./loc/global.19640926.004637.grid0" "LOCATED" "Location completed."
SIGNATURE "Vipin Maurya (GPT, IIT Roorkee)   obs:./obs/19640926.0046_Dharchula.isf   NLLoc:v7.00.00(27Oct2017)  run:31May2022 18h49m51"
COMMENT "ISC_IMS1.0 events"
GRID  361 181 601  -180 -90 0  1 1 1 PROB_DENSITY
SEARCH OCTREE nInitial 17628 nEvaluated 50004 smallestNodeSide 1.906925/1.628832/0.391276 oct_tree_integral 3.613017e+04 scatter_volume 3.613017e+04
HYPOCENTER  x 80.5078 y 30.1978 z 39.3232  OT 5.29696  ix -1 iy -1 iz -1 MAXIMUM_LIKELIHOOD
GEOGRAPHIC  OT 1964 09 26  00 46 5.296960  Lat 30.197754 Long 80.507813 Depth 39.323242
QUALITY  Pmax 2.14692e+125 MFmin 20.2356 MFmax 20.3403 RMS 1.23038 Nphs 50 Gap 69.2631 Dist 17.2004 Mamp -9.90 0 Mdur -9.90 0
VPVSRATIO  VpVsRatio 1.78819  Npair 51  Diff 438.7
STATISTICS  ExpectX 80.5167 Y 30.1616 Z 60.0582  CovXX 57.7245 XY -15.2144 XZ 51.1011 YY 166.115 YZ -303.474 ZZ 1523.85 EllAz1  84.4517 Dip1  -0.839669 Len1  13.9962 Az2  354.633 Dip2  12.1791 Len2  18.9527 Len3  7.492822e+01
STAT_GEOG  ExpectLat 30.161567 Long 80.516661 Depth 60.058196
TRANSFORM  GLOBAL
QML_OriginQuality  assocPhCt 286  usedPhCt 50  assocStaCt -1  usedStaCt 48  depthPhCt -1  stdErr 1.23038  azGap 69.2631  secAzGap 104.365  gtLevel -  minDist 1912.59 maxDist 5136.17 medDist 4571.15
QML_OriginUncertainty  horUnc -1  minHorUnc 11.3114  maxHorUnc 19.6693  azMaxHorUnc 172.159
QML_ConfidenceEllipsoid  semiMajorAxisLength 74.9282  semiMinorAxisLength 13.9962  semiIntermediateAxisLength 18.9527  majorAxisPlunge 77.7911  majorAxisAzimuth 170.568  majorAxisRotation 175.638
FOCALMECH  Hyp  30.197754 80.507813 39.323242 Mech  0 0 0 mf  0 nObs 0
PHASE ID Ins Cmp On Pha  FM Date     HrMn   Sec     Err  ErrMag    Coda      Amp       Per  >   TTpred    Res       Weight    StaLoc(X  Y         Z)        SDist    SAzim  RAz  RDip RQual    Tcorr 
MDR    ?    ?    e P      _ 19640926 0050    3.0000 GAU  5.00e-01 -1.00e+00 -1.00e+00 -1.00e+00 >  237.2240    0.4790    1.1176   80.1833   13.0000   -0.0150   17.2004 181.07  -1.0  -1.0  0     0.0000
ASH    ?    ?    _ S      _ 19640926 0054   13.0000 GAU  1.00e+00 -1.00e+00 -1.00e+00 -1.00e+00 >  489.0686   -1.3655    1.0023   58.3500   37.9500   -0.2200   19.8596 298.90  -1.0  -1.0  0     0.0000
SEM    ?    ?    i P      d 19640926 0050   36.0000 GAU  2.00e-01 -1.00e+00 -1.00e+00 -1.00e+00 >  271.4525   -0.7495    1.1097   80.2500   50.4083   -0.2090   20.2115 359.52  -1.0  -1.0  0     0.0000
SEM    ?    ?    _ S      _ 19640926 0054   21.0000 GAU  1.00e+00 -1.00e+00 -1.00e+00 -1.00e+00 >  496.0780   -0.3749    1.0854   80.2500   50.4083   -0.2090   20.2115 359.52  -1.0  -1.0  0     0.0000
CHG    ?    ?    e P      _ 19640926 0050   33.0000 GAU  5.00e-01 -1.00e+00 -1.00e+00 -1.00e+00 >  271.6056   -3.9026    0.5324   98.9438   18.8138   -0.4160   20.2256 120.02  -1.0  -1.0  0     0.0000
CHG    ?    ?    _ S      _ 19640926 0054   10.0000 GAU  1.00e+00 -1.00e+00 -1.00e+00 -1.00e+00 >  496.3584  -11.6554    0.0108   98.9438   18.8138   -0.4160   20.2256 120.02  -1.0  -1.0  0     0.0000
PBA    ?    ?    e P      _ 19640926 0050   58.0000 GAU  5.00e-01 -1.00e+00 -1.00e+00 -1.00e+00 >  287.7062    4.9968    0.3220   92.7167   11.6667   -0.0790   21.7193 145.97  -1.0  -1.0  0     0.0000
KAT    ?    ?    i P      _ 19640926 0050   52.0000 GAU  2.00e-01 -1.00e+00 -1.00e+00 -1.00e+00 >  287.7825   -1.0794    1.0760   56.2700   39.0280   -0.2000   21.7265 300.51  -1.0  -1.0  0     0.0000
ELT    ?    ?    i P      c 19640926 0051   10.0000 GAU  2.00e-01 -1.00e+00 -1.00e+00 -1.00e+00 >  305.7877   -1.0847    1.0754   86.2389   53.2611   -0.2150   23.4384   8.64  -1.0  -1.0  0     0.0000
SHI    ?    ?    i P      c 19640926 0051   16.0000 GAU  2.00e-01 -1.00e+00 -1.00e+00 -1.00e+00 >  312.7207   -2.0176    0.9278   52.5261   29.6445   -1.5390   24.1972 275.80  -1.0  -1.0  0     0.0000
SHI    ?    ?    _ S      _ 19640926 0055   20.0000 GAU  1.00e+00 -1.00e+00 -1.00e+00 -1.00e+00 >  568.3655  -13.6625    0.0000   52.5261   29.6445   -1.5390   24.1972 275.80  -1.0  -1.0  0     0.0000
TEH    ?    ?    _ P      _ 19640926 0051   26.0000 GAU  1.00e+00 -1.00e+00 -1.00e+00 -1.00e+00 >  319.6192    1.0839    1.0340   51.3856   35.7378   -1.3600   24.9547 290.56  -1.0  -1.0  0     0.0000
PLV    ?    ?    i P      _ 19640926 0051   27.0000 GAU  2.00e-01 -1.00e+00 -1.00e+00 -1.00e+00 >  322.7630   -1.0600    1.0783  106.6290   20.8060   -0.0900   25.3007 105.63  -1.0  -1.0  0     0.0000
PLV    ?    ?    i S      _ 19640926 0056    6.2000 GAU  2.00e-01 -1.00e+00 -1.00e+00 -1.00e+00 >  586.0370   14.8660    0.0000  106.6290   20.8060   -0.0900   25.3007 105.63  -1.0  -1.0  0     0.0000
IRK    ?    ?    _ P      _ 19640926 0051   56.0000 GAU  1.00e+00 -1.00e+00 -1.00e+00 -1.00e+00 >  348.0853    2.6178    0.7936  104.2711   52.2431   -0.4670   28.1131  31.58  -1.0  -1.0  0     0.0000
GRS    ?    ?    i P      _ 19640926 0052    5.0000 GAU  2.00e-01 -1.00e+00 -1.00e+00 -1.00e+00 >  359.0160    0.6870    1.1146   46.3333   39.5000   -1.3990   29.3439 297.81  -1.0  -1.0  0     0.0000
GRS    ?    ?    i S      _ 19640926 0056   59.0000 GAU  2.00e-01 -1.00e+00 -1.00e+00 -1.00e+00 >  649.7752    3.9278    0.0000   46.3333   39.5000   -1.3990   29.3439 297.81  -1.0  -1.0  0     0.0000
KRV    ?    ?    i P      c 19640926 0052    4.0000 GAU  2.00e-01 -1.00e+00 -1.00e+00 -1.00e+00 >  360.6698   -1.9668    0.9374   46.3190   40.6470   -0.5320   29.5307 300.12  -1.0  -1.0  0     0.0000
SVE    ?    ?    _ P      _ 19640926 0052   10.0000 GAU  1.00e+00 -1.00e+00 -1.00e+00 -1.00e+00 >  365.0831   -0.3801    1.0852   60.6370   56.8270   -0.2750   30.0294 338.18  -1.0  -1.0  0     0.0000
SVE    ?    ?    _ S      _ 19640926 0057   12.0000 GAU  1.00e+00 -1.00e+00 -1.00e+00 -1.00e+00 >  660.5358    6.1672    0.0000   60.6370   56.8270   -0.2750   30.0294 338.18  -1.0  -1.0  0     0.0000
TIF    ?    ?    e P      _ 19640926 0052   19.0000 GAU  5.00e-01 -1.00e+00 -1.00e+00 -1.00e+00 >  372.2716    1.4315    1.0198   44.8000   41.7167   -0.3990   30.8432 301.81  -1.0  -1.0  0     0.0000
TIF    ?    ?    _ S      _ 19640926 0057   17.0000 GAU  1.00e+00 -1.00e+00 -1.00e+00 -1.00e+00 >  673.2868   -1.5838    0.0000   44.8000   41.7167   -0.3990   30.8432 301.81  -1.0  -1.0  0     0.0000
HKC    ?    ?    _ P      d 19640926 0052   18.0000 GAU  1.00e+00 -1.00e+00 -1.00e+00 -1.00e+00 >  374.3799   -1.6768    0.9594  114.1719   22.3036   -0.0270   31.0823  96.60  -1.0  -1.0  0     0.0000
HKC    ?    ?    _ S      _ 19640926 0057   22.0000 GAU  1.00e+00 -1.00e+00 -1.00e+00 -1.00e+00 >  677.0279   -0.3249    0.0000  114.1719   22.3036   -0.0270   31.0823  96.60  -1.0  -1.0  0     0.0000
BKR    ?    ?    i P      _ 19640926 0052   27.0000 GAU  2.00e-01 -1.00e+00 -1.00e+00 -1.00e+00 >  380.6075    1.0955    1.0736   43.5167   41.7333   -1.8300   31.7900 301.53  -1.0  -1.0  0     0.0000
BOD    ?    ?    i P      _ 19640926 0053    4.0000 GAU  2.00e-01 -1.00e+00 -1.00e+00 -1.00e+00 >  416.6750    2.0280    0.9244  114.0039   57.8189   -0.2450   35.9447  30.05  -1.0  -1.0  0     0.0000
KSA    ?    ?    i P      _ 19640926 0053   17.0000 GAU  2.00e-01 -1.00e+00 -1.00e+00 -1.00e+00 >  431.7238   -0.0208    1.1420   35.8900   33.8233   -0.9200   37.7143 287.47  -1.0  -1.0  0     0.0000
KSA    ?    ?    _ S      _ 19640926 0059   18.0000 GAU  1.00e+00 -1.00e+00 -1.00e+00 -1.00e+00 >  779.2910   13.4120    0.0000   35.8900   33.8233   -0.9200   37.7143 287.47  -1.0  -1.0  0     0.0000
JER    ?    ?    i P      _ 19640926 0053   25.5000 GAU  2.00e-01 -1.00e+00 -1.00e+00 -1.00e+00 >  439.1299    1.0731    1.0763   35.1972   31.7719   -0.7700   38.5940 284.33  -1.0  -1.0  0     0.0000
SIM    ?    ?    _ P      _ 19640926 0053   27.0000 GAU  1.00e+00 -1.00e+00 -1.00e+00 -1.00e+00 >  442.4549   -0.7519    1.0643   34.1160   44.9490   -0.2750   38.9909 305.47  -1.0  -1.0  0     0.0000
SIM    ?    ?    _ S      _ 19640926 0059   26.0000 GAU  1.00e+00 -1.00e+00 -1.00e+00 -1.00e+00 >  798.5701    2.1329    0.0000   34.1160   44.9490   -0.2750   38.9909 305.47  -1.0  -1.0  0     0.0000
KAS    ?    ?    _ P      d 19640926 0053   21.0000 GAU  1.00e+00 -1.00e+00 -1.00e+00 -1.00e+00 >  442.6983   -6.9953    0.1278   33.7667   41.3717   -0.8500   39.0200 299.77  -1.0  -1.0  0     0.0000
MOS    ?    ?    i P      _ 19640926 0053   32.0000 GAU  2.00e-01 -1.00e+00 -1.00e+00 -1.00e+00 >  446.2413    0.4618    1.1295   37.6250   55.7383   -0.1210   39.4444 322.91  -1.0  -1.0  0     0.0000
MOS    ?    ?    e S      _ 19640926 0059   33.0000 GAU  5.00e-01 -1.00e+00 -1.00e+00 -1.00e+00 >  805.3851    2.3180    0.0000   37.6250   55.7383   -0.1210   39.4444 322.91  -1.0  -1.0  0     0.0000
ANK    ?    ?    _ P      d 19640926 0053   34.0000 GAU  1.00e+00 -1.00e+00 -1.00e+00 -1.00e+00 >  448.6929    0.0101    1.0924   32.8167   39.9167    0.0000   39.7389 297.47  -1.0  -1.0  0     0.0000
VLA    ?    ?    _ P      _ 19640926 0053   58.0000 GAU  1.00e+00 -1.00e+00 -1.00e+00 -1.00e+00 >  471.2232    1.4798    0.9862  131.8933   43.1200   -0.0730   42.4797  57.62  -1.0  -1.0  0     0.0000
VLA    ?    ?    e S      _ 19640926 0100   22.0000 GAU  5.00e-01 -1.00e+00 -1.00e+00 -1.00e+00 >  850.5022    6.2008    0.0000  131.8933   43.1200   -0.0730   42.4797  57.62  -1.0  -1.0  0     0.0000
IST    ?    ?    _ P      _ 19640926 0053   58.0000 GAU  1.00e+00 -1.00e+00 -1.00e+00 -1.00e+00 >  472.2921    0.4109    1.0837   28.9958   41.0456   -0.0500   42.6113 299.31  -1.0  -1.0  0     0.0000
KIS    ?    ?    i P      c 19640926 0054    0.0000 GAU  2.00e-01 -1.00e+00 -1.00e+00 -1.00e+00 >  474.1354    0.5677    1.1232   28.8180   46.9980   -0.1850   42.8386 308.09  -1.0  -1.0  0     0.0000
KIS    ?    ?    _ S      _ 19640926 0100   23.0000 GAU  1.00e+00 -1.00e+00 -1.00e+00 -1.00e+00 >  855.7781    1.9250    0.0000   28.8180   46.9980   -0.1850   42.8386 308.09  -1.0  -1.0  0     0.0000
CIN    ?    ?    _ P      _ 19640926 0054    4.0000 GAU  1.00e+00 -1.00e+00 -1.00e+00 -1.00e+00 >  480.0602   -1.3572    1.0033   28.0867   37.6000   -0.1200   43.5723 294.36  -1.0  -1.0  0     0.0000
AAE    ?    ?    i P      c 19640926 0054   11.1000 GAU  2.00e-01 -1.00e+00 -1.00e+00 -1.00e+00 >  485.8030    0.0000    1.1420   38.7656    9.0292   -2.4420   44.2881 250.33  -1.0  -1.0  0     0.0000
PUL    ?    ?    _ P      _ 19640926 0054   13.0000 GAU  1.00e+00 -1.00e+00 -1.00e+00 -1.00e+00 >  487.5339    0.1692    1.0909   30.3167   59.7667   -0.0650   44.5047 326.51  -1.0  -1.0  0     0.0000
PUL    ?    ?    _ S      _ 19640926 0100   47.0000 GAU  1.00e+00 -1.00e+00 -1.00e+00 -1.00e+00 >  880.1045    1.5986    0.0000   30.3167   59.7667   -0.0650   44.5047 326.51  -1.0  -1.0  0     0.0000
YAK    ?    ?    i P      d 19640926 0054   14.0000 GAU  2.00e-01 -1.00e+00 -1.00e+00 -1.00e+00 >  490.0998   -1.3968    1.0337  129.6811   62.0311   -0.0910   44.8266  30.23  -1.0  -1.0  0     0.0000
VYB    ?    ?    i P      c 19640926 0054   20.0000 GAU  2.00e-01 -1.00e+00 -1.00e+00 -1.00e+00 >  495.5908   -0.8878    1.0969   28.8000   60.7167   -0.0250   45.5186 327.45  -1.0  -1.0  0     0.0000
VYB    ?    ?    _ S      _ 19640926 0101    4.0000 GAU  1.00e+00 -1.00e+00 -1.00e+00 -1.00e+00 >  894.7709    3.9321    0.0000   28.8000   60.7167   -0.0250   45.5186 327.45  -1.0  -1.0  0     0.0000
ABU    ?    ?    i P      d 19640926 0054   26.1000 GAU  2.00e-01 -1.00e+00 -1.00e+00 -1.00e+00 >  500.0515    0.7515    1.1093  135.5739   34.8603   -0.2000   46.0840  69.04  -1.0  -1.0  0     0.0000
LVV    ?    ?    i P      c 19640926 0054   26.0000 GAU  2.00e-01 -1.00e+00 -1.00e+00 -1.00e+00 >  500.8907   -0.1877    1.1400   24.0310   49.8190   -0.3200   46.1907 311.81  -1.0  -1.0  0     0.0000
LVV    ?    ?    _ S      _ 19640926 0101   13.0000 GAU  1.00e+00 -1.00e+00 -1.00e+00 -1.00e+00 >  904.4359    3.2671    0.0000   24.0310   49.8190   -0.3200   46.1907 311.81  -1.0  -1.0  0     0.0000
APA    ?    ?    i P      c 19640926 0054   28.0000 GAU  2.00e-01 -1.00e+00 -1.00e+00 -1.00e+00 >  502.6628    0.0403    1.1419   33.4050   67.5689   -0.1820   46.4163 337.30  -1.0  -1.0  0     0.0000
APA    ?    ?    _ S      _ 19640926 0101    8.0000 GAU  1.00e+00 -1.00e+00 -1.00e+00 -1.00e+00 >  907.6701   -4.9670    0.0000   33.4050   67.5689   -0.1820   46.4163 337.30  -1.0  -1.0  0     0.0000
ATH    ?    ?    e P      _ 19640926 0054   32.0000 GAU  5.00e-01 -1.00e+00 -1.00e+00 -1.00e+00 >  506.8388   -0.1358    1.1296   23.7167   37.9722   -0.0950   46.9499 295.50  -1.0  -1.0  0     0.0000
ATH    ?    ?    _ S      _ 19640926 0101   22.0000 GAU  1.00e+00 -1.00e+00 -1.00e+00 -1.00e+00 >  915.2972    1.4058    0.0000   23.7167   37.9722   -0.0950   46.9499 295.50  -1.0  -1.0  0     0.0000
UZH    ?    ?    e P      _ 19640926 0054   35.0000 GAU  5.00e-01 -1.00e+00 -1.00e+00 -1.00e+00 >  509.4478    0.2552    1.1268   22.2930   48.6310   -0.1600   47.2847 310.13  -1.0  -1.0  0     0.0000
UZH    ?    ?    _ S      _ 19640926 0101   29.0000 GAU  1.00e+00 -1.00e+00 -1.00e+00 -1.00e+00 >  920.0667    3.6363    0.0000   22.2930   48.6310   -0.1600   47.2847 310.13  -1.0  -1.0  0     0.0000
NUR    ?    ?    e P      _ 19640926 0054   36.0000 GAU  5.00e-01 -1.00e+00 -1.00e+00 -1.00e+00 >  510.5055    0.1975    1.1283   24.6490   60.5090   -0.1020   47.4207 326.40  -1.0  -1.0  0     0.0000
NUR    ?    ?    _ S      _ 19640926 0101   27.0000 GAU  1.00e+00 -1.00e+00 -1.00e+00 -1.00e+00 >  922.0013   -0.2982    0.0000   24.6490   60.5090   -0.1020   47.4207 326.40  -1.0  -1.0  0     0.0000
MAT    ?    ?    i P      c 19640926 0054   38.5000 GAU  2.00e-01 -1.00e+00 -1.00e+00 -1.00e+00 >  514.1660   -0.9629    1.0892  138.2089   36.5417   -0.4220   47.8926  66.26  -1.0  -1.0  0     0.0000
MAT    ?    ?    _ S      _ 19640926 0101   43.0000 GAU  1.00e+00 -1.00e+00 -1.00e+00 -1.00e+00 >  928.6987    9.0044    0.0000  138.2089   36.5417   -0.4220   47.8926  66.26  -1.0  -1.0  0     0.0000
WAR    ?    ?    _ P      c 19640926 0054   41.0000 GAU  1.00e+00 -1.00e+00 -1.00e+00 -1.00e+00 >  516.6235   -0.9205    1.0505   21.0236   52.2417   -0.1100   48.2106 314.97  -1.0  -1.0  0     0.0000
WAR    ?    ?    _ S      _ 19640926 0101   43.0000 GAU  1.00e+00 -1.00e+00 -1.00e+00 -1.00e+00 >  933.1981    4.5049    0.0000   21.0236   52.2417   -0.1100   48.2106 314.97  -1.0  -1.0  0     0.0000
KRK    ?    ?    i P      _ 19640926 0054   45.3000 GAU  2.00e-01 -1.00e+00 -1.00e+00 -1.00e+00 >  518.8929    1.1101    1.0718   30.0625   69.7242   -0.0250   48.5052 339.10  -1.0  -1.0  0     0.0000
KRK    ?    ?    _ S      _ 19640926 0101   47.0000 GAU  1.00e+00 -1.00e+00 -1.00e+00 -1.00e+00 >  937.3554    4.3477    0.0000   30.0625   69.7242   -0.0250   48.5052 339.10  -1.0  -1.0  0     0.0000
SOD    ?    ?    i P      c 19640926 0054   45.8000 GAU  2.00e-01 -1.00e+00 -1.00e+00 -1.00e+00 >  520.2163    0.2868    1.1372   26.6291   67.3712   -0.1810   48.6773 335.55  -1.0  -1.0  0     0.0000
TIK    ?    ?    i P      c 19640926 0054   46.0000 GAU  2.00e-01 -1.00e+00 -1.00e+00 -1.00e+00 >  521.3730   -0.6700    1.1161  128.8667   71.6333   -0.0410   48.8280  18.23  -1.0  -1.0  0     0.0000
TIK    ?    ?    _ S      _ 19640926 0101   54.0000 GAU  1.00e+00 -1.00e+00 -1.00e+00 -1.00e+00 >  941.9012    6.8019    0.0000  128.8667   71.6333   -0.0410   48.8280  18.23  -1.0  -1.0  0     0.0000
PSZ    ?    ?    e P      _ 19640926 0054   47.0000 GAU  5.00e-01 -1.00e+00 -1.00e+00 -1.00e+00 >  521.8260   -0.1230    1.1297   19.8944   47.9184   -0.9400   48.8871 309.19  -1.0  -1.0  0     0.0000
KEV    ?    ?    i P      c 19640926 0054   52.2000 GAU  2.00e-01 -1.00e+00 -1.00e+00 -1.00e+00 >  526.3068    0.5962    1.1213   27.0067   69.7553   -0.0810   49.4732 338.53  -1.0  -1.0  0     0.0000
KEV    ?    ?    _ S      _ 19640926 0102    0.0000 GAU  1.00e+00 -1.00e+00 -1.00e+00 -1.00e+00 >  950.9526    3.7505    0.0000   27.0067   69.7553   -0.0810   49.4732 338.53  -1.0  -1.0  0     0.0000
BUD    ?    ?    e P      _ 19640926 0054   54.0000 GAU  5.00e-01 -1.00e+00 -1.00e+00 -1.00e+00 >  526.4287    2.2743    0.8718   19.0239   47.4836   -0.1960   49.4892 308.64  -1.0  -1.0  0     0.0000
SRO    ?    ?    i P      _ 19640926 0054   56.7000 GAU  2.00e-01 -1.00e+00 -1.00e+00 -1.00e+00 >  529.9426    1.4604    1.0234   18.3133   47.8133   -0.1500   49.9512 309.11  -1.0  -1.0  0     0.0000
YSS    ?    ?    i P      _ 19640926 0054   56.0000 GAU  2.00e-01 -1.00e+00 -1.00e+00 -1.00e+00 >  530.5883    0.1147    1.1412  142.7550   46.9539   -0.0980   50.0363  52.01  -1.0  -1.0  0     0.0000
UME    ?    ?    i P      c 19640926 0054   57.2000 GAU  2.00e-01 -1.00e+00 -1.00e+00 -1.00e+00 >  531.6107    0.2923    0.0000   20.2367   63.8150   -0.0160   50.1712 330.07  -1.0  -1.0  0     0.0000
UME    ?    ?    _ S      _ 19640926 0102    9.0000 GAU  1.00e+00 -1.00e+00 -1.00e+00 -1.00e+00 >  960.6950    3.0081    0.0000   20.2367   63.8150   -0.0160   50.1712 330.07  -1.0  -1.0  0     0.0000
BRA    ?    ?    i P      _ 19640926 0055    2.0000 GAU  2.00e-01 -1.00e+00 -1.00e+00 -1.00e+00 >  535.8960    0.8070    0.0000   17.1050   48.1683   -0.2700   50.7387 309.63  -1.0  -1.0  0     0.0000
UPP    ?    ?    i P      c 19640926 0055    0.8000 GAU  2.00e-01 -1.00e+00 -1.00e+00 -1.00e+00 >  535.9239   -0.4209    0.0000   17.6267   59.8583   -0.0140   50.7424 324.75  -1.0  -1.0  0     0.0000
UPP    ?    ?    i S      _ 19640926 0102   14.0000 GAU  2.00e-01 -1.00e+00 -1.00e+00 -1.00e+00 >  968.6271    0.0759    0.0000   17.6267   59.8583   -0.0140   50.7424 324.75  -1.0  -1.0  0     0.0000
KIR    ?    ?    i P      _ 19640926 0055    3.7000 GAU  2.00e-01 -1.00e+00 -1.00e+00 -1.00e+00 >  538.3783    0.0248    0.0000   20.4167   67.8400   -0.3900   51.0688 335.15  -1.0  -1.0  0     0.0000
KIR    ?    ?    _ S      _ 19640926 0102   26.0000 GAU  1.00e+00 -1.00e+00 -1.00e+00 -1.00e+00 >  973.1436    7.5595    0.0000   20.4167   67.8400   -0.3900   51.0688 335.15  -1.0  -1.0  0     0.0000
SOP    ?    ?    e P      _ 19640926 0055    9.0000 GAU  5.00e-01 -1.00e+00 -1.00e+00 -1.00e+00 >  538.8904    4.8127    0.0000   16.5583   47.6833   -0.2600   51.1370 309.03  -1.0  -1.0  0     0.0000
KHE    ?    ?    e P      _ 19640926 0055    6.0000 GAU  5.00e-01 -1.00e+00 -1.00e+00 -1.00e+00 >  539.4297    1.2733    0.0000   58.0500   80.6167   -0.0216   51.2089 355.42  -1.0  -1.0  0     0.0000
KHE    ?    ?    _ S      _ 19640926 0102   25.0000 GAU  1.00e+00 -1.00e+00 -1.00e+00 -1.00e+00 >  975.0795    4.6235    0.0000   58.0500   80.6167   -0.0216   51.2089 355.42  -1.0  -1.0  0     0.0000
KLS    ?    ?    i P      _ 19640926 0055    7.4000 GAU  2.00e-01 -1.00e+00 -1.00e+00 -1.00e+00 >  541.9877    0.1153    0.0000   15.5917   56.1650   -0.0110   51.5506 319.92  -1.0  -1.0  0     0.0000
ZAG    ?    ?    e P      _ 19640926 0055    9.0000 GAU  5.00e-01 -1.00e+00 -1.00e+00 -1.00e+00 >  543.0293    0.6737    0.0000   15.9940   45.8290   -0.1550   51.6901 306.72  -1.0  -1.0  0     0.0000
ZAG    ?    ?    _ S      _ 19640926 0102    6.0000 GAU  1.00e+00 -1.00e+00 -1.00e+00 -1.00e+00 >  981.7110  -21.0079    0.0000   15.9940   45.8290   -0.1550   51.6901 306.72  -1.0  -1.0  0     0.0000
PRU    ?    ?    _ P      _ 19640926 0055   12.0000 GAU  1.00e+00 -1.00e+00 -1.00e+00 -1.00e+00 >  547.5465   -0.8434    0.0000   14.5417   49.9883   -0.3020   52.2973 312.08  -1.0  -1.0  0     0.0000
PRU    ?    ?    _ S      _ 19640926 0102   40.0000 GAU  1.00e+00 -1.00e+00 -1.00e+00 -1.00e+00 >  990.0420    4.6610    0.0000   14.5417   49.9883   -0.3020   52.2973 312.08  -1.0  -1.0  0     0.0000
PRA    ?    ?    i P      _ 19640926 0055   14.1000 GAU  2.00e-01 -1.00e+00 -1.00e+00 -1.00e+00 >  548.0212    0.7819    0.0000   14.4331   50.0703   -0.2250   52.3613 312.19  -1.0  -1.0  0     0.0000
PRA    ?    ?    _ S      _ 19640926 0102   38.0000 GAU  1.00e+00 -1.00e+00 -1.00e+00 -1.00e+00 >  990.9179    1.7852    0.0000   14.4331   50.0703   -0.2250   52.3613 312.19  -1.0  -1.0  0     0.0000
