NLLOC "./loc/global.19340115.084418.grid0" "LOCATED" "Location completed."
SIGNATURE "Vipin Maurya (GPT, IIT Roorkee)   obs:./obs/19340115.ims   NLLoc:v7.00.00(27Oct2017)  run:22Dec2021 00h40m05"
COMMENT "ISC_IMS1.0 events"
GRID  361 181 601  -180 -90 0  1 1 1 PROB_DENSITY
SEARCH OCTREE nInitial 17628 nEvaluated 50012 smallestNodeSide 3.679244/3.257664/0.782552 oct_tree_integral 1.773913e+05 scatter_volume 1.773913e+05
HYPOCENTER  x 87.1048 y 27.29 z 62.9954  OT 31.6908  ix -1 iy -1 iz -1 MAXIMUM_LIKELIHOOD
GEOGRAPHIC  OT 1934 01 15  08 43 31.690845  Lat 27.290039 Long 87.104779 Depth 62.995443
QUALITY  Pmax 3.59662e+105 MFmin 19.5775 MFmax 19.6493 RMS 3.25258 Nphs 50 Gap 78.8623 Dist 17.9721 Mamp -9.90 0 Mdur -9.90 0
VPVSRATIO  VpVsRatio 1.61112  Npair 141  Diff 408
STATISTICS  ExpectX 86.9881 Y 27.1846 Z 81.8028  CovXX 383.09 XY 400.479 XZ -46.4068 YY 867.483 YZ 187.963 ZZ 3198.45 EllAz1  299.794 Dip1  -2.51188 Len1  23.1213 Az2  209.96 Dip2  3.7792 Len2  61.8588 Len3  1.065081e+02
STAT_GEOG  ExpectLat 27.184600 Long 86.988143 Depth 81.802784
TRANSFORM  GLOBAL
QML_OriginQuality  assocPhCt 419  usedPhCt 50  assocStaCt -1  usedStaCt 50  depthPhCt -1  stdErr 3.25258  azGap 78.8623  secAzGap 91.5033  gtLevel -  minDist 1998.4 maxDist 4123.41 medDist 3886.2
QML_OriginUncertainty  horUnc -1  minHorUnc 19.0188  maxHorUnc 50.1458  azMaxHorUnc 29.4179
QML_ConfidenceEllipsoid  semiMajorAxisLength 106.508  semiMinorAxisLength 23.1213  semiIntermediateAxisLength 61.8588  majorAxisPlunge -85.4601  majorAxisAzimuth 176.256  majorAxisRotation 33.955
FOCALMECH  Hyp  27.290039 87.104779 62.995443 Mech  0 0 0 mf  0 nObs 0
PHASE ID Ins Cmp On Pha  FM Date     HrMn   Sec     Err  ErrMag    Coda      Amp       Per  >   TTpred    Res       Weight    StaLoc(X  Y         Z)        SDist    SAzim  RAz  RDip RQual    Tcorr 
AAA    ?    ?    _ P      _ 19340115 0847   40.0000 GAU  1.00e+00 -1.00e+00 -1.00e+00 -1.00e+00 >  245.1875    3.1216    1.1566   76.9467   43.2717   -0.8000   17.9721 335.41  -1.0  -1.0  0     0.0000
FRU    ?    ?    _ P      _ 19340115 0847   43.0000 GAU  1.00e+00 -1.00e+00 -1.00e+00 -1.00e+00 >  251.6087   -0.2996    1.6005   74.6167   42.8333   -0.6550   18.5566 330.11  -1.0  -1.0  0     0.0000
PLV    ?    ?    i P      _ 19340115 0847   47.0000 GAU  2.00e-01 -1.00e+00 -1.00e+00 -1.00e+00 >  255.8524   -0.5432    1.6396  106.6290   20.8060   -0.0900   18.9441 105.78  -1.0  -1.0  0     0.0000
KOD    ?    ?    _ P      _ 19340115 0847   36.0000 GAU  1.00e+00 -1.00e+00 -1.00e+00 -1.00e+00 >  259.9877  -15.6785    0.0166   77.4667   10.2333   -2.3450   19.3226 209.86  -1.0  -1.0  0     0.0000
KOD    ?    ?    _ S      _ 19340115 0851   32.0000 GAU  1.00e+00 -1.00e+00 -1.00e+00 -1.00e+00 >  475.2604    5.0487    0.0000   77.4667   10.2333   -2.3450   19.3226 209.86  -1.0  -1.0  0     0.0000
TAS    ?    ?    _ P      _ 19340115 0847   55.0000 GAU  1.00e+00 -1.00e+00 -1.00e+00 -1.00e+00 >  270.1145   -6.8054    0.3314   69.2950   41.3250   -0.4700   20.2544 318.43  -1.0  -1.0  0     0.0000
COC    ?    ?    _ P      _ 19340115 0848    5.0000 GAU  1.00e+00 -1.00e+00 -1.00e+00 -1.00e+00 >  283.6938  -10.3846    0.0954   79.8667    6.9000   -0.0070   21.5165 199.94  -1.0  -1.0  0     0.0000
COC    ?    ?    _ S      _ 19340115 0852    0.0000 GAU  1.00e+00 -1.00e+00 -1.00e+00 -1.00e+00 >  518.5964  -10.2873    0.0000   79.8667    6.9000   -0.0070   21.5165 199.94  -1.0  -1.0  0     0.0000
HKC    ?    ?    _ P      _ 19340115 0848   45.0000 GAU  1.00e+00 -1.00e+00 -1.00e+00 -1.00e+00 >  318.0058   -4.6967    0.6935  114.1719   22.3036   -0.0270   25.0198  95.49  -1.0  -1.0  0     0.0000
HKC    ?    ?    _ S      _ 19340115 0853   16.0000 GAU  1.00e+00 -1.00e+00 -1.00e+00 -1.00e+00 >  577.5395    6.7696    0.0000  114.1719   22.3036   -0.0270   25.0198  95.49  -1.0  -1.0  0     0.0000
MED    ?    ?    _ P      _ 19340115 0849    2.0000 GAU  1.00e+00 -1.00e+00 -1.00e+00 -1.00e+00 >  328.6050    1.7042    1.4608   98.6833    3.5500   -0.0320   26.1905 153.01  -1.0  -1.0  0     0.0000
NAN    ?    ?    _ P      _ 19340115 0849   15.0000 GAU  1.00e+00 -1.00e+00 -1.00e+00 -1.00e+00 >  343.3410   -0.0319    1.6092  118.7833   32.0633   -0.0100   27.8320  72.41  -1.0  -1.0  0     0.0000
NAN    ?    ?    _ S      _ 19340115 0854    1.0000 GAU  1.00e+00 -1.00e+00 -1.00e+00 -1.00e+00 >  621.9347    7.3744    0.0000  118.7833   32.0633   -0.0100   27.8320  72.41  -1.0  -1.0  0     0.0000
ZKW    ?    ?    _ P      _ 19340115 0849   36.0000 GAU  1.00e+00 -1.00e+00 -1.00e+00 -1.00e+00 >  363.3446    0.9645    1.5645  121.4333   31.1833   -0.0070   30.0873  74.23  -1.0  -1.0  0     0.0000
ZKW    ?    ?    _ S      _ 19340115 0855   40.0000 GAU  1.00e+00 -1.00e+00 -1.00e+00 -1.00e+00 >  657.3760   70.9332    0.0000  121.4333   31.1833   -0.0070   30.0873  74.23  -1.0  -1.0  0     0.0000
TAI    ?    ?    _ P      _ 19340115 0849   49.0000 GAU  1.00e+00 -1.00e+00 -1.00e+00 -1.00e+00 >  364.1202   13.1890    0.2972  120.1970   22.9952   -0.0138   30.1751  90.73  -1.0  -1.0  0     0.0000
TAI    ?    ?    _ S      _ 19340115 0855   37.0000 GAU  1.00e+00 -1.00e+00 -1.00e+00 -1.00e+00 >  658.7515   66.5577    0.0000  120.1970   22.9952   -0.0138   30.1751  90.73  -1.0  -1.0  0     0.0000
TCU    ?    ?    _ P      _ 19340115 0850   14.0000 GAU  1.00e+00 -1.00e+00 -1.00e+00 -1.00e+00 >  365.3869   36.9222    0.0000  120.6759   24.1475   -0.0840   30.3185  88.30  -1.0  -1.0  0     0.0000
TCU    ?    ?    _ S      _ 19340115 0855    7.0000 GAU  1.00e+00 -1.00e+00 -1.00e+00 -1.00e+00 >  660.9984   34.3107    0.0000  120.6759   24.1475   -0.0840   30.3185  88.30  -1.0  -1.0  0     0.0000
KAU    ?    ?    _ P      _ 19340115 0849   56.0000 GAU  1.00e+00 -1.00e+00 -1.00e+00 -1.00e+00 >  365.9988   18.3104    0.1083  120.3080   22.5679   -0.0023   30.3878  91.50  -1.0  -1.0  0     0.0000
KAU    ?    ?    _ S      _ 19340115 0855   36.0000 GAU  1.00e+00 -1.00e+00 -1.00e+00 -1.00e+00 >  662.0838   62.2254    0.0000  120.3080   22.5679   -0.0023   30.3878  91.50  -1.0  -1.0  0     0.0000
ALS    ?    ?    _ P      _ 19340115 0849   53.0000 GAU  1.00e+00 -1.00e+00 -1.00e+00 -1.00e+00 >  367.7372   13.5719    0.2938  120.8051   23.5104   -2.4134   30.5847  89.47  -1.0  -1.0  0     0.0000
ALS    ?    ?    _ S      _ 19340115 0855   12.0000 GAU  1.00e+00 -1.00e+00 -1.00e+00 -1.00e+00 >  665.1679   35.1412    0.0000  120.8051   23.5104   -2.4134   30.5847  89.47  -1.0  -1.0  0     0.0000
TAP    ?    ?    _ P      _ 19340115 0849   48.0000 GAU  1.00e+00 -1.00e+00 -1.00e+00 -1.00e+00 >  370.1825    6.1267    0.5364  121.5059   25.0393   -0.0055   30.8620  86.27  -1.0  -1.0  0     0.0000
TAP    ?    ?    _ S      _ 19340115 0855    1.0000 GAU  1.00e+00 -1.00e+00 -1.00e+00 -1.00e+00 >  669.5068   19.8024    0.0000  121.5059   25.0393   -0.0055   30.8620  86.27  -1.0  -1.0  0     0.0000
HEN    ?    ?    _ P      _ 19340115 0848   59.0000 GAU  1.00e+00 -1.00e+00 -1.00e+00 -1.00e+00 >  370.7590  -43.4498    0.0000  120.7381   22.0055   -0.0221   30.9274  92.34  -1.0  -1.0  0     0.0000
HEN    ?    ?    _ S      _ 19340115 0854   55.0000 GAU  1.00e+00 -1.00e+00 -1.00e+00 -1.00e+00 >  670.5298   12.7793    0.0000  120.7381   22.0055   -0.0221   30.9274  92.34  -1.0  -1.0  0     0.0000
DAI    ?    ?    _ P      _ 19340115 0849   43.0000 GAU  1.00e+00 -1.00e+00 -1.00e+00 -1.00e+00 >  370.8692    0.4400    1.6029  121.6333   38.9000   -0.0970   30.9399  59.09  -1.0  -1.0  0     0.0000
DAI    ?    ?    _ S      _ 19340115 0854   58.0000 GAU  1.00e+00 -1.00e+00 -1.00e+00 -1.00e+00 >  670.7254   15.5837    0.0000  121.6333   38.9000   -0.0970   30.9399  59.09  -1.0  -1.0  0     0.0000
TTN    ?    ?    _ P      _ 19340115 0849   54.0000 GAU  1.00e+00 -1.00e+00 -1.00e+00 -1.00e+00 >  372.1255   10.1836    0.2875  121.1465   22.7540   -0.0090   31.0825  90.74  -1.0  -1.0  0     0.0000
TTN    ?    ?    _ S      _ 19340115 0855   15.0000 GAU  1.00e+00 -1.00e+00 -1.00e+00 -1.00e+00 >  672.9553   30.3539    0.0000  121.1465   22.7540   -0.0090   31.0825  90.74  -1.0  -1.0  0     0.0000
HWA    ?    ?    _ P      _ 19340115 0850    0.0000 GAU  1.00e+00 -1.00e+00 -1.00e+00 -1.00e+00 >  373.0124   15.2968    0.2498  121.6050   23.9770   -0.0161   31.1833  88.24  -1.0  -1.0  0     0.0000
HWA    ?    ?    _ S      _ 19340115 0855   15.0000 GAU  1.00e+00 -1.00e+00 -1.00e+00 -1.00e+00 >  674.5295   28.7796    0.0000  121.6050   23.9770   -0.0161   31.1833  88.24  -1.0  -1.0  0     0.0000
BAK    ?    ?    _ P      _ 19340115 0850    4.0000 GAU  1.00e+00 -1.00e+00 -1.00e+00 -1.00e+00 >  391.1706    1.1386    1.5450   49.9000   40.3833    0.0120   33.2558 302.87  -1.0  -1.0  0     0.0000
ISI    ?    ?    _ P      _ 19340115 0850   10.0000 GAU  1.00e+00 -1.00e+00 -1.00e+00 -1.00e+00 >  392.2092    6.1000    0.5402  124.1667   24.3333   -0.0060   33.3751  86.58  -1.0  -1.0  0     0.0000
ISI    ?    ?    _ S      _ 19340115 0855   53.0000 GAU  1.00e+00 -1.00e+00 -1.00e+00 -1.00e+00 >  708.6464   32.6628    0.0000  124.1667   24.3333   -0.0060   33.3751  86.58  -1.0  -1.0  0     0.0000
MAN    ?    ?    _ P      c 19340115 0850    8.0000 GAU  1.00e+00 -1.00e+00 -1.00e+00 -1.00e+00 >  397.6349   -1.3258    1.4889  121.0780   14.6600   -0.0700   33.9998 104.81  -1.0  -1.0  0     0.0000
MAN    ?    ?    _ S      _ 19340115 0855   33.0000 GAU  1.00e+00 -1.00e+00 -1.00e+00 -1.00e+00 >  718.3091    3.0001    0.0000  121.0780   14.6600   -0.0700   33.9998 104.81  -1.0  -1.0  0     0.0000
PYO    ?    ?    _ P      _ 19340115 0850   23.0000 GAU  1.00e+00 -1.00e+00 -1.00e+00 -1.00e+00 >  398.6375   12.6717    0.2986  125.7500   39.0333   -0.0510   34.1156  59.87  -1.0  -1.0  0     0.0000
PYO    ?    ?    _ S      _ 19340115 0855   47.0000 GAU  1.00e+00 -1.00e+00 -1.00e+00 -1.00e+00 >  720.0959   15.2132    0.0000  125.7500   39.0333   -0.0510   34.1156  59.87  -1.0  -1.0  0     0.0000
INC    ?    ?    _ P      c 19340115 0850   14.0000 GAU  1.00e+00 -1.00e+00 -1.00e+00 -1.00e+00 >  402.9954   -0.6862    1.5725  126.6333   37.4833   -0.0700   34.6197  62.75  -1.0  -1.0  0     0.0000
INC    ?    ?    _ S      _ 19340115 0855   44.0000 GAU  1.00e+00 -1.00e+00 -1.00e+00 -1.00e+00 >  727.8681    4.4410    0.0000  126.6333   37.4833   -0.0700   34.6197  62.75  -1.0  -1.0  0     0.0000
SEO    ?    ?    _ P      _ 19340115 0850   17.0000 GAU  1.00e+00 -1.00e+00 -1.00e+00 -1.00e+00 >  405.3315   -0.0223    1.6094  126.9667   37.5667   -0.0860   34.8907  62.64  -1.0  -1.0  0     0.0000
SEO    ?    ?    _ S      _ 19340115 0855   57.0000 GAU  1.00e+00 -1.00e+00 -1.00e+00 -1.00e+00 >  732.0379   13.2712    0.0000  126.9667   37.5667   -0.0860   34.8907  62.64  -1.0  -1.0  0     0.0000
SVE    ?    ?    _ P      _ 19340115 0850   17.0000 GAU  1.00e+00 -1.00e+00 -1.00e+00 -1.00e+00 >  406.3427   -1.0335    1.5325   60.6370   56.8270   -0.2750   35.0082 334.84  -1.0  -1.0  0     0.0000
SVE    ?    ?    _ S      _ 19340115 0855   55.0000 GAU  1.00e+00 -1.00e+00 -1.00e+00 -1.00e+00 >  733.8436    9.4655    0.0000   60.6370   56.8270   -0.2750   35.0082 334.84  -1.0  -1.0  0     0.0000
TAE    ?    ?    _ P      _ 19340115 0850   29.0000 GAU  1.00e+00 -1.00e+00 -1.00e+00 -1.00e+00 >  415.6439    1.6653    1.4675  128.6000   35.8667   -0.0500   36.0933  65.70  -1.0  -1.0  0     0.0000
TAE    ?    ?    _ S      _ 19340115 0856   17.0000 GAU  1.00e+00 -1.00e+00 -1.00e+00 -1.00e+00 >  750.4703   14.8389    0.0000  128.6000   35.8667   -0.0500   36.0933  65.70  -1.0  -1.0  0     0.0000
GRO    ?    ?    _ P      _ 19340115 0850   33.0000 GAU  1.00e+00 -1.00e+00 -1.00e+00 -1.00e+00 >  422.3485   -1.0394    1.5317   45.7500   43.3200   -0.1230   36.8806 306.78  -1.0  -1.0  0     0.0000
SLS    ?    ?    _ P      _ 19340115 0850    6.0000 GAU  1.00e+00 -1.00e+00 -1.00e+00 -1.00e+00 >  424.0625  -29.7534    0.0000  105.2167   -5.4000   -0.2400   37.0827 149.12  -1.0  -1.0  0     0.0000
NGS    ?    ?    _ P      c 19340115 0850   36.0000 GAU  1.00e+00 -1.00e+00 -1.00e+00 -1.00e+00 >  424.8857   -0.5766    1.5823  129.8700   32.7317   -0.0270   37.1798  70.94  -1.0  -1.0  0     0.0000
NGS    ?    ?    _ S      _ 19340115 0856   34.0000 GAU  1.00e+00 -1.00e+00 -1.00e+00 -1.00e+00 >  767.0253   15.2838    0.0000  129.8700   32.7317   -0.0270   37.1798  70.94  -1.0  -1.0  0     0.0000
TIF    ?    ?    _ P      _ 19340115 0850   31.0000 GAU  1.00e+00 -1.00e+00 -1.00e+00 -1.00e+00 >  425.7130   -6.4038    0.3833   44.8000   41.7167   -0.3990   37.2775 303.95  -1.0  -1.0  0     0.0000
TIF    ?    ?    _ S      _ 19340115 0856   25.0000 GAU  1.00e+00 -1.00e+00 -1.00e+00 -1.00e+00 >  768.5090    4.8002    0.0000   44.8000   41.7167   -0.3990   37.2775 303.95  -1.0  -1.0  0     0.0000
ERE    ?    ?    _ P      _ 19340115 0850   40.0000 GAU  1.00e+00 -1.00e+00 -1.00e+00 -1.00e+00 >  426.0036    2.3056    1.3435   44.4700   40.1700   -0.9980   37.3119 301.37  -1.0  -1.0  0     0.0000
ERE    ?    ?    _ S      _ 19340115 0856   14.0000 GAU  1.00e+00 -1.00e+00 -1.00e+00 -1.00e+00 >  769.0302   -6.7210    0.0000   44.4700   40.1700   -0.9980   37.3119 301.37  -1.0  -1.0  0     0.0000
FKK    ?    ?    _ P      _ 19340115 0850   40.0000 GAU  1.00e+00 -1.00e+00 -1.00e+00 -1.00e+00 >  428.1560    0.1532    1.6100  130.3800   33.5800   -0.0020   37.5665  69.51  -1.0  -1.0  0     0.0000
FKK    ?    ?    _ S      _ 19340115 0856   44.0000 GAU  1.00e+00 -1.00e+00 -1.00e+00 -1.00e+00 >  772.8922   19.4169    0.0000  130.3800   33.5800   -0.0020   37.5665  69.51  -1.0  -1.0  0     0.0000
KAG    ?    ?    _ P      _ 19340115 0850   56.0000 GAU  1.00e+00 -1.00e+00 -1.00e+00 -1.00e+00 >  430.4501   13.8591    0.2897  130.5533   31.5733   -0.0050   37.8384  72.77  -1.0  -1.0  0     0.0000
KAG    ?    ?    _ S      _ 19340115 0856   46.0000 GAU  1.00e+00 -1.00e+00 -1.00e+00 -1.00e+00 >  777.0106   17.2986    0.0000  130.5533   31.5733   -0.0050   37.8384  72.77  -1.0  -1.0  0     0.0000
KUM    ?    ?    _ P      _ 19340115 0850   43.0000 GAU  1.00e+00 -1.00e+00 -1.00e+00 -1.00e+00 >  430.8049    0.5042    1.6000  130.7100   32.8100   -0.0390   37.8805  70.74  -1.0  -1.0  0     0.0000
KUM    ?    ?    _ S      _ 19340115 0856   44.0000 GAU  1.00e+00 -1.00e+00 -1.00e+00 -1.00e+00 >  777.6476   14.6615    0.0000  130.7100   32.8100   -0.0390   37.8805  70.74  -1.0  -1.0  0     0.0000
DJA    ?    ?    _ P      d 19340115 0850   47.0000 GAU  1.00e+00 -1.00e+00 -1.00e+00 -1.00e+00 >  436.2760   -0.9668    1.5412  106.8362   -6.1833   -0.0080   38.5314 147.40  -1.0  -1.0  0     0.0000
MYZ    ?    ?    _ P      _ 19340115 0850   47.0000 GAU  1.00e+00 -1.00e+00 -1.00e+00 -1.00e+00 >  436.4238   -1.1146    1.5213  131.4267   31.9167   -0.0070   38.5490  72.11  -1.0  -1.0  0     0.0000
MYZ    ?    ?    _ S      _ 19340115 0856   35.0000 GAU  1.00e+00 -1.00e+00 -1.00e+00 -1.00e+00 >  787.7418   -4.4327    0.0000  131.4267   31.9167   -0.0070   38.5490  72.11  -1.0  -1.0  0     0.0000
HMD    ?    ?    _ P      _ 19340115 0850   51.0000 GAU  1.00e+00 -1.00e+00 -1.00e+00 -1.00e+00 >  439.5521   -0.2429    1.6031  132.0733   34.8933   -0.0190   38.9228  67.31  -1.0  -1.0  0     0.0000
HMD    ?    ?    _ S      _ 19340115 0856   58.0000 GAU  1.00e+00 -1.00e+00 -1.00e+00 -1.00e+00 >  793.3683   12.9409    0.0000  132.0733   34.8933   -0.0190   38.9228  67.31  -1.0  -1.0  0     0.0000
HIR    ?    ?    _ P      _ 19340115 0850   59.0000 GAU  1.00e+00 -1.00e+00 -1.00e+00 -1.00e+00 >  442.1948    5.1144    0.7071  132.4367   34.3633   -0.0300   39.2394  68.14  -1.0  -1.0  0     0.0000
HIR    ?    ?    _ S      _ 19340115 0857    9.0000 GAU  1.00e+00 -1.00e+00 -1.00e+00 -1.00e+00 >  798.1251   19.1840    0.0000  132.4367   34.3633   -0.0300   39.2394  68.14  -1.0  -1.0  0     0.0000
VLA    ?    ?    _ P      _ 19340115 0850   53.0000 GAU  1.00e+00 -1.00e+00 -1.00e+00 -1.00e+00 >  442.7523   -1.4431    1.4690  131.8933   43.1200   -0.0730   39.3063  54.27  -1.0  -1.0  0     0.0000
VLA    ?    ?    _ S      _ 19340115 0856   49.0000 GAU  1.00e+00 -1.00e+00 -1.00e+00 -1.00e+00 >  799.1290   -1.8199    0.0000  131.8933   43.1200   -0.0730   39.3063  54.27  -1.0  -1.0  0     0.0000
SHM    ?    ?    _ P      _ 19340115 0850   56.0000 GAU  1.00e+00 -1.00e+00 -1.00e+00 -1.00e+00 >  446.5951   -2.2859    1.2939  132.9583   32.7750   -0.0210   39.7684  70.59  -1.0  -1.0  0     0.0000
SHM    ?    ?    _ S      _ 19340115 0856   59.0000 GAU  1.00e+00 -1.00e+00 -1.00e+00 -1.00e+00 >  806.0527    1.2564    0.0000  132.9583   32.7750   -0.0210   39.7684  70.59  -1.0  -1.0  0     0.0000
MLB    ?    ?    _ P      _ 19340115 0851    6.0000 GAU  1.00e+00 -1.00e+00 -1.00e+00 -1.00e+00 >  446.9478    7.3613    0.3955  107.6167   -7.2167   -1.5500   39.8109 147.12  -1.0  -1.0  0     0.0000
MLB    ?    ?    _ S      _ 19340115 0857    1.0000 GAU  1.00e+00 -1.00e+00 -1.00e+00 -1.00e+00 >  806.6887    2.6205    0.0000  107.6167   -7.2167   -1.5500   39.8109 147.12  -1.0  -1.0  0     0.0000
KOC    ?    ?    _ P      _ 19340115 0851    3.0000 GAU  1.00e+00 -1.00e+00 -1.00e+00 -1.00e+00 >  450.1248    1.1843    1.5393  133.5367   33.5533    0.0010   40.1943  69.33  -1.0  -1.0  0     0.0000
KOC    ?    ?    _ S      _ 19340115 0857   19.0000 GAU  1.00e+00 -1.00e+00 -1.00e+00 -1.00e+00 >  812.4172   14.8920    0.0000  133.5367   33.5533    0.0010   40.1943  69.33  -1.0  -1.0  0     0.0000
MRT    ?    ?    _ P      _ 19340115 0851    7.0000 GAU  1.00e+00 -1.00e+00 -1.00e+00 -1.00e+00 >  454.7185    0.5907    1.5952  134.1783   33.2483   -0.1850   40.7509  69.73  -1.0  -1.0  0     0.0000
MRT    ?    ?    _ S      _ 19340115 0857   27.0000 GAU  1.00e+00 -1.00e+00 -1.00e+00 -1.00e+00 >  820.7060   14.6031    0.0000  134.1783   33.2483   -0.1850   40.7509  69.73  -1.0  -1.0  0     0.0000
TYK    ?    ?    _ P      _ 19340115 0851   18.0000 GAU  1.00e+00 -1.00e+00 -1.00e+00 -1.00e+00 >  457.9910    8.3182    0.0000  134.8250   35.5333   -0.0040   41.1490  66.21  -1.0  -1.0  0     0.0000
TYK    ?    ?    _ S      _ 19340115 0857   29.0000 GAU  1.00e+00 -1.00e+00 -1.00e+00 -1.00e+00 >  826.6176   10.6915    0.0000  134.8250   35.5333   -0.0040   41.1490  66.21  -1.0  -1.0  0     0.0000
SOC    ?    ?    _ P      _ 19340115 0851   26.0000 GAU  1.00e+00 -1.00e+00 -1.00e+00 -1.00e+00 >  458.7582   15.5510    0.0000   39.7167   43.5833   -0.1920   41.2425 306.03  -1.0  -1.0  0     0.0000
SOC    ?    ?    _ S      _ 19340115 0857   40.0000 GAU  1.00e+00 -1.00e+00 -1.00e+00 -1.00e+00 >  828.0043   20.3048    0.0000   39.7167   43.5833   -0.1920   41.2425 306.03  -1.0  -1.0  0     0.0000
SUM    ?    ?    _ P      c 19340115 0851   11.0000 GAU  1.00e+00 -1.00e+00 -1.00e+00 -1.00e+00 >  459.0544    0.2547    1.6087  134.9083   34.3350   -0.1100   41.2786  68.02  -1.0  -1.0  0     0.0000
SUM    ?    ?    _ S      _ 19340115 0857   26.0000 GAU  1.00e+00 -1.00e+00 -1.00e+00 -1.00e+00 >  828.5399    5.7693    0.0000  134.9083   34.3350   -0.1100   41.2786  68.02  -1.0  -1.0  0     0.0000
KOB    ?    ?    _ P      c 19340115 0851   13.0000 GAU  1.00e+00 -1.00e+00 -1.00e+00 -1.00e+00 >  460.7074    0.6017    1.5945  135.1800   34.6883   -0.0580   41.4804  67.46  -1.0  -1.0  0     0.0000
KOB    ?    ?    _ S      _ 19340115 0857   39.0000 GAU  1.00e+00 -1.00e+00 -1.00e+00 -1.00e+00 >  831.5290   15.7801    0.0000  135.1800   34.6883   -0.0580   41.4804  67.46  -1.0  -1.0  0     0.0000
WKY    ?    ?    _ P      _ 19340115 0851   12.0000 GAU  1.00e+00 -1.00e+00 -1.00e+00 -1.00e+00 >  460.8577   -0.5485    1.5845  135.1667   34.2267   -0.0140   41.4988  68.16  -1.0  -1.0  0     0.0000
WKY    ?    ?    _ S      _ 19340115 0857   34.0000 GAU  1.00e+00 -1.00e+00 -1.00e+00 -1.00e+00 >  831.8007   10.5085    0.0000  135.1667   34.2267   -0.0140   41.4988  68.16  -1.0  -1.0  0     0.0000
OSA    ?    ?    _ P      _ 19340115 0851   15.0000 GAU  1.00e+00 -1.00e+00 -1.00e+00 -1.00e+00 >  463.0047    0.3044    1.6076  135.5217   34.6783   -0.0130   41.7615  67.45  -1.0  -1.0  0     0.0000
