NLLOC "./loc/global.19790520.225949.grid0" "LOCATED" "Location completed."
SIGNATURE "Vipin Maurya (GPT, IIT Roorkee)   obs:./obs/19790520.2259_IndiaNepalBorder.isf   NLLoc:v7.00.00(27Oct2017)  run:31May2022 18h42m16"
COMMENT "ISC_IMS1.0 events"
GRID  361 181 601  -180 -90 0  1 1 1 PROB_DENSITY
SEARCH OCTREE nInitial 17628 nEvaluated 50004 smallestNodeSide 0.953463/0.814416/0.195638 oct_tree_integral 6.995954e+03 scatter_volume 6.995954e+03
HYPOCENTER  x 80.3235 y 30.1501 z 0.097819  OT 12.0946  ix -1 iy -1 iz -1 MAXIMUM_LIKELIHOOD
GEOGRAPHIC  OT 1979 05 20  22 59 12.094641  Lat 30.150146 Long 80.323457 Depth 0.097819
QUALITY  Pmax 1.85622e+118 MFmin 20.4237 MFmax 21.0698 RMS 1.79268 Nphs 50 Gap 86.8877 Dist 11.6651 Mamp -9.90 0 Mdur -9.90 0
VPVSRATIO  VpVsRatio 1.83607  Npair 89  Diff 573.5
STATISTICS  ExpectX 80.3107 Y 30.1816 Z 15.4434  CovXX 42.2846 XY 8.79046 XZ -5.92004 YY 103.512 YZ 26.3649 ZZ 128.745 EllAz1  280.705 Dip1  -6.87623 Len1  11.8673 Az2  194.904 Dip2  31.2627 Len2  17.7534 Len3  2.265196e+01
STAT_GEOG  ExpectLat 30.181636 Long 80.310655 Depth 15.443375
TRANSFORM  GLOBAL
QML_OriginQuality  assocPhCt 690  usedPhCt 50  assocStaCt -1  usedStaCt 43  depthPhCt -1  stdErr 1.79268  azGap 86.8877  secAzGap 139.61  gtLevel -  minDist 1297.1 maxDist 2951.02 medDist 2673.52
QML_OriginUncertainty  horUnc -1  minHorUnc 9.71645  maxHorUnc 15.5217  azMaxHorUnc 8.01054
QML_ConfidenceEllipsoid  semiMajorAxisLength 22.652  semiMinorAxisLength 11.8673  semiIntermediateAxisLength 17.7534  majorAxisPlunge 57.8191  majorAxisAzimuth 359.657  majorAxisRotation 151.934
FOCALMECH  Hyp  30.150146 80.323457 0.097819 Mech  0 0 0 mf  0 nObs 0
PHASE ID Ins Cmp On Pha  FM Date     HrMn   Sec     Err  ErrMag    Coda      Amp       Per  >   TTpred    Res       Weight    StaLoc(X  Y         Z)        SDist    SAzim  RAz  RDip RQual    Tcorr 
SHL    ?    ?    _ P      _ 19790520 2303   47.5000 GAU  1.00e+00 -1.00e+00 -1.00e+00 -1.00e+00 >  161.2173  114.1880    0.0000   91.8833   25.5667   -1.6000   11.1928 111.37  -1.0  -1.0  0     0.0000
KUL    ?    ?    e P      _ 19790520 2302    0.1000 GAU  5.00e-01 -1.00e+00 -1.00e+00 -1.00e+00 >  167.6802    0.3252    1.3699   69.7800   37.9000   -0.6050   11.6651 314.43  -1.0  -1.0  0     0.0000
KUL    ?    ?    i S      _ 19790520 2304   16.6000 GAU  2.00e-01 -1.00e+00 -1.00e+00 -1.00e+00 >  298.6098    5.8956    0.2944   69.7800   37.9000   -0.6050   11.6651 314.43  -1.0  -1.0  0     0.0000
NRN    ?    ?    i P      _ 19790520 2302    2.1000 GAU  2.00e-01 -1.00e+00 -1.00e+00 -1.00e+00 >  169.6782    0.3271    1.3791   76.0000   41.4333   -2.8490   11.8112 343.97  -1.0  -1.0  0     0.0000
NRN    ?    ?    i S      _ 19790520 2304   11.5000 GAU  2.00e-01 -1.00e+00 -1.00e+00 -1.00e+00 >  302.1866   -2.7813    0.9190   76.0000   41.4333   -2.8490   11.8112 343.97  -1.0  -1.0  0     0.0000
ANR    ?    ?    e P      _ 19790520 2302    8.4000 GAU  5.00e-01 -1.00e+00 -1.00e+00 -1.00e+00 >  177.9813   -1.6759    1.1775   72.3600   40.7550   -0.4940   12.4184 330.79  -1.0  -1.0  0     0.0000
ANR    ?    ?    i S      _ 19790520 2304   19.7000 GAU  2.00e-01 -1.00e+00 -1.00e+00 -1.00e+00 >  317.0480   -9.4427    0.1318   72.3600   40.7550   -0.4940   12.4184 330.79  -1.0  -1.0  0     0.0000
DSH    ?    ?    e P      _ 19790520 2302   12.8000 GAU  5.00e-01 -1.00e+00 -1.00e+00 -1.00e+00 >  181.7289   -1.0236    1.2796   68.7750   38.5583   -0.8470   12.6927 314.56  -1.0  -1.0  0     0.0000
DSH    ?    ?    e S      _ 19790520 2304   35.8000 GAU  5.00e-01 -1.00e+00 -1.00e+00 -1.00e+00 >  323.7543   -0.0490    1.3054   68.7750   38.5583   -0.8470   12.6927 314.56  -1.0  -1.0  0     0.0000
TOC    ?    ?    _ P      _ 19790520 2302   26.0000 GAU  1.00e+00 -1.00e+00 -1.00e+00 -1.00e+00 >  187.7787    6.1267    0.2788   94.7667   26.7500   -0.0870   13.1355 101.46  -1.0  -1.0  0     0.0000
FRU    ?    ?    e P      _ 19790520 2302   24.0000 GAU  5.00e-01 -1.00e+00 -1.00e+00 -1.00e+00 >  192.4665   -0.5611    1.3036   74.6167   42.8333   -0.6550   13.4788 341.77  -1.0  -1.0  0     0.0000
FRU    ?    ?    e S      _ 19790520 2304   46.0000 GAU  5.00e-01 -1.00e+00 -1.00e+00 -1.00e+00 >  342.9636   -9.0582    0.1416   74.6167   42.8333   -0.6550   13.4788 341.77  -1.0  -1.0  0     0.0000
TAS    ?    ?    e P      _ 19790520 2302   33.0000 GAU  5.00e-01 -1.00e+00 -1.00e+00 -1.00e+00 >  203.5716   -2.6662    0.9443   69.2950   41.3250   -0.4700   14.2926 324.41  -1.0  -1.0  0     0.0000
TAS    ?    ?    e S      _ 19790520 2305    5.0000 GAU  5.00e-01 -1.00e+00 -1.00e+00 -1.00e+00 >  362.8216   -9.9163    0.1210   69.2950   41.3250   -0.4700   14.2926 324.41  -1.0  -1.0  0     0.0000
SAM    ?    ?    e P      _ 19790520 2302   34.0000 GAU  5.00e-01 -1.00e+00 -1.00e+00 -1.00e+00 >  205.9931   -4.0878    0.6205   66.9900   39.6733   -0.7040   14.4701 314.73  -1.0  -1.0  0     0.0000
SAM    ?    ?    e S      _ 19790520 2305   10.6000 GAU  5.00e-01 -1.00e+00 -1.00e+00 -1.00e+00 >  367.1506   -8.6452    0.1518   66.9900   39.6733   -0.7040   14.4701 314.73  -1.0  -1.0  0     0.0000
TGI    ?    ?    e P      _ 19790520 2303   26.5000 GAU  5.00e-01 -1.00e+00 -1.00e+00 -1.00e+00 >  253.9256    0.4798    1.2909   59.1933   32.9633   -1.8000   18.1922 284.36  -1.0  -1.0  0     0.0000
MAIO   ?    ?    i P      c 19790520 2303   28.0000 GAU  2.00e-01 -1.00e+00 -1.00e+00 -1.00e+00 >  256.8465   -0.9412    1.2646   59.4945   36.3000   -1.0000   18.4319 294.99  -1.0  -1.0  0     0.0000
ASH    ?    ?    _ P      _ 19790520 2303   44.3000 GAU  1.00e+00 -1.00e+00 -1.00e+00 -1.00e+00 >  271.2791    0.9262    1.2184   58.3500   37.9500   -0.2200   19.7433 299.14  -1.0  -1.0  0     0.0000
ASH    ?    ?    _ S      _ 19790520 2307   10.8000 GAU  1.00e+00 -1.00e+00 -1.00e+00 -1.00e+00 >  494.6049  -15.8995    0.0000   58.3500   37.9500   -0.2200   19.7433 299.14  -1.0  -1.0  0     0.0000
VAN    ?    ?    _ P      _ 19790520 2303   47.0000 GAU  1.00e+00 -1.00e+00 -1.00e+00 -1.00e+00 >  273.2694    1.6360    1.1267   58.1080   37.9480   -0.5800   19.9257 298.97  -1.0  -1.0  0     0.0000
SEM    ?    ?    i P      _ 19790520 2303   48.9000 GAU  2.00e-01 -1.00e+00 -1.00e+00 -1.00e+00 >  276.8918   -0.0864    1.3172   80.2500   50.4083   -0.2090   20.2582 359.86  -1.0  -1.0  0     0.0000
SEM    ?    ?    _ S      _ 19790520 2307   28.3000 GAU  1.00e+00 -1.00e+00 -1.00e+00 -1.00e+00 >  504.9006   -8.6952    0.0000   80.2500   50.4083   -0.2090   20.2582 359.86  -1.0  -1.0  0     0.0000
CDU    ?    ?    _ P      c 19790520 2303   50.0000 GAU  1.00e+00 -1.00e+00 -1.00e+00 -1.00e+00 >  278.4151   -0.5097    1.2518  104.0111   30.6603   -0.5060   20.3983  82.53  -1.0  -1.0  0     0.0000
KMI    ?    ?    _ P      c 19790520 2303   51.0000 GAU  1.00e+00 -1.00e+00 -1.00e+00 -1.00e+00 >  278.9465   -0.0411    1.2652  102.7400   25.1233   -1.9400   20.4473  98.77  -1.0  -1.0  0     0.0000
KMI    ?    ?    _ S      _ 19790520 2307   32.0000 GAU  1.00e+00 -1.00e+00 -1.00e+00 -1.00e+00 >  508.6662   -8.7608    0.0000  102.7400   25.1233   -1.9400   20.4473  98.77  -1.0  -1.0  0     0.0000
LZH    ?    ?    _ P      c 19790520 2303   52.0000 GAU  1.00e+00 -1.00e+00 -1.00e+00 -1.00e+00 >  279.6881    0.2172    1.2624  103.8444   36.0867   -1.5600   20.5156  66.96  -1.0  -1.0  0     0.0000
LZH    ?    ?    _ S      _ 19790520 2307   37.0000 GAU  1.00e+00 -1.00e+00 -1.00e+00 -1.00e+00 >  510.0251   -5.1197    0.0000  103.8444   36.0867   -1.5600   20.5156  66.96  -1.0  -1.0  0     0.0000
BDT    ?    ?    i P      c 19790520 2304    0.0000 GAU  2.00e-01 -1.00e+00 -1.00e+00 -1.00e+00 >  288.9430   -1.0376    1.2534   99.0030   17.2443    0.0000   21.3716 122.93  -1.0  -1.0  0     0.0000
KAT    ?    ?    i P      _ 19790520 2304    4.0000 GAU  2.00e-01 -1.00e+00 -1.00e+00 -1.00e+00 >  291.5457    0.3597    1.3089   56.2700   39.0280   -0.2000   21.6136 300.73  -1.0  -1.0  0     0.0000
KAT    ?    ?    i S      _ 19790520 2308    2.0000 GAU  2.00e-01 -1.00e+00 -1.00e+00 -1.00e+00 >  531.7109   -1.8056    0.0000   56.2700   39.0280   -0.2000   21.6136 300.73  -1.0  -1.0  0     0.0000
TRD    ?    ?    _ P      _ 19790520 2304    5.0000 GAU  1.00e+00 -1.00e+00 -1.00e+00 -1.00e+00 >  294.2968   -1.3914    1.1658   76.9585    8.5080   -0.0640   21.8701 188.97  -1.0  -1.0  0     0.0000
TRD    ?    ?    _ S      _ 19790520 2307   57.0000 GAU  1.00e+00 -1.00e+00 -1.00e+00 -1.00e+00 >  536.7314  -11.8260    0.0000   76.9585    8.5080   -0.0640   21.8701 188.97  -1.0  -1.0  0     0.0000
GYA    ?    ?    _ P      c 19790520 2304   21.0000 GAU  1.00e+00 -1.00e+00 -1.00e+00 -1.00e+00 >  310.8510   -1.9456    1.0779  106.6639   26.4586   -1.1620   23.4297  92.55  -1.0  -1.0  0     0.0000
GYA    ?    ?    _ S      _ 19790520 2308   32.0000 GAU  1.00e+00 -1.00e+00 -1.00e+00 -1.00e+00 >  564.8551   -4.9497    0.0000  106.6639   26.4586   -1.1620   23.4297  92.55  -1.0  -1.0  0     0.0000
ELT    ?    ?    i P      _ 19790520 2304   33.2000 GAU  2.00e-01 -1.00e+00 -1.00e+00 -1.00e+00 >  311.6915    9.4139    0.0539   86.2389   53.2611   -0.2150   23.5098   8.89  -1.0  -1.0  0     0.0000
ELT    ?    ?    e S      _ 19790520 2308   38.0000 GAU  5.00e-01 -1.00e+00 -1.00e+00 -1.00e+00 >  566.1568   -0.2514    0.0000   86.2389   53.2611   -0.2150   23.5098   8.89  -1.0  -1.0  0     0.0000
SHI    ?    ?    i P      c 19790520 2304   28.5000 GAU  2.00e-01 -1.00e+00 -1.00e+00 -1.00e+00 >  316.6834   -0.2781    1.3131   52.5261   29.6445   -1.5390   24.0435 275.85  -1.0  -1.0  0     0.0000
XAN    ?    ?    _ P      c 19790520 2304   32.0000 GAU  1.00e+00 -1.00e+00 -1.00e+00 -1.00e+00 >  320.4501   -0.5447    1.2498  108.9214   34.0394   -0.6300   24.4561  73.35  -1.0  -1.0  0     0.0000
XAN    ?    ?    _ S      _ 19790520 2308   50.0000 GAU  1.00e+00 -1.00e+00 -1.00e+00 -1.00e+00 >  581.4689   -3.5635    0.0000  108.9214   34.0394   -0.6300   24.4561  73.35  -1.0  -1.0  0     0.0000
NVS    ?    ?    i P      _ 19790520 2304   35.0000 GAU  2.00e-01 -1.00e+00 -1.00e+00 -1.00e+00 >  323.3863   -0.4810    1.3039   83.2346   54.8404   -0.1500   24.7782   4.00  -1.0  -1.0  0     0.0000
NVS    ?    ?    i S      _ 19790520 2309    2.2000 GAU  2.00e-01 -1.00e+00 -1.00e+00 -1.00e+00 >  586.6487    3.4567    0.0000   83.2346   54.8404   -0.1500   24.7782   4.00  -1.0  -1.0  0     0.0000
PCT    ?    ?    i P      c 19790520 2304   34.8000 GAU  2.00e-01 -1.00e+00 -1.00e+00 -1.00e+00 >  323.6117   -0.9063    1.2685  101.4110   14.6808    0.0000   24.8030 123.93  -1.0  -1.0  0     0.0000
TEH    ?    ?    e P      _ 19790520 2304   38.0000 GAU  5.00e-01 -1.00e+00 -1.00e+00 -1.00e+00 >  323.7871    2.1183    1.0596   51.3856   35.7378   -1.3600   24.8223 290.68  -1.0  -1.0  0     0.0000
IR1    ?    ?    i P      c 19790520 2304   39.0000 GAU  2.00e-01 -1.00e+00 -1.00e+00 -1.00e+00 >  328.7204   -1.8151    1.1295   50.6887   35.4162   -1.3470   25.3646 289.83  -1.0  -1.0  0     0.0000
BTO    ?    ?    _ P      c 19790520 2304   51.0000 GAU  1.00e+00 -1.00e+00 -1.00e+00 -1.00e+00 >  336.3981    2.5072    0.9669  110.0208   40.6056   -1.1140   26.2117  58.38  -1.0  -1.0  0     0.0000
BTO    ?    ?    _ S      _ 19790520 2309   23.0000 GAU  1.00e+00 -1.00e+00 -1.00e+00 -1.00e+00 >  609.4586    1.4467    0.0000  110.0208   40.6056   -1.1140   26.2117  58.38  -1.0  -1.0  0     0.0000
MOY    ?    ?    i P      _ 19790520 2304   52.0000 GAU  2.00e-01 -1.00e+00 -1.00e+00 -1.00e+00 >  338.0105    1.8949    1.1099  100.9931   51.6667   -1.3030   26.3900  29.51  -1.0  -1.0  0     0.0000
ZAK    ?    ?    i P      _ 19790520 2304   53.1000 GAU  2.00e-01 -1.00e+00 -1.00e+00 -1.00e+00 >  339.3574    1.6480    1.1566  103.2806   50.3819   -1.2000   26.5392  33.82  -1.0  -1.0  0     0.0000
ZAK    ?    ?    e S      _ 19790520 2309   29.0000 GAU  5.00e-01 -1.00e+00 -1.00e+00 -1.00e+00 >  614.6238    2.2815    0.0000  103.2806   50.3819   -1.2000   26.5392  33.82  -1.0  -1.0  0     0.0000
BAK    ?    ?    i P      _ 19790520 2304   56.0000 GAU  2.00e-01 -1.00e+00 -1.00e+00 -1.00e+00 >  340.7781    3.1272    0.8339   49.9000   40.3833    0.0120   26.6966 300.84  -1.0  -1.0  0     0.0000
BAK    ?    ?    i S      _ 19790520 2309   37.0000 GAU  2.00e-01 -1.00e+00 -1.00e+00 -1.00e+00 >  617.1070    7.7984    0.0000   49.9000   40.3833    0.0120   26.6966 300.84  -1.0  -1.0  0     0.0000
SHE    ?    ?    i P      _ 19790520 2305    2.4000 GAU  2.00e-01 -1.00e+00 -1.00e+00 -1.00e+00 >  349.6841    0.6212    1.2926   48.6420   40.6460   -0.8400   27.6873 300.95  -1.0  -1.0  0     0.0000
SHE    ?    ?    i S      _ 19790520 2309   38.5000 GAU  2.00e-01 -1.00e+00 -1.00e+00 -1.00e+00 >  632.7234   -6.3180    0.0000   48.6420   40.6460   -0.8400   27.6873 300.95  -1.0  -1.0  0     0.0000
IRK    ?    ?    e P      _ 19790520 2305    8.2000 GAU  5.00e-01 -1.00e+00 -1.00e+00 -1.00e+00 >  354.6033    1.5021    1.1742  104.2711   52.2431   -0.4670   28.2372  31.69  -1.0  -1.0  0     0.0000
IRK    ?    ?    e S      _ 19790520 2309   56.5000 GAU  5.00e-01 -1.00e+00 -1.00e+00 -1.00e+00 >  641.3871    3.0183    0.0000  104.2711   52.2431   -0.4670   28.2372  31.69  -1.0  -1.0  0     0.0000
KER    ?    ?    e P      _ 19790520 2305    6.0000 GAU  5.00e-01 -1.00e+00 -1.00e+00 -1.00e+00 >  354.9678   -1.0624    1.2403   47.1058   34.3522   -1.3100   28.2781 287.32  -1.0  -1.0  0     0.0000
MAK    ?    ?    e P      _ 19790520 2305   15.0000 GAU  5.00e-01 -1.00e+00 -1.00e+00 -1.00e+00 >  361.9309    0.9745    1.2479   47.5050   42.9610   -0.0420   29.0607 305.26  -1.0  -1.0  0     0.0000
TAB    ?    ?    e P      _ 19790520 2305   15.0000 GAU  5.00e-01 -1.00e+00 -1.00e+00 -1.00e+00 >  361.9342    0.9711    1.2483   46.3267   38.0675   -1.4300   29.0611 295.01  -1.0  -1.0  0     0.0000
GRS    ?    ?    i P      _ 19790520 2305   15.6000 GAU  2.00e-01 -1.00e+00 -1.00e+00 -1.00e+00 >  363.3896    0.1158    1.3165   46.3333   39.5000   -1.3990   29.2252 297.93  -1.0  -1.0  0     0.0000
GRS    ?    ?    i S      _ 19790520 2310    6.4000 GAU  2.00e-01 -1.00e+00 -1.00e+00 -1.00e+00 >  656.9326   -2.6272    0.0000   46.3333   39.5000   -1.3990   29.2252 297.93  -1.0  -1.0  0     0.0000
KRV    ?    ?    i P      _ 19790520 2305   18.0000 GAU  2.00e-01 -1.00e+00 -1.00e+00 -1.00e+00 >  365.0864    0.8190    1.2750   46.3190   40.6470   -0.5320   29.4168 300.24  -1.0  -1.0  0     0.0000
KRV    ?    ?    _ S      _ 19790520 2310   10.0000 GAU  1.00e+00 -1.00e+00 -1.00e+00 -1.00e+00 >  659.9435   -2.0381    0.0000   46.3190   40.6470   -0.5320   29.4168 300.24  -1.0  -1.0  0     0.0000
SNG    ?    ?    _ P      _ 19790520 2305   18.5000 GAU  1.00e+00 -1.00e+00 -1.00e+00 -1.00e+00 >  368.8150   -2.4097    0.9900  100.6165    7.1770   -0.0040   29.8379 136.24  -1.0  -1.0  0     0.0000
SNG    ?    ?    e S      _ 19790520 2310   12.0000 GAU  5.00e-01 -1.00e+00 -1.00e+00 -1.00e+00 >  666.5575   -6.6521    0.0000  100.6165    7.1770   -0.0040   29.8379 136.24  -1.0  -1.0  0     0.0000
SVE    ?    ?    i P      _ 19790520 2305   23.0000 GAU  2.00e-01 -1.00e+00 -1.00e+00 -1.00e+00 >  370.3792    0.5261    1.2995   60.6370   56.8270   -0.2750   30.0146 338.38  -1.0  -1.0  0     0.0000
SVE    ?    ?    e S      _ 19790520 2310   16.0000 GAU  5.00e-01 -1.00e+00 -1.00e+00 -1.00e+00 >  669.3318   -5.4265    0.0000   60.6370   56.8270   -0.2750   30.0146 338.38  -1.0  -1.0  0     0.0000
GRO    ?    ?    i P      _ 19790520 2305   28.0000 GAU  2.00e-01 -1.00e+00 -1.00e+00 -1.00e+00 >  373.7030    2.2024    0.0000   45.7500   43.3200   -0.1230   30.3904 305.31  -1.0  -1.0  0     0.0000
GRO    ?    ?    i S      _ 19790520 2310   29.0000 GAU  2.00e-01 -1.00e+00 -1.00e+00 -1.00e+00 >  675.2267    1.6787    0.0000   45.7500   43.3200   -0.1230   30.3904 305.31  -1.0  -1.0  0     0.0000
ARU    ?    ?    e P      _ 19790520 2305   26.8000 GAU  5.00e-01 -1.00e+00 -1.00e+00 -1.00e+00 >  373.7338    0.9715    1.2482   58.5625   56.4302   -0.2500   30.3939 336.10  -1.0  -1.0  0     0.0000
ARU    ?    ?    e S      _ 19790520 2310   23.0000 GAU  5.00e-01 -1.00e+00 -1.00e+00 -1.00e+00 >  675.2814   -4.3761    0.0000   58.5625   56.4302   -0.2500   30.3939 336.10  -1.0  -1.0  0     0.0000
BJI    ?    ?    _ P      c 19790520 2305   31.0000 GAU  1.00e+00 -1.00e+00 -1.00e+00 -1.00e+00 >  376.5780    2.3274    0.0000  116.1750   40.0403   -0.0430   30.7158  61.39  -1.0  -1.0  0     0.0000
BJI    ?    ?    _ S      _ 19790520 2310   34.0000 GAU  1.00e+00 -1.00e+00 -1.00e+00 -1.00e+00 >  680.3263    1.5791    0.0000  116.1750   40.0403   -0.0430   30.7158  61.39  -1.0  -1.0  0     0.0000
ERE    ?    ?    i P      _ 19790520 2305   31.0000 GAU  2.00e-01 -1.00e+00 -1.00e+00 -1.00e+00 >  376.7417    2.1636    0.0000   44.4700   40.1700   -0.9980   30.7344 298.87  -1.0  -1.0  0     0.0000
ERE    ?    ?    e S      _ 19790520 2310   36.0000 GAU  5.00e-01 -1.00e+00 -1.00e+00 -1.00e+00 >  680.6168    3.2886    0.0000   44.4700   40.1700   -0.9980   30.7344 298.87  -1.0  -1.0  0     0.0000
LEN    ?    ?    i P      _ 19790520 2305   37.0000 GAU  2.00e-01 -1.00e+00 -1.00e+00 -1.00e+00 >  381.5885    3.3169    0.0000   43.8500   40.7667   -1.5220   31.2837 299.89  -1.0  -1.0  0     0.0000
LEN    ?    ?    i S      _ 19790520 2310   44.0000 GAU  2.00e-01 -1.00e+00 -1.00e+00 -1.00e+00 >  689.2162    2.6891    0.0000   43.8500   40.7667   -1.5220   31.2837 299.89  -1.0  -1.0  0     0.0000
BKR    ?    ?    i P      _ 19790520 2305   39.4000 GAU  2.00e-01 -1.00e+00 -1.00e+00 -1.00e+00 >  385.0707    2.2347    0.0000   43.5167   41.7333   -1.8300   31.6792 301.64  -1.0  -1.0  0     0.0000
BKR    ?    ?    i S      _ 19790520 2310   53.0000 GAU  2.00e-01 -1.00e+00 -1.00e+00 -1.00e+00 >  695.3973    5.5081    0.0000   43.5167   41.7333   -1.8300   31.6792 301.64  -1.0  -1.0  0     0.0000
PYA    ?    ?    i P      _ 19790520 2305   44.0000 GAU  2.00e-01 -1.00e+00 -1.00e+00 -1.00e+00 >  391.8348    0.0705    0.0000   43.0583   44.0333   -0.5440   32.4492 305.77  -1.0  -1.0  0     0.0000
PYA    ?    ?    i S      _ 19790520 2310   55.5000 GAU  2.00e-01 -1.00e+00 -1.00e+00 -1.00e+00 >  707.4118   -4.0064    0.0000   43.0583   44.0333   -0.5440   32.4492 305.77  -1.0  -1.0  0     0.0000
PSI    ?    ?    e P      c 19790520 2305   40.8000 GAU  5.00e-01 -1.00e+00 -1.00e+00 -1.00e+00 >  393.3414   -4.6361    0.0000   98.9240    2.6950   -0.9870   32.6211 143.77  -1.0  -1.0  0     0.0000
NJ2    ?    ?    _ P      c 19790520 2305   48.0000 GAU  1.00e+00 -1.00e+00 -1.00e+00 -1.00e+00 >  395.5474    0.3579    0.0000  118.8544   32.0517   -0.0450   32.8730  76.59  -1.0  -1.0  0     0.0000
NJ2    ?    ?    _ S      _ 19790520 2311    6.0000 GAU  1.00e+00 -1.00e+00 -1.00e+00 -1.00e+00 >  714.0112   -0.1058    0.0000  118.8544   32.0517   -0.0450   32.8730  76.59  -1.0  -1.0  0     0.0000
KLM    ?    ?    e P      _ 19790520 2305   53.2000 GAU  5.00e-01 -1.00e+00 -1.00e+00 -1.00e+00 >  403.1478   -2.0425    0.0000  101.6447    3.1025   -0.0460   33.7436 139.19  -1.0  -1.0  0     0.0000
TBZ    ?    ?    _ P      _ 19790520 2306    3.0000 GAU  1.00e+00 -1.00e+00 -1.00e+00 -1.00e+00 >  408.5807    2.3247    0.0000   39.7761   40.9944   -0.0570   34.3691 299.64  -1.0  -1.0  0     0.0000
SOC    ?    ?    i P      _ 19790520 2306    4.4000 GAU  2.00e-01 -1.00e+00 -1.00e+00 -1.00e+00 >  411.7377    0.5676    0.0000   39.7167   43.5833   -0.1920   34.7339 304.16  -1.0  -1.0  0     0.0000
SOC    ?    ?    i S      _ 19790520 2311   35.0000 GAU  2.00e-01 -1.00e+00 -1.00e+00 -1.00e+00 >  742.8315    0.0739    0.0000   39.7167   43.5833   -0.1920   34.7339 304.16  -1.0  -1.0  0     0.0000
SSE    ?    ?    _ P      c 19790520 2306    7.0000 GAU  1.00e+00 -1.00e+00 -1.00e+00 -1.00e+00 >  413.8272    1.0782    0.0000  121.1867   31.0956   -0.0150   34.9758  77.78  -1.0  -1.0  0     0.0000
SSE    ?    ?    _ S      _ 19790520 2311   37.0000 GAU  1.00e+00 -1.00e+00 -1.00e+00 -1.00e+00 >  746.5591   -1.6537    0.0000  121.1867   31.0956   -0.0150   34.9758  77.78  -1.0  -1.0  0     0.0000
