NLLOC "./loc/global.19560721.153346.grid0" "LOCATED" "Location completed."
SIGNATURE "Vipin Maurya (GPT, IIT Roorkee)   obs:./obs/19560721.1532_ANJAR.isf   NLLoc:v7.00.00(27Oct2017)  run:29Mar2022 16h51m34"
COMMENT "ISC_IMS1.0 events"
GRID  361 181 601  -180 -90 0  1 1 1 PROB_DENSITY
SEARCH OCTREE nInitial 17628 nEvaluated 50020 smallestNodeSide 3.594664/3.257664/0.782552 oct_tree_integral 5.322578e+04 scatter_volume 5.322578e+04
HYPOCENTER  x 70.07 y 23.2764 z 152.206  OT 45.7761  ix -1 iy -1 iz -1 MAXIMUM_LIKELIHOOD
GEOGRAPHIC  OT 1956 07 21  15 32 45.776140  Lat 23.276367 Long 70.070043 Depth 152.206380
QUALITY  Pmax 1.95393e+121 MFmin 20.304 MFmax 20.433 RMS 1.96797 Nphs 50 Gap 59.0563 Dist 14.0577 Mamp -9.90 0 Mdur -9.90 0
VPVSRATIO  VpVsRatio 1.41698  Npair 74  Diff 596
STATISTICS  ExpectX 70.0519 Y 23.2446 Z 143.259  CovXX 58.2634 XY 7.70545 XZ 103.679 YY 186.01 YZ -172.663 ZZ 3357.58 EllAz1  96.0719 Dip1  -2.10363 Len1  13.7571 Az2  6.17817 Dip2  2.88984 Len2  25.0721 Len3  1.090719e+02
STAT_GEOG  ExpectLat 23.244555 Long 70.051923 Depth 143.258927
TRANSFORM  GLOBAL
QML_OriginQuality  assocPhCt 395  usedPhCt 50  assocStaCt -1  usedStaCt 47  depthPhCt -1  stdErr 1.96797  azGap 59.0563  secAzGap 92.5144  gtLevel -  minDist 1563.14 maxDist 5061.02 medDist 4477.65
QML_OriginUncertainty  horUnc -1  minHorUnc 11.53  maxHorUnc 20.7096  azMaxHorUnc 3.43937
QML_ConfidenceEllipsoid  semiMajorAxisLength 109.072  semiMinorAxisLength 13.7571  semiIntermediateAxisLength 25.0721  majorAxisPlunge 86.4245  majorAxisAzimuth 150.067  majorAxisRotation 143.729
FOCALMECH  Hyp  23.276367 70.070043 152.206380 Mech  0 0 0 mf  0 nObs 0
PHASE ID Ins Cmp On Pha  FM Date     HrMn   Sec     Err  ErrMag    Coda      Amp       Per  >   TTpred    Res       Weight    StaLoc(X  Y         Z)        SDist    SAzim  RAz  RDip RQual    Tcorr 
MDR    ?    ?    _ P      _ 19560721 1535   52.0000 GAU  1.00e+00 -1.00e+00 -1.00e+00 -1.00e+00 >  192.4424   -6.2185    0.3775   80.1833   13.0000   -0.0150   14.0577 135.22  -1.0  -1.0  0     0.0000
KOD    ?    ?    e P      _ 19560721 1536    4.0000 GAU  5.00e-01 -1.00e+00 -1.00e+00 -1.00e+00 >  202.1363   -3.9125    0.7592   77.4667   10.2333   -2.3450   14.8325 150.34  -1.0  -1.0  0     0.0000
KOD    ?    ?    i S      _ 19560721 1538   54.0000 GAU  2.00e-01 -1.00e+00 -1.00e+00 -1.00e+00 >  366.8491    1.3748    1.0737   77.4667   10.2333   -2.3450   14.8325 150.34  -1.0  -1.0  0     0.0000
CHA    ?    ?    i S      _ 19560721 1539   18.0000 GAU  2.00e-01 -1.00e+00 -1.00e+00 -1.00e+00 >  391.8350    0.3889    1.1831   87.1667   26.8333   -0.1610   15.8770  73.52  -1.0  -1.0  0     0.0000
COC    ?    ?    _ P      _ 19560721 1536   50.0000 GAU  1.00e+00 -1.00e+00 -1.00e+00 -1.00e+00 >  248.7015   -4.4777    0.6618   79.8667    6.9000   -0.0070   18.8917 148.55  -1.0  -1.0  0     0.0000
FRU    ?    ?    i P      _ 19560721 1537    2.0000 GAU  2.00e-01 -1.00e+00 -1.00e+00 -1.00e+00 >  259.7723   -3.5484    0.8257   74.6167   42.8333   -0.6550   19.9166   9.83  -1.0  -1.0  0     0.0000
FRU    ?    ?    i S      _ 19560721 1540   37.0000 GAU  2.00e-01 -1.00e+00 -1.00e+00 -1.00e+00 >  475.5347   -4.3108    0.6850   74.6167   42.8333   -0.6550   19.9166   9.83  -1.0  -1.0  0     0.0000
SHL    ?    ?    e P      _ 19560721 1537    2.0000 GAU  5.00e-01 -1.00e+00 -1.00e+00 -1.00e+00 >  260.3510   -4.1272    0.7200   91.8833   25.5667   -1.6000   19.9705  78.95  -1.0  -1.0  0     0.0000
SHL    ?    ?    i S      _ 19560721 1540   39.0000 GAU  2.00e-01 -1.00e+00 -1.00e+00 -1.00e+00 >  476.5901   -3.3662    0.8590   91.8833   25.5667   -1.6000   19.9705  78.95  -1.0  -1.0  0     0.0000
TIF    ?    ?    _ P      _ 19560721 1538   22.0000 GAU  1.00e+00 -1.00e+00 -1.00e+00 -1.00e+00 >  336.3930   -0.1692    1.1645   44.8000   41.7167   -0.3990   27.9891 317.24  -1.0  -1.0  0     0.0000
SEM    ?    ?    i P      _ 19560721 1538   23.0000 GAU  2.00e-01 -1.00e+00 -1.00e+00 -1.00e+00 >  338.8640   -1.6401    1.1257   80.2500   50.4083   -0.2090   28.2679  13.76  -1.0  -1.0  0     0.0000
SEM    ?    ?    i S      _ 19560721 1543    8.0000 GAU  2.00e-01 -1.00e+00 -1.00e+00 -1.00e+00 >  613.6701    8.5537    0.0000   80.2500   50.4083   -0.2090   28.2679  13.76  -1.0  -1.0  0     0.0000
SNN    ?    ?    e P      _ 19560721 1538   45.0000 GAU  5.00e-01 -1.00e+00 -1.00e+00 -1.00e+00 >  357.2891    1.9347    0.9728  101.7817   36.6200    0.0000   30.3528  56.60  -1.0  -1.0  0     0.0000
WUW    ?    ?    e P      _ 19560721 1538   53.0000 GAU  5.00e-01 -1.00e+00 -1.00e+00 -1.00e+00 >  366.5019    0.7219    1.1472  102.6383   37.9283    0.0000   31.4011  54.58  -1.0  -1.0  0     0.0000
KSA    ?    ?    i P      _ 19560721 1538   56.0000 GAU  2.00e-01 -1.00e+00 -1.00e+00 -1.00e+00 >  368.6603    1.5635    1.0437   35.8900   33.8233   -0.9200   31.6475 297.19  -1.0  -1.0  0     0.0000
KSA    ?    ?    i S      _ 19560721 1544    5.0000 GAU  2.00e-01 -1.00e+00 -1.00e+00 -1.00e+00 >  666.5544   12.6694    0.0000   35.8900   33.8233   -0.9200   31.6475 297.19  -1.0  -1.0  0     0.0000
LAN    ?    ?    e P      _ 19560721 1538   56.0000 GAU  5.00e-01 -1.00e+00 -1.00e+00 -1.00e+00 >  369.9046    0.3192    1.1783  103.8333   36.0500   -1.5180   31.7896  58.53  -1.0  -1.0  0     0.0000
SAF    ?    ?    i P      _ 19560721 1538   56.0000 GAU  2.00e-01 -1.00e+00 -1.00e+00 -1.00e+00 >  370.2523   -0.0285    1.2023   35.4950   32.9600   -0.8000   31.8293 295.47  -1.0  -1.0  0     0.0000
JER    ?    ?    i P      d 19560721 1538   58.0000 GAU  2.00e-01 -1.00e+00 -1.00e+00 -1.00e+00 >  371.0470    1.1769    1.1024   35.1972   31.7719   -0.7700   31.9202 293.17  -1.0  -1.0  0     0.0000
SVE    ?    ?    _ P      _ 19560721 1539   17.0000 GAU  1.00e+00 -1.00e+00 -1.00e+00 -1.00e+00 >  391.2600   -0.0362    1.1619   60.6370   56.8270   -0.2750   34.2489 350.83  -1.0  -1.0  0     0.0000
SVE    ?    ?    _ S      _ 19560721 1546   57.0000 GAU  1.00e+00 -1.00e+00 -1.00e+00 -1.00e+00 >  706.8027  144.4212    0.0000   60.6370   56.8270   -0.2750   34.2489 350.83  -1.0  -1.0  0     0.0000
YNC    ?    ?    e P      _ 19560721 1539   20.0000 GAU  5.00e-01 -1.00e+00 -1.00e+00 -1.00e+00 >  391.6144    2.6095    0.8381  106.2700   38.4750    0.0000   34.2900  55.16  -1.0  -1.0  0     0.0000
SIA    ?    ?    _ P      _ 19560721 1539   30.0000 GAU  1.00e+00 -1.00e+00 -1.00e+00 -1.00e+00 >  402.2928    1.9311    0.9565  108.9200   34.2483   -0.3950   35.5360  63.14  -1.0  -1.0  0     0.0000
SIM    ?    ?    i P      _ 19560721 1539   33.0000 GAU  2.00e-01 -1.00e+00 -1.00e+00 -1.00e+00 >  409.1858   -1.9620    1.0863   34.1160   44.9490   -0.2750   36.3462 315.48  -1.0  -1.0  0     0.0000
SIM    ?    ?    i S      _ 19560721 1545   15.0000 GAU  2.00e-01 -1.00e+00 -1.00e+00 -1.00e+00 >  738.8719   10.3520    0.0000   34.1160   44.9490   -0.2750   36.3462 315.48  -1.0  -1.0  0     0.0000
BTO    ?    ?    _ P      _ 19560721 1539   48.0000 GAU  1.00e+00 -1.00e+00 -1.00e+00 -1.00e+00 >  420.1336    2.0902    0.9287  110.0208   40.6056   -1.1140   37.6432  52.96  -1.0  -1.0  0     0.0000
IRK    ?    ?    i P      c 19560721 1539   57.0000 GAU  2.00e-01 -1.00e+00 -1.00e+00 -1.00e+00 >  431.1022    0.1217    1.1973  104.2711   52.2431   -0.4670   38.9557  33.19  -1.0  -1.0  0     0.0000
IRK    ?    ?    e S      _ 19560721 1545   56.0000 GAU  5.00e-01 -1.00e+00 -1.00e+00 -1.00e+00 >  778.2570   11.9668    0.0000  104.2711   52.2431   -0.4670   38.9557  33.19  -1.0  -1.0  0     0.0000
TYN    ?    ?    e P      _ 19560721 1539   58.0000 GAU  5.00e-01 -1.00e+00 -1.00e+00 -1.00e+00 >  431.4282    0.7957    1.1399  112.5900   37.7867    0.0000   38.9949  58.08  -1.0  -1.0  0     0.0000
GZH    ?    ?    _ P      c 19560721 1540    1.0000 GAU  1.00e+00 -1.00e+00 -1.00e+00 -1.00e+00 >  436.6647   -1.4409    1.1163  113.3439   23.0869   -0.0110   39.6267  81.38  -1.0  -1.0  0     0.0000
GZH    ?    ?    _ S      _ 19560721 1546    8.0000 GAU  1.00e+00 -1.00e+00 -1.00e+00 -1.00e+00 >  788.2855   13.9384    0.0000  113.3439   23.0869   -0.0110   39.6267  81.38  -1.0  -1.0  0     0.0000
TTC    ?    ?    _ P      _ 19560721 1540    8.0000 GAU  1.00e+00 -1.00e+00 -1.00e+00 -1.00e+00 >  439.0774    3.1464    0.7222  113.2370   40.1350   -1.1750   39.9188  54.59  -1.0  -1.0  0     0.0000
MOS    ?    ?    i P      _ 19560721 1540    6.0000 GAU  2.00e-01 -1.00e+00 -1.00e+00 -1.00e+00 >  441.9577   -1.7338    1.1149   37.6250   55.7383   -0.1210   40.2685 332.14  -1.0  -1.0  0     0.0000
MOS    ?    ?    _ S      _ 19560721 1546   13.0000 GAU  1.00e+00 -1.00e+00 -1.00e+00 -1.00e+00 >  797.8378    9.3860    0.0000   37.6250   55.7383   -0.1210   40.2685 332.14  -1.0  -1.0  0     0.0000
HKC    ?    ?    _ P      c 19560721 1540    8.0000 GAU  1.00e+00 -1.00e+00 -1.00e+00 -1.00e+00 >  443.9537   -1.7299    1.0886  114.1719   22.3036   -0.0270   40.5114  82.38  -1.0  -1.0  0     0.0000
IAS    ?    ?    e P      _ 19560721 1540   17.0000 GAU  5.00e-01 -1.00e+00 -1.00e+00 -1.00e+00 >  451.2446   -0.0208    1.1928   27.5617   47.1933   -0.1600   41.4030 316.03  -1.0  -1.0  0     0.0000
BUC    ?    ?    i P      c 19560721 1540   18.0000 GAU  2.00e-01 -1.00e+00 -1.00e+00 -1.00e+00 >  452.1643    0.0595    1.1996   26.0967   44.4136   -0.0620   41.5160 311.56  -1.0  -1.0  0     0.0000
BUC    ?    ?    e S      _ 19560721 1550    0.0000 GAU  5.00e-01 -1.00e+00 -1.00e+00 -1.00e+00 >  816.2970  217.9268    0.0000   26.0967   44.4136   -0.0620   41.5160 311.56  -1.0  -1.0  0     0.0000
ATH    ?    ?    e P      _ 19560721 1540   17.0000 GAU  5.00e-01 -1.00e+00 -1.00e+00 -1.00e+00 >  456.2303   -5.0064    0.5626   23.7167   37.9722   -0.0950   42.0165 301.55  -1.0  -1.0  0     0.0000
ATH    ?    ?    i S      _ 19560721 1546   43.0000 GAU  2.00e-01 -1.00e+00 -1.00e+00 -1.00e+00 >  823.6613   13.5626    0.0000   23.7167   37.9722   -0.0950   42.0165 301.55  -1.0  -1.0  0     0.0000
BJI    ?    ?    i P      c 19560721 1540   23.0000 GAU  2.00e-01 -1.00e+00 -1.00e+00 -1.00e+00 >  457.0053    0.2185    1.1929  116.1750   40.0403   -0.0430   42.1122  55.36  -1.0  -1.0  0     0.0000
BJI    ?    ?    _ S      _ 19560721 1546   48.0000 GAU  1.00e+00 -1.00e+00 -1.00e+00 -1.00e+00 >  825.0657   17.1581    0.0000  116.1750   40.0403   -0.0430   42.1122  55.36  -1.0  -1.0  0     0.0000
SOF    ?    ?    i P      _ 19560721 1540   30.0000 GAU  2.00e-01 -1.00e+00 -1.00e+00 -1.00e+00 >  464.6017   -0.3778    1.2054   23.3342   42.6853   -0.5400   43.0541 308.36  -1.0  -1.0  0     0.0000
SOF    ?    ?    e S      _ 19560721 1546   19.0000 GAU  5.00e-01 -1.00e+00 -1.00e+00 -1.00e+00 >  838.8479  -25.6240    0.0000   23.3342   42.6853   -0.5400   43.0541 308.36  -1.0  -1.0  0     0.0000
NAN    ?    ?    i P      c 19560721 1540   35.0000 GAU  2.00e-01 -1.00e+00 -1.00e+00 -1.00e+00 >  469.4593   -0.2354    1.2055  118.7833   32.0633   -0.0100   43.6605  67.28  -1.0  -1.0  0     0.0000
NAN    ?    ?    _ S      _ 19560721 1547    9.0000 GAU  1.00e+00 -1.00e+00 -1.00e+00 -1.00e+00 >  847.6740   15.5499    0.0000  118.7833   32.0633   -0.0100   43.6605  67.28  -1.0  -1.0  0     0.0000
LVV    ?    ?    i P      _ 19560721 1540   41.0000 GAU  2.00e-01 -1.00e+00 -1.00e+00 -1.00e+00 >  476.0851   -0.8613    1.1908   24.0310   49.8190   -0.3200   44.4928 318.49  -1.0  -1.0  0     0.0000
LVV    ?    ?    i S      _ 19560721 1547   17.0000 GAU  2.00e-01 -1.00e+00 -1.00e+00 -1.00e+00 >  859.7283   11.4956    0.0000   24.0310   49.8190   -0.3200   44.4928 318.49  -1.0  -1.0  0     0.0000
TIM    ?    ?    e P      _ 19560721 1540   50.0000 GAU  5.00e-01 -1.00e+00 -1.00e+00 -1.00e+00 >  481.5068    2.7171    0.8151   21.2208   45.7366   -0.0880   45.1786 312.19  -1.0  -1.0  0     0.0000
BEO    ?    ?    e P      d 19560721 1540   50.0000 GAU  5.00e-01 -1.00e+00 -1.00e+00 -1.00e+00 >  484.1527    0.0712    1.1900   20.4553   44.8214   -0.1290   45.5148 310.77  -1.0  -1.0  0     0.0000
BEO    ?    ?    e S      _ 19560721 1547   34.0000 GAU  5.00e-01 -1.00e+00 -1.00e+00 -1.00e+00 >  874.4355   13.7884    0.0000   20.4553   44.8214   -0.1290   45.5148 310.77  -1.0  -1.0  0     0.0000
ZSC    ?    ?    i P      c 19560721 1540   51.0000 GAU  2.00e-01 -1.00e+00 -1.00e+00 -1.00e+00 >  485.9427   -0.7188    1.1973  121.1864   31.0967   -0.0900   45.7429  68.54  -1.0  -1.0  0     0.0000
ZSC    ?    ?    _ S      _ 19560721 1547   37.0000 GAU  1.00e+00 -1.00e+00 -1.00e+00 -1.00e+00 >  877.7024   13.5215    0.0000  121.1864   31.0967   -0.0900   45.7429  68.54  -1.0  -1.0  0     0.0000
PUL    ?    ?    i P      _ 19560721 1540   51.0000 GAU  2.00e-01 -1.00e+00 -1.00e+00 -1.00e+00 >  486.4816   -1.2577    1.1636   30.3167   59.7667   -0.0650   45.8116 333.32  -1.0  -1.0  0     0.0000
PUL    ?    ?    i S      _ 19560721 1547   34.0000 GAU  2.00e-01 -1.00e+00 -1.00e+00 -1.00e+00 >  878.6861    9.5378    0.0000   30.3167   59.7667   -0.0650   45.8116 333.32  -1.0  -1.0  0     0.0000
DJA    ?    ?    e P      _ 19560721 1540   53.0000 GAU  5.00e-01 -1.00e+00 -1.00e+00 -1.00e+00 >  491.4372   -4.2133    0.7043  106.8362   -6.1833   -0.0080   46.4458 124.81  -1.0  -1.0  0     0.0000
SPC    ?    ?    i P      _ 19560721 1540   59.0000 GAU  2.00e-01 -1.00e+00 -1.00e+00 -1.00e+00 >  493.0562    0.1677    1.1954   20.2450   49.1889   -1.7720   46.6539 316.63  -1.0  -1.0  0     0.0000
SPC    ?    ?    e S      _ 19560721 1547   48.0000 GAU  5.00e-01 -1.00e+00 -1.00e+00 -1.00e+00 >  890.6989   11.5249    0.0000   20.2450   49.1889   -1.7720   46.6539 316.63  -1.0  -1.0  0     0.0000
KAL    ?    ?    _ P      _ 19560721 1541    1.0000 GAU  1.00e+00 -1.00e+00 -1.00e+00 -1.00e+00 >  494.7057    0.5182    1.1345   18.9764   46.5286   -0.0930   46.8662 312.81  -1.0  -1.0  0     0.0000
KAL    ?    ?    _ S      _ 19560721 1547   35.0000 GAU  1.00e+00 -1.00e+00 -1.00e+00 -1.00e+00 >  893.7158   -4.4919    0.0000   18.9764   46.5286   -0.0930   46.8662 312.81  -1.0  -1.0  0     0.0000
BUD    ?    ?    _ P      _ 19560721 1541    2.0000 GAU  1.00e+00 -1.00e+00 -1.00e+00 -1.00e+00 >  496.0080    0.2159    1.1527   19.0239   47.4836   -0.1960   47.0341 314.10  -1.0  -1.0  0     0.0000
BUD    ?    ?    e S      _ 19560721 1551    7.0000 GAU  5.00e-01 -1.00e+00 -1.00e+00 -1.00e+00 >  896.0982  205.1257    0.0000   19.0239   47.4836   -0.1960   47.0341 314.10  -1.0  -1.0  0     0.0000
WAR    ?    ?    i P      _ 19560721 1541    2.0000 GAU  2.00e-01 -1.00e+00 -1.00e+00 -1.00e+00 >  496.2862   -0.0623    1.2031   21.0236   52.2417   -0.1100   47.0700 320.83  -1.0  -1.0  0     0.0000
WAR    ?    ?    i S      _ 19560721 1547   57.0000 GAU  2.00e-01 -1.00e+00 -1.00e+00 -1.00e+00 >  896.6073   14.6166    0.0000   21.0236   52.2417   -0.1100   47.0700 320.83  -1.0  -1.0  0     0.0000
TAR    ?    ?    e P      _ 19560721 1541    0.0000 GAU  5.00e-01 -1.00e+00 -1.00e+00 -1.00e+00 >  497.6348   -3.4109    0.8503   17.2583   40.4750   -0.0150   47.2442 304.38  -1.0  -1.0  0     0.0000
BND    ?    ?    e P      _ 19560721 1541   30.0000 GAU  5.00e-01 -1.00e+00 -1.00e+00 -1.00e+00 >  499.8121   24.4118    0.0000  107.6500   -6.9000   -0.7260   47.5261 124.83  -1.0  -1.0  0     0.0000
TAN    ?    ?    i P      c 19560721 1541    6.0000 GAU  2.00e-01 -1.00e+00 -1.00e+00 -1.00e+00 >  500.1886    0.0352    1.2004   47.5517  -18.9172   -1.3750   47.5749 209.39  -1.0  -1.0  0     0.0000
LWI    ?    ?    e P      _ 19560721 1541    7.0000 GAU  5.00e-01 -1.00e+00 -1.00e+00 -1.00e+00 >  500.2786    0.9452    1.1236   28.8000   -2.2383   -1.7480   47.5866 243.22  -1.0  -1.0  0     0.0000
BAG    ?    ?    i P      _ 19560721 1541    9.0000 GAU  2.00e-01 -1.00e+00 -1.00e+00 -1.00e+00 >  501.7368    1.4871    1.0562  120.5797   16.4108   -1.5070   47.7759  88.57  -1.0  -1.0  0     0.0000
BAG    ?    ?    e S      _ 19560721 1548    7.0000 GAU  5.00e-01 -1.00e+00 -1.00e+00 -1.00e+00 >  906.5863   14.6375    0.0000  120.5797   16.4108   -1.5070   47.7759  88.57  -1.0  -1.0  0     0.0000
AST    ?    ?    e P      _ 19560721 1540   56.0000 GAU  5.00e-01 -1.00e+00 -1.00e+00 -1.00e+00 >  502.3689  -12.1451    0.0119   28.7333   -2.6167   -1.6480   47.8581 242.85  -1.0  -1.0  0     0.0000
UVI    ?    ?    e P      _ 19560721 1541   12.0000 GAU  5.00e-01 -1.00e+00 -1.00e+00 -1.00e+00 >  503.4677    2.7562    0.0000   29.1167   -3.4000   -0.9500   48.0011 241.69  -1.0  -1.0  0     0.0000
RCI    ?    ?    i P      c 19560721 1541   12.0000 GAU  2.00e-01 -1.00e+00 -1.00e+00 -1.00e+00 >  506.2682   -0.0444    0.0000   15.6433   38.1056   -0.0290   48.3664 301.09  -1.0  -1.0  0     0.0000
RCI    ?    ?    e S      _ 19560721 1548   18.0000 GAU  5.00e-01 -1.00e+00 -1.00e+00 -1.00e+00 >  914.8924   17.3314    0.0000   15.6433   38.1056   -0.0290   48.3664 301.09  -1.0  -1.0  0     0.0000
BRA    ?    ?    i P      _ 19560721 1541    9.0000 GAU  2.00e-01 -1.00e+00 -1.00e+00 -1.00e+00 >  506.8047   -3.5808    0.8198   17.1050   48.1683   -0.2700   48.4366 314.64  -1.0  -1.0  0     0.0000
BRA    ?    ?    e S      _ 19560721 1548   14.0000 GAU  5.00e-01 -1.00e+00 -1.00e+00 -1.00e+00 >  915.8764   12.3475    0.0000   17.1050   48.1683   -0.2700   48.4366 314.64  -1.0  -1.0  0     0.0000
MES    ?    ?    i P      c 19560721 1541   13.0000 GAU  2.00e-01 -1.00e+00 -1.00e+00 -1.00e+00 >  506.8174    0.4065    0.0000   15.5550   38.1989   -0.0450   48.4382 301.22  -1.0  -1.0  0     0.0000
MES    ?    ?    i S      _ 19560721 1548   17.0000 GAU  2.00e-01 -1.00e+00 -1.00e+00 -1.00e+00 >  915.8997   15.3241    0.0000   15.5550   38.1989   -0.0450   48.4382 301.22  -1.0  -1.0  0     0.0000
MAN    ?    ?    i P      _ 19560721 1541   16.0000 GAU  2.00e-01 -1.00e+00 -1.00e+00 -1.00e+00 >  509.2872    0.9366    0.0000  121.0780   14.6600   -0.0700   48.7616  90.61  -1.0  -1.0  0     0.0000
MAN    ?    ?    i S      _ 19560721 1548   18.0000 GAU  2.00e-01 -1.00e+00 -1.00e+00 -1.00e+00 >  920.4311   11.7928    0.0000  121.0780   14.6600   -0.0700   48.7616  90.61  -1.0  -1.0  0     0.0000
HSK    ?    ?    _ P      _ 19560721 1541   21.0000 GAU  1.00e+00 -1.00e+00 -1.00e+00 -1.00e+00 >  513.7476    1.4762    0.0000  125.3000   43.9167   -0.2500   49.3482  51.26  -1.0  -1.0  0     0.0000
TRS    ?    ?    i P      _ 19560721 1541   26.0000 GAU  2.00e-01 -1.00e+00 -1.00e+00 -1.00e+00 >  520.9539   -0.7301    0.0000   13.7539   45.6428   -0.0080   50.3030 310.88  -1.0  -1.0  0     0.0000
TRS    ?    ?    i S      _ 19560721 1548   35.0000 GAU  2.00e-01 -1.00e+00 -1.00e+00 -1.00e+00 >  941.8719    7.3519    0.0000   13.7539   45.6428   -0.0080   50.3030 310.88  -1.0  -1.0  0     0.0000
PRA    ?    ?    i P      _ 19560721 1541   28.0000 GAU  2.00e-01 -1.00e+00 -1.00e+00 -1.00e+00 >  522.5759   -0.3520    0.0000   14.4331   50.0703   -0.2250   50.5191 316.65  -1.0  -1.0  0     0.0000
PRA    ?    ?    e S      _ 19560721 1548   42.0000 GAU  5.00e-01 -1.00e+00 -1.00e+00 -1.00e+00 >  944.8574   11.3665    0.0000   14.4331   50.0703   -0.2250   50.5191 316.65  -1.0  -1.0  0     0.0000
ROM    ?    ?    i P      c 19560721 1541   30.0000 GAU  2.00e-01 -1.00e+00 -1.00e+00 -1.00e+00 >  525.4134   -1.1896    0.0000   12.5133   41.9033   -0.0450   50.8982 305.96  -1.0  -1.0  0     0.0000
ROM    ?    ?    e S      _ 19560721 1548   46.0000 GAU  5.00e-01 -1.00e+00 -1.00e+00 -1.00e+00 >  950.0833   10.1405    0.0000   12.5133   41.9033   -0.0450   50.8982 305.96  -1.0  -1.0  0     0.0000
UPP    ?    ?    i P      c 19560721 1541   34.0000 GAU  2.00e-01 -1.00e+00 -1.00e+00 -1.00e+00 >  529.6865   -1.4627    0.0000   17.6267   59.8583   -0.0140   51.4718 329.41  -1.0  -1.0  0     0.0000
UPP    ?    ?    i S      _ 19560721 1548   53.0000 GAU  2.00e-01 -1.00e+00 -1.00e+00 -1.00e+00 >  957.9603    9.2635    0.0000   17.6267   59.8583   -0.0140   51.4718 329.41  -1.0  -1.0  0     0.0000
SOD    ?    ?    i P      _ 19560721 1541   37.0000 GAU  2.00e-01 -1.00e+00 -1.00e+00 -1.00e+00 >  530.5152    0.7086    0.0000   26.6291   67.3712   -0.1810   51.5834 340.27  -1.0  -1.0  0     0.0000
