NLLOC "./loc/global.19990328.190532.grid0" "LOCATED" "Location completed."
SIGNATURE "Vipin Maurya (GPT, IIT Roorkee)   obs:./obs/19990328.1905_CHAMOLI.isf   NLLoc:v7.00.00(27Oct2017)  run:14Apr2022 14h38m06"
COMMENT "ISC_IMS1.0 events"
GRID  361 181 601  -180 -90 0  1 1 1 PROB_DENSITY
SEARCH OCTREE nInitial 17628 nEvaluated 50020 smallestNodeSide 1.906925/1.628832/0.391276 oct_tree_integral 1.240754e+04 scatter_volume 1.240754e+04
HYPOCENTER  x 79.4446 y 30.5347 z 0.195638  OT 11.6893  ix -1 iy -1 iz -1 MAXIMUM_LIKELIHOOD
GEOGRAPHIC  OT 1999 03 28  19 05 11.689268  Lat 30.534668 Long 79.444550 Depth 0.195638
QUALITY  Pmax 4.45221e+125 MFmin 20.2218 MFmax 20.3539 RMS 1.04669 Nphs 50 Gap 61.0315 Dist 13.0337 Mamp -9.90 0 Mdur -9.90 0
VPVSRATIO  VpVsRatio 1.81989  Npair 97  Diff 440.8
STATISTICS  ExpectX 79.4374 Y 30.5004 Z 32.3729  CovXX 27.0859 XY 5.39693 XZ -9.94859 YY 94.2419 YZ -85.868 ZZ 597.549 EllAz1  94.0794 Dip1  0.382849 Len1  9.69635 Az2  184.015 Dip2  -9.47715 Len2  16.8311 Len3  4.647933e+01
STAT_GEOG  ExpectLat 30.500385 Long 79.437360 Depth 32.372923
TRANSFORM  GLOBAL
QML_OriginQuality  assocPhCt 1448  usedPhCt 50  assocStaCt -1  usedStaCt 50  depthPhCt -1  stdErr 1.04669  azGap 61.0315  secAzGap 78.698  gtLevel -  minDist 1449.28 maxDist 3306.64 medDist 3063.33
QML_OriginUncertainty  horUnc -1  minHorUnc 7.82984  maxHorUnc 14.7563  azMaxHorUnc 4.56547
QML_ConfidenceEllipsoid  semiMajorAxisLength 46.4793  semiMinorAxisLength 9.69635  semiIntermediateAxisLength 16.8311  majorAxisPlunge -80.515  majorAxisAzimuth 6.3715  majorAxisRotation 357.543
FOCALMECH  Hyp  30.534668 79.444550 0.195638 Mech  0 0 0 mf  0 nObs 0
PHASE ID Ins Cmp On Pha  FM Date     HrMn   Sec     Err  ErrMag    Coda      Amp       Per  >   TTpred    Res       Weight    StaLoc(X  Y         Z)        SDist    SAzim  RAz  RDip RQual    Tcorr 
POO    ?    ?    i P      d 19990328 1908   18.9000 GAU  2.00e-01 -1.00e+00 -1.00e+00 -1.00e+00 >  186.3763    0.8345    1.1220   73.8492   18.5295   -0.5600   13.0337 204.20  -1.0  -1.0  0     0.0000
WMQ    ?    ?    _ P      _ 19990328 1908   49.0000 GAU  1.00e+00 -1.00e+00 -1.00e+00 -1.00e+00 >  210.5456    6.7652    0.1196   87.6950   43.8211   -0.8970   14.8049  23.90  -1.0  -1.0  0     0.0000
GTA    ?    ?    i P      c 19990328 1909   32.0000 GAU  2.00e-01 -1.00e+00 -1.00e+00 -1.00e+00 >  261.3981   -1.0874    1.0723   99.8144   39.4106   -1.3410   18.8425  56.38  -1.0  -1.0  0     0.0000
ASH    ?    ?    i P      c 19990328 1909   32.0000 GAU  2.00e-01 -1.00e+00 -1.00e+00 -1.00e+00 >  261.9573   -1.6466    0.9895   58.3500   37.9500   -0.2200   18.8934 298.78  -1.0  -1.0  0     0.0000
KURK   ?    ?    _ P      _ 19990328 1909   46.6000 GAU  1.00e+00 -1.00e+00 -1.00e+00 -1.00e+00 >  276.1367   -1.2260    1.0138   78.6202   50.7154   -0.1840   20.1901 358.49  -1.0  -1.0  0     0.0000
KAT    ?    ?    i P      c 19990328 1909   54.0000 GAU  2.00e-01 -1.00e+00 -1.00e+00 -1.00e+00 >  282.3777   -0.0669    1.1388   56.2700   39.0280   -0.2000   20.7649 300.43  -1.0  -1.0  0     0.0000
CD2    ?    ?    i P      d 19990328 1909   54.8000 GAU  2.00e-01 -1.00e+00 -1.00e+00 -1.00e+00 >  283.4373   -0.3266    1.1335  103.7578   30.9100   -0.6280   20.8628  82.71  -1.0  -1.0  0     0.0000
CD2    ?    ?    _ S      _ 19990328 1913   40.0000 GAU  1.00e+00 -1.00e+00 -1.00e+00 -1.00e+00 >  516.8933   -8.5825    0.0000  103.7578   30.9100   -0.6280   20.8628  82.71  -1.0  -1.0  0     0.0000
LZH    ?    ?    i P      c 19990328 1909   57.5000 GAU  2.00e-01 -1.00e+00 -1.00e+00 -1.00e+00 >  285.6800    0.1307    1.1374  103.8444   36.0867   -1.5600   21.0703  68.22  -1.0  -1.0  0     0.0000
LZH    ?    ?    _ S      _ 19990328 1913   48.0000 GAU  1.00e+00 -1.00e+00 -1.00e+00 -1.00e+00 >  520.9960   -4.6853    0.0000  103.8444   36.0867   -1.5600   21.0703  68.22  -1.0  -1.0  0     0.0000
CHTO   ?    ?    e P      c 19990328 1909   57.0600 GAU  5.00e-01 -1.00e+00 -1.00e+00 -1.00e+00 >  286.9707   -1.6000    0.9899   98.9438   18.8138   -0.3160   21.1898 119.06  -1.0  -1.0  0     0.0000
KMI    ?    ?    i P      c 19990328 1910    0.0000 GAU  2.00e-01 -1.00e+00 -1.00e+00 -1.00e+00 >  287.6853    0.6254    1.1132  102.7400   25.1233   -1.9400   21.2561  99.01  -1.0  -1.0  0     0.0000
KMI    ?    ?    i S      _ 19990328 1913   50.0000 GAU  2.00e-01 -1.00e+00 -1.00e+00 -1.00e+00 >  524.6622   -6.3515    0.0000  102.7400   25.1233   -1.9400   21.2561  99.01  -1.0  -1.0  0     0.0000
TRD    ?    ?    i P      d 19990328 1910    5.9100 GAU  2.00e-01 -1.00e+00 -1.00e+00 -1.00e+00 >  297.2643   -3.0436    0.6981   76.9585    8.5080   -0.0640   22.1488 186.53  -1.0  -1.0  0     0.0000
TRD    ?    ?    e S      _ 19990328 1914    4.5600 GAU  5.00e-01 -1.00e+00 -1.00e+00 -1.00e+00 >  542.1440   -9.2733    0.0000   76.9585    8.5080   -0.0640   22.1488 186.53  -1.0  -1.0  0     0.0000
PBA    ?    ?    e P      _ 19990328 1910    0.0000 GAU  5.00e-01 -1.00e+00 -1.00e+00 -1.00e+00 >  301.2349  -12.9242    0.0003   92.7167   11.6667   -0.0790   22.5215 144.06  -1.0  -1.0  0     0.0000
ELT    ?    ?    e P      c 19990328 1910   20.0000 GAU  5.00e-01 -1.00e+00 -1.00e+00 -1.00e+00 >  309.0218   -0.7111    1.0997   86.2389   53.2611   -0.2150   23.2572  10.32  -1.0  -1.0  0     0.0000
ELT    ?    ?    e S      _ 19990328 1914   32.0000 GAU  5.00e-01 -1.00e+00 -1.00e+00 -1.00e+00 >  562.0242   -1.7135    0.0000   86.2389   53.2611   -0.2150   23.2572  10.32  -1.0  -1.0  0     0.0000
BRVK   ?    ?    _ P      _ 19990328 1910   21.0000 GAU  1.00e+00 -1.00e+00 -1.00e+00 -1.00e+00 >  311.4871   -2.1763    0.8684   70.2828   53.0581   -0.3150   23.4915 346.11  -1.0  -1.0  0     0.0000
ZAL    ?    ?    _ P      _ 19990328 1910   24.5000 GAU  1.00e+00 -1.00e+00 -1.00e+00 -1.00e+00 >  313.7025   -0.8918    1.0484   84.7981   53.9367   -0.2130   23.7191   7.85  -1.0  -1.0  0     0.0000
GYA    ?    ?    i P      c 19990328 1910   30.3000 GAU  2.00e-01 -1.00e+00 -1.00e+00 -1.00e+00 >  318.1491    0.4617    1.1244  106.6639   26.4586   -1.1620   24.2056  92.90  -1.0  -1.0  0     0.0000
GYA    ?    ?    _ S      _ 19990328 1914   46.0000 GAU  1.00e+00 -1.00e+00 -1.00e+00 -1.00e+00 >  577.4037   -3.0930    0.0000  106.6639   26.4586   -1.1620   24.2056  92.90  -1.0  -1.0  0     0.0000
NVS    ?    ?    i P      _ 19990328 1910   30.0000 GAU  2.00e-01 -1.00e+00 -1.00e+00 -1.00e+00 >  320.4367   -2.1260    0.8991   83.2346   54.8404   -0.1500   24.4563   5.28  -1.0  -1.0  0     0.0000
NVS    ?    ?    i S      _ 19990328 1914   48.0000 GAU  2.00e-01 -1.00e+00 -1.00e+00 -1.00e+00 >  581.4470   -5.1363    0.0000   83.2346   54.8404   -0.1500   24.4563   5.28  -1.0  -1.0  0     0.0000
XAN    ?    ?    _ P      _ 19990328 1910   37.0000 GAU  1.00e+00 -1.00e+00 -1.00e+00 -1.00e+00 >  326.0899   -0.7792    1.0577  108.9214   34.0394   -0.6300   25.0769  74.17  -1.0  -1.0  0     0.0000
XAN    ?    ?    _ S      _ 19990328 1915    5.0000 GAU  1.00e+00 -1.00e+00 -1.00e+00 -1.00e+00 >  591.4101    1.9007    0.0000  108.9214   34.0394   -0.6300   25.0769  74.17  -1.0  -1.0  0     0.0000
ENH    ?    ?    i P      _ 19990328 1910   44.2410 GAU  2.00e-01 -1.00e+00 -1.00e+00 -1.00e+00 >  332.9710   -0.4192    1.1296  109.4868   30.2718   -0.4870   25.8347  82.83  -1.0  -1.0  0     0.0000
DHR    ?    ?    i P      d 19990328 1910   46.0000 GAU  2.00e-01 -1.00e+00 -1.00e+00 -1.00e+00 >  334.8656   -0.5549    1.1221   50.1389   26.3039   -0.0720   26.0439 267.98  -1.0  -1.0  0     0.0000
DHR    ?    ?    e S      _ 19990328 1915   16.0000 GAU  5.00e-01 -1.00e+00 -1.00e+00 -1.00e+00 >  606.7865   -2.4758    0.0000   50.1389   26.3039   -0.0720   26.0439 267.98  -1.0  -1.0  0     0.0000
MOY    ?    ?    e P      c 19990328 1910   50.2000 GAU  5.00e-01 -1.00e+00 -1.00e+00 -1.00e+00 >  338.4324    0.0783    1.1263  100.9931   51.6667   -1.3030   26.4384  30.77  -1.0  -1.0  0     0.0000
ZAK    ?    ?    i P      c 19990328 1910   52.0000 GAU  2.00e-01 -1.00e+00 -1.00e+00 -1.00e+00 >  340.3526   -0.0419    1.1389  103.2806   50.3819   -1.2000   26.6511  35.06  -1.0  -1.0  0     0.0000
BTO    ?    ?    _ P      _ 19990328 1910   53.5000 GAU  1.00e+00 -1.00e+00 -1.00e+00 -1.00e+00 >  340.4543    1.3564    0.9910  110.0208   40.6056   -1.1140   26.6624  59.39  -1.0  -1.0  0     0.0000
ULN    ?    ?    e P      c 19990328 1910   58.1600 GAU  5.00e-01 -1.00e+00 -1.00e+00 -1.00e+00 >  345.9809    0.4899    1.1113  107.0528   47.8652   -1.6150   27.2762  42.72  -1.0  -1.0  0     0.0000
KER    ?    ?    i P      d 19990328 1910   59.6000 GAU  2.00e-01 -1.00e+00 -1.00e+00 -1.00e+00 >  347.4552    0.4555    1.1248   47.1058   34.3522   -1.3100   27.4404 286.60  -1.0  -1.0  0     0.0000
TLY    ?    ?    _ P      _ 19990328 1911    1.4000 GAU  1.00e+00 -1.00e+00 -1.00e+00 -1.00e+00 >  349.4071    0.3037    1.0815  103.6438   51.6807   -0.5790   27.6580  33.20  -1.0  -1.0  0     0.0000
HHC    ?    ?    _ P      d 19990328 1911    4.5000 GAU  1.00e+00 -1.00e+00 -1.00e+00 -1.00e+00 >  351.1866    1.6241    0.9528  111.5636   40.8494   -1.1690   27.8567  59.40  -1.0  -1.0  0     0.0000
HHC    ?    ?    _ S      _ 19990328 1915   49.0000 GAU  1.00e+00 -1.00e+00 -1.00e+00 -1.00e+00 >  635.3682    1.9425    0.0000  111.5636   40.8494   -1.1690   27.8567  59.40  -1.0  -1.0  0     0.0000
TIY    ?    ?    e P      _ 19990328 1911    5.3000 GAU  5.00e-01 -1.00e+00 -1.00e+00 -1.00e+00 >  353.1715    0.4392    1.1142  112.4342   37.7131   -0.8500   28.0786  66.22  -1.0  -1.0  0     0.0000
TIY    ?    ?    _ S      _ 19990328 1915   50.0000 GAU  1.00e+00 -1.00e+00 -1.00e+00 -1.00e+00 >  638.8642   -0.5535    0.0000  112.4342   37.7131   -0.8500   28.0786  66.22  -1.0  -1.0  0     0.0000
TAB    ?    ?    i P      c 19990328 1911    8.5000 GAU  2.00e-01 -1.00e+00 -1.00e+00 -1.00e+00 >  354.3563    2.4545    0.8191   46.3267   38.0675   -1.4300   28.2113 294.50  -1.0  -1.0  0     0.0000
MAK    ?    ?    i P      d 19990328 1911    6.5000 GAU  2.00e-01 -1.00e+00 -1.00e+00 -1.00e+00 >  354.4266    0.3842    1.1286   47.5050   42.9610   -0.0420   28.2191 305.04  -1.0  -1.0  0     0.0000
MAK    ?    ?    i S      _ 19990328 1915   53.0000 GAU  2.00e-01 -1.00e+00 -1.00e+00 -1.00e+00 >  641.0770    0.2337    0.0000   47.5050   42.9610   -0.0420   28.2191 305.04  -1.0  -1.0  0     0.0000
IRK    ?    ?    e P      c 19990328 1911    7.2000 GAU  5.00e-01 -1.00e+00 -1.00e+00 -1.00e+00 >  355.2990    0.2117    1.1236  104.2711   52.2431   -0.4670   28.3169  32.82  -1.0  -1.0  0     0.0000
IRK    ?    ?    e S      _ 19990328 1915   48.0000 GAU  5.00e-01 -1.00e+00 -1.00e+00 -1.00e+00 >  642.6164   -6.3057    0.0000  104.2711   52.2431   -0.4670   28.3169  32.82  -1.0  -1.0  0     0.0000
SVE    ?    ?    i P      c 19990328 1911   16.5000 GAU  2.00e-01 -1.00e+00 -1.00e+00 -1.00e+00 >  364.7485    0.0622    1.1384   60.6370   56.8270   -0.2750   29.3804 338.93  -1.0  -1.0  0     0.0000
SVE    ?    ?    i S      _ 19990328 1916   12.0000 GAU  2.00e-01 -1.00e+00 -1.00e+00 -1.00e+00 >  659.3459    0.9648    0.0000   60.6370   56.8270   -0.2750   29.3804 338.93  -1.0  -1.0  0     0.0000
RYD    ?    ?    i P      d 19990328 1911   19.0000 GAU  2.00e-01 -1.00e+00 -1.00e+00 -1.00e+00 >  366.3190    0.9918    1.0772   46.6100   24.7200   -0.6490   29.5577 266.79  -1.0  -1.0  0     0.0000
RYD    ?    ?    e S      _ 19990328 1917   10.6700 GAU  5.00e-01 -1.00e+00 -1.00e+00 -1.00e+00 >  662.1319   56.8488    0.0000   46.6100   24.7200   -0.6490   29.5577 266.79  -1.0  -1.0  0     0.0000
ARU    ?    ?    i P      c 19990328 1911   19.5000 GAU  2.00e-01 -1.00e+00 -1.00e+00 -1.00e+00 >  367.9098   -0.0990    1.1386   58.5625   56.4302   -0.2500   29.7373 336.59  -1.0  -1.0  0     0.0000
ARU    ?    ?    e S      _ 19990328 1916    6.0000 GAU  5.00e-01 -1.00e+00 -1.00e+00 -1.00e+00 >  664.9537  -10.6430    0.0000   58.5625   56.4302   -0.2500   29.7373 336.59  -1.0  -1.0  0     0.0000
QIZ    ?    ?    i P      c 19990328 1911   18.5000 GAU  2.00e-01 -1.00e+00 -1.00e+00 -1.00e+00 >  368.2590   -1.4483    1.0220  109.8433   19.0294   -0.2300   29.7768 105.59  -1.0  -1.0  0     0.0000
QIZ    ?    ?    i S      _ 19990328 1916   12.0000 GAU  2.00e-01 -1.00e+00 -1.00e+00 -1.00e+00 >  665.5732   -5.2625    0.0000  109.8433   19.0294   -0.2300   29.7768 105.59  -1.0  -1.0  0     0.0000
WHN    ?    ?    _ P      d 19990328 1911   21.5000 GAU  1.00e+00 -1.00e+00 -1.00e+00 -1.00e+00 >  369.7077    0.1031    1.0863  114.3503   30.5436   -0.0260   29.9404  80.91  -1.0  -1.0  0     0.0000
WHN    ?    ?    i S      _ 19990328 1916   20.0000 GAU  2.00e-01 -1.00e+00 -1.00e+00 -1.00e+00 >  668.1426    0.1682    0.0000  114.3503   30.5436   -0.0260   29.9404  80.91  -1.0  -1.0  0     0.0000
VANT   ?    ?    i P      _ 19990328 1911   27.9000 GAU  2.00e-01 -1.00e+00 -1.00e+00 -1.00e+00 >  375.8599    0.3508    1.1302   43.2653   38.4210   -1.7500   30.6362 294.83  -1.0  -1.0  0     0.0000
ZEI    ?    ?    i P      c 19990328 1911   30.0000 GAU  2.00e-01 -1.00e+00 -1.00e+00 -1.00e+00 >  376.8141    1.4966    1.0057   43.8984   42.7700   -2.1000   30.7443 303.40  -1.0  -1.0  0     0.0000
ZEI    ?    ?    i S      _ 19990328 1916   33.0000 GAU  2.00e-01 -1.00e+00 -1.00e+00 -1.00e+00 >  680.7471    0.5637    0.0000   43.8984   42.7700   -2.1000   30.7443 303.40  -1.0  -1.0  0     0.0000
RAYN   ?    ?    _ P      _ 19990328 1911   29.3000 GAU  1.00e+00 -1.00e+00 -1.00e+00 -1.00e+00 >  378.2978   -0.6870    1.0644   45.5032   23.5225   -0.6310   30.9123 265.23  -1.0  -1.0  0     0.0000
GZH    ?    ?    _ P      _ 19990328 1911   31.0000 GAU  1.00e+00 -1.00e+00 -1.00e+00 -1.00e+00 >  379.3529   -0.0422    1.0872  113.3439   23.0869   -0.0110   31.0319  95.59  -1.0  -1.0  0     0.0000
GZH    ?    ?    i S      _ 19990328 1916   35.0000 GAU  2.00e-01 -1.00e+00 -1.00e+00 -1.00e+00 >  685.2511   -1.9404    0.0000  113.3439   23.0869   -0.0110   31.0319  95.59  -1.0  -1.0  0     0.0000
BJT    ?    ?    _ P      _ 19990328 1911   34.1000 GAU  1.00e+00 -1.00e+00 -1.00e+00 -1.00e+00 >  380.7845    1.6263    0.9525  116.1679   40.0183   -0.1970   31.1942  62.15  -1.0  -1.0  0     0.0000
BJI    ?    ?    _ P      c 19990328 1911   34.0000 GAU  1.00e+00 -1.00e+00 -1.00e+00 -1.00e+00 >  380.8527    1.4580    0.9771  116.1750   40.0403   -0.0430   31.2020  62.11  -1.0  -1.0  0     0.0000
BJI    ?    ?    e S      _ 19990328 1916   38.0000 GAU  5.00e-01 -1.00e+00 -1.00e+00 -1.00e+00 >  687.9124   -1.6017    0.0000  116.1750   40.0403   -0.0430   31.2020  62.11  -1.0  -1.0  0     0.0000
PYA    ?    ?    i P      c 19990328 1911   35.7000 GAU  2.00e-01 -1.00e+00 -1.00e+00 -1.00e+00 >  384.4359   -0.4251    1.1293   43.0583   44.0333   -0.5440   31.6087 305.54  -1.0  -1.0  0     0.0000
PYA    ?    ?    i S      _ 19990328 1916   44.0000 GAU  2.00e-01 -1.00e+00 -1.00e+00 -1.00e+00 >  694.2723   -1.9616    0.0000   43.0583   44.0333   -0.5440   31.6087 305.54  -1.0  -1.0  0     0.0000
TIA    ?    ?    e P      _ 19990328 1911   37.8000 GAU  5.00e-01 -1.00e+00 -1.00e+00 -1.00e+00 >  385.8670    0.2437    1.1226  117.1244   36.2114   -0.3000   31.7714  69.50  -1.0  -1.0  0     0.0000
TIA    ?    ?    _ S      _ 19990328 1916   49.0000 GAU  1.00e+00 -1.00e+00 -1.00e+00 -1.00e+00 >  696.8131    0.4977    0.0000  117.1244   36.2114   -0.3000   31.7714  69.50  -1.0  -1.0  0     0.0000
KIV    ?    ?    e P      _ 19990328 1911   37.8300 GAU  5.00e-01 -1.00e+00 -1.00e+00 -1.00e+00 >  386.5833   -0.4425    1.1168   42.6863   43.9553   -1.0540   31.8528 305.28  -1.0  -1.0  0     0.0000
KIV    ?    ?    i S      _ 19990328 1916   48.6000 GAU  2.00e-01 -1.00e+00 -1.00e+00 -1.00e+00 >  698.0849   -1.1741    0.0000   42.6863   43.9553   -1.0540   31.8528 305.28  -1.0  -1.0  0     0.0000
HKC    ?    ?    _ P      _ 19990328 1911   40.2000 GAU  1.00e+00 -1.00e+00 -1.00e+00 -1.00e+00 >  388.1582    0.3525    1.0796  114.1719   22.3036   -0.0270   32.0320  96.43  -1.0  -1.0  0     0.0000
HKC    ?    ?    _ S      _ 19990328 1916   35.0000 GAU  1.00e+00 -1.00e+00 -1.00e+00 -1.00e+00 >  700.8819  -17.5712    0.0000  114.1719   22.3036   -0.0270   32.0320  96.43  -1.0  -1.0  0     0.0000
BINT   ?    ?    i P      _ 19990328 1911   47.4000 GAU  2.00e-01 -1.00e+00 -1.00e+00 -1.00e+00 >  395.1260    0.5847    1.1163   40.4890   38.8758   -1.3420   32.8266 295.46  -1.0  -1.0  0     0.0000
CIT    ?    ?    e P      _ 19990328 1911   47.0000 GAU  5.00e-01 -1.00e+00 -1.00e+00 -1.00e+00 >  396.0335   -0.7228    1.0988  113.5519   52.0211   -0.7900   32.9303  39.40  -1.0  -1.0  0     0.0000
NJ2    ?    ?    _ P      c 19990328 1911   53.5000 GAU  1.00e+00 -1.00e+00 -1.00e+00 -1.00e+00 >  401.2158    0.5949    1.0670  118.8544   32.0517   -0.0450   33.5236  76.98  -1.0  -1.0  0     0.0000
NJ2    ?    ?    _ S      _ 19990328 1917   16.0000 GAU  1.00e+00 -1.00e+00 -1.00e+00 -1.00e+00 >  724.0922    0.2185    0.0000  118.8544   32.0517   -0.0450   33.5236  76.98  -1.0  -1.0  0     0.0000
SOC    ?    ?    i P      c 19990328 1911   56.0000 GAU  2.00e-01 -1.00e+00 -1.00e+00 -1.00e+00 >  404.4068   -0.0960    0.0000   39.7167   43.5833   -0.1920   33.8900 303.87  -1.0  -1.0  0     0.0000
SOC    ?    ?    e S      _ 19990328 1917   16.0000 GAU  5.00e-01 -1.00e+00 -1.00e+00 -1.00e+00 >  729.7702   -5.4594    0.0000   39.7167   43.5833   -0.1920   33.8900 303.87  -1.0  -1.0  0     0.0000
MYA    ?    ?    i P      _ 19990328 1912    1.6000 GAU  2.00e-01 -1.00e+00 -1.00e+00 -1.00e+00 >  409.0418    0.8689    0.0000   38.4253   38.3261   -1.0500   34.4241 294.39  -1.0  -1.0  0     0.0000
MLTT   ?    ?    i P      _ 19990328 1912    2.0000 GAU  2.00e-01 -1.00e+00 -1.00e+00 -1.00e+00 >  409.4758    0.8349    0.0000   38.3617   38.3542   -1.1700   34.4742 294.44  -1.0  -1.0  0     0.0000
RUWJ   ?    ?    _ P      d 19990328 1912    7.5700 GAU  1.00e+00 -1.00e+00 -1.00e+00 -1.00e+00 >  412.5655    3.3152    0.0000   38.4020   32.4750   -0.7510   34.8314 284.11  -1.0  -1.0  0     0.0000
QZH    ?    ?    i P      c 19990328 1912    5.5000 GAU  2.00e-01 -1.00e+00 -1.00e+00 -1.00e+00 >  413.3479    0.4629    0.0000  118.5917   24.9431   -0.0210   34.9220  89.40  -1.0  -1.0  0     0.0000
QZH    ?    ?    i S      _ 19990328 1917   36.0000 GAU  2.00e-01 -1.00e+00 -1.00e+00 -1.00e+00 >  745.7059   -1.3952    0.0000  118.5917   24.9431   -0.0210   34.9220  89.40  -1.0  -1.0  0     0.0000
BDHA   ?    ?    e P      c 19990328 1912    7.1000 GAU  5.00e-01 -1.00e+00 -1.00e+00 -1.00e+00 >  416.1941   -0.7834    0.0000   45.5667   13.9745    0.0000   35.2521 249.59  -1.0  -1.0  0     0.0000
GZTT   ?    ?    i P      _ 19990328 1912    9.0000 GAU  2.00e-01 -1.00e+00 -1.00e+00 -1.00e+00 >  416.8049    0.5059    0.0000   37.3125   37.0361   -0.8500   35.3230 292.15  -1.0  -1.0  0     0.0000
DL2    ?    ?    i P      c 19990328 1912   10.0000 GAU  2.00e-01 -1.00e+00 -1.00e+00 -1.00e+00 >  416.9420    1.3687    0.0000  121.6283   38.9061   -0.0620   35.3390  64.61  -1.0  -1.0  0     0.0000
DL2    ?    ?    i S      _ 19990328 1917   44.0000 GAU  2.00e-01 -1.00e+00 -1.00e+00 -1.00e+00 >  752.1217    0.1891    0.0000  121.6283   38.9061   -0.0620   35.3390  64.61  -1.0  -1.0  0     0.0000
HIA    ?    ?    _ P      _ 19990328 1912   12.1000 GAU  1.00e+00 -1.00e+00 -1.00e+00 -1.00e+00 >  418.7153    1.6954    0.0000  119.7417   49.2667   -0.6100   35.5452  46.55  -1.0  -1.0  0     0.0000
SVSK   ?    ?    i P      _ 19990328 1912   12.0000 GAU  2.00e-01 -1.00e+00 -1.00e+00 -1.00e+00 >  418.8650    1.4457    0.0000   36.9980   39.9170    0.0000   35.5626 297.12  -1.0  -1.0  0     0.0000
SVST   ?    ?    i P      _ 19990328 1912   12.0000 GAU  2.00e-01 -1.00e+00 -1.00e+00 -1.00e+00 >  419.2370    1.0737    0.0000   36.9361   39.7722   -1.6400   35.6059 296.87  -1.0  -1.0  0     0.0000
SSE    ?    ?    i P      c 19990328 1912   12.0000 GAU  2.00e-01 -1.00e+00 -1.00e+00 -1.00e+00 >  419.5062    0.8045    0.0000  121.1867   31.0956   -0.0150   35.6372  78.09  -1.0  -1.0  0     0.0000
