NLLOC "./loc/global.19911019.212329.grid0" "LOCATED" "Location completed."
SIGNATURE "Vipin Maurya (GPT, IIT Roorkee)   obs:./obs/19911019.2123_uk.isf   NLLoc:v7.00.00(27Oct2017)  run:16Mar2022 15h47m42"
COMMENT "ISC_IMS1.0 events"
GRID  361 181 601  -180 -90 0  1 1 1 PROB_DENSITY
SEARCH OCTREE nInitial 17628 nEvaluated 50004 smallestNodeSide 1.906925/1.628832/0.391276 oct_tree_integral 2.455522e+04 scatter_volume 2.455522e+04
HYPOCENTER  x 78.9301 y 30.8423 z 45.9749  OT 21.7258  ix -1 iy -1 iz -1 MAXIMUM_LIKELIHOOD
GEOGRAPHIC  OT 1991 10 19  21 23 21.725777  Lat 30.842285 Long 78.930069 Depth 45.974935
QUALITY  Pmax 1.26946e+125 MFmin 20.1502 MFmax 20.3234 RMS 1.17788 Nphs 50 Gap 65.3723 Dist 13.1446 Mamp -9.90 0 Mdur -9.90 0
VPVSRATIO  VpVsRatio 1.99177  Npair 136  Diff 660.3
STATISTICS  ExpectX 78.9298 Y 30.8252 Z 51.6913  CovXX 30.5309 XY 17.8312 XZ 18.5941 YY 82.4316 YZ -41.5992 ZZ 1183.35 EllAz1  108.058 Dip1  -1.51085 Len1  9.24289 Az2  198.104 Dip2  -1.7637 Len2  17.5159 Len3  6.468184e+01
STAT_GEOG  ExpectLat 30.825158 Long 78.929784 Depth 51.691297
TRANSFORM  GLOBAL
QML_OriginQuality  assocPhCt 1496  usedPhCt 50  assocStaCt -1  usedStaCt 50  depthPhCt -1  stdErr 1.17788  azGap 65.3723  secAzGap 72.117  gtLevel -  minDist 1461.61 maxDist 2964.16 medDist 2804.87
QML_OriginUncertainty  horUnc -1  minHorUnc 7.58214  maxHorUnc 14.2241  azMaxHorUnc 17.247
QML_ConfidenceEllipsoid  semiMajorAxisLength 64.6818  semiMinorAxisLength 9.24289  semiIntermediateAxisLength 17.5159  majorAxisPlunge 87.6773  majorAxisAzimuth 157.495  majorAxisRotation 139.321
FOCALMECH  Hyp  30.842285 78.930069 45.974935 Mech  0 0 0 mf  0 nObs 0
PHASE ID Ins Cmp On Pha  FM Date     HrMn   Sec     Err  ErrMag    Coda      Amp       Per  >   TTpred    Res       Weight    StaLoc(X  Y         Z)        SDist    SAzim  RAz  RDip RQual    Tcorr 
POO    ?    ?    i P      d 19911019 2126   31.0000 GAU  2.00e-01 -1.00e+00 -1.00e+00 -1.00e+00 >  183.9585    5.3157    0.2650   73.8492   18.5295   -0.5600   13.1446 201.67  -1.0  -1.0  0     0.0000
KAD    ?    ?    e P      d 19911019 2126   41.0000 GAU  5.00e-01 -1.00e+00 -1.00e+00 -1.00e+00 >  198.4337    0.8405    1.1028   74.1833   17.3075   -0.5820   14.2067 198.78  -1.0  -1.0  0     0.0000
GTA    ?    ?    i P      _ 19911019 2127   39.6000 GAU  2.00e-01 -1.00e+00 -1.00e+00 -1.00e+00 >  258.2404   -0.3662    1.1392   99.8144   39.4106   -1.3410   19.0458  57.57  -1.0  -1.0  0     0.0000
SEM    ?    ?    _ P      c 19911019 2127   44.8000 GAU  1.00e+00 -1.00e+00 -1.00e+00 -1.00e+00 >  264.1950   -1.1207    1.0327   80.2500   50.4083   -0.2090   19.5908   2.51  -1.0  -1.0  0     0.0000
KAT    ?    ?    e S      _ 19911019 2131   36.0000 GAU  5.00e-01 -1.00e+00 -1.00e+00 -1.00e+00 >  495.5238   -1.2496    0.0000   56.2700   39.0280   -0.2000   20.2278 300.05  -1.0  -1.0  0     0.0000
UKR    ?    ?    _ P      c 19911019 2127   56.0000 GAU  1.00e+00 -1.00e+00 -1.00e+00 -1.00e+00 >  274.7028   -0.4285    1.0877   84.7730   50.9370   -1.1000   20.5584  10.53  -1.0  -1.0  0     0.0000
UKR    ?    ?    i S      _ 19911019 2131   46.0000 GAU  2.00e-01 -1.00e+00 -1.00e+00 -1.00e+00 >  502.0752    2.1990    0.0000   84.7730   50.9370   -1.1000   20.5584  10.53  -1.0  -1.0  0     0.0000
CD2    ?    ?    e P      _ 19911019 2128    3.8000 GAU  5.00e-01 -1.00e+00 -1.00e+00 -1.00e+00 >  282.3162   -0.2420    1.1327  103.7578   30.9100   -0.6280   21.2647  83.38  -1.0  -1.0  0     0.0000
CD2    ?    ?    _ S      _ 19911019 2131   57.0000 GAU  1.00e+00 -1.00e+00 -1.00e+00 -1.00e+00 >  515.9827   -0.7085    0.0000  103.7578   30.9100   -0.6280   21.2647  83.38  -1.0  -1.0  0     0.0000
LZH    ?    ?    i P      c 19911019 2128    5.8000 GAU  2.00e-01 -1.00e+00 -1.00e+00 -1.00e+00 >  283.4510    0.6233    1.1275  103.8444   36.0867   -1.5600   21.3704  69.11  -1.0  -1.0  0     0.0000
LZH    ?    ?    _ S      _ 19911019 2132    0.0000 GAU  1.00e+00 -1.00e+00 -1.00e+00 -1.00e+00 >  518.0530    0.2213    0.0000  103.8444   36.0867   -1.5600   21.3704  69.11  -1.0  -1.0  0     0.0000
CHG    ?    ?    _ P      c 19911019 2128    7.5000 GAU  1.00e+00 -1.00e+00 -1.00e+00 -1.00e+00 >  287.2574   -1.4832    0.9871   98.9438   18.8138   -0.4160   21.7259 118.93  -1.0  -1.0  0     0.0000
CHTO   ?    ?    e P      _ 19911019 2128    7.6350 GAU  5.00e-01 -1.00e+00 -1.00e+00 -1.00e+00 >  287.2574   -1.3482    1.0336   98.9438   18.8138   -0.3160   21.7259 118.93  -1.0  -1.0  0     0.0000
CHG    ?    ?    e S      _ 19911019 2131   56.0000 GAU  5.00e-01 -1.00e+00 -1.00e+00 -1.00e+00 >  524.9911  -10.7169    0.0000   98.9438   18.8138   -0.4160   21.7259 118.93  -1.0  -1.0  0     0.0000
KMI    ?    ?    _ P      c 19911019 2128    8.5000 GAU  1.00e+00 -1.00e+00 -1.00e+00 -1.00e+00 >  287.4286   -0.6544    1.0747  102.7400   25.1233   -1.9400   21.7420  99.34  -1.0  -1.0  0     0.0000
KMI    ?    ?    _ S      _ 19911019 2132    2.0000 GAU  1.00e+00 -1.00e+00 -1.00e+00 -1.00e+00 >  525.3030   -5.0287    0.0000  102.7400   25.1233   -1.9400   21.7420  99.34  -1.0  -1.0  0     0.0000
TRD    ?    ?    e P      d 19911019 2128    7.0000 GAU  5.00e-01 -1.00e+00 -1.00e+00 -1.00e+00 >  294.5390   -9.2648    0.0169   76.9585    8.5080   -0.0640   22.4100 185.12  -1.0  -1.0  0     0.0000
TRD    ?    ?    e S      _ 19911019 2132    3.0000 GAU  5.00e-01 -1.00e+00 -1.00e+00 -1.00e+00 >  538.1990  -16.9248    0.0000   76.9585    8.5080   -0.0640   22.4100 185.12  -1.0  -1.0  0     0.0000
BDT    ?    ?    e P      _ 19911019 2128   18.0000 GAU  5.00e-01 -1.00e+00 -1.00e+00 -1.00e+00 >  298.1998   -1.9256    0.9381   99.0030   17.2443    0.0000   22.7560 122.07  -1.0  -1.0  0     0.0000
SHI    ?    ?    e P      _ 19911019 2128   18.0000 GAU  5.00e-01 -1.00e+00 -1.00e+00 -1.00e+00 >  298.5467   -2.2725    0.8708   52.5261   29.6445   -1.5390   22.7889 273.79  -1.0  -1.0  0     0.0000
ELT    ?    ?    _ P      c 19911019 2128   21.8000 GAU  1.00e+00 -1.00e+00 -1.00e+00 -1.00e+00 >  301.1674   -1.0932    1.0357   86.2389   53.2611   -0.2150   23.0376  11.21  -1.0  -1.0  0     0.0000
ELT    ?    ?    i S      _ 19911019 2132   33.0000 GAU  2.00e-01 -1.00e+00 -1.00e+00 -1.00e+00 >  548.4669    2.8073    0.0000   86.2389   53.2611   -0.2150   23.0376  11.21  -1.0  -1.0  0     0.0000
BRVK   ?    ?    _ P      c 19911019 2128   22.0000 GAU  1.00e+00 -1.00e+00 -1.00e+00 -1.00e+00 >  301.7018   -1.4276    0.9948   70.2828   53.0581   -0.3150   23.0884 346.68  -1.0  -1.0  0     0.0000
BRVK   ?    ?    e S      _ 19911019 2132   28.0000 GAU  5.00e-01 -1.00e+00 -1.00e+00 -1.00e+00 >  549.2937   -3.0194    0.0000   70.2828   53.0581   -0.3150   23.0884 346.68  -1.0  -1.0  0     0.0000
DBV    ?    ?    i P      c 19911019 2128   28.0000 GAU  2.00e-01 -1.00e+00 -1.00e+00 -1.00e+00 >  306.1180    0.1562    1.1473  103.0250   21.3900   -1.0500   23.5420 107.88  -1.0  -1.0  0     0.0000
IR4    ?    ?    i P      c 19911019 2128   30.0000 GAU  2.00e-01 -1.00e+00 -1.00e+00 -1.00e+00 >  308.6722   -0.3980    1.1377   50.9012   35.2387   -1.3730   23.8215 288.14  -1.0  -1.0  0     0.0000
IR1    ?    ?    i P      c 19911019 2128   31.6000 GAU  2.00e-01 -1.00e+00 -1.00e+00 -1.00e+00 >  310.3316   -0.4574    1.1346   50.6887   35.4162   -1.3470   24.0032 288.56  -1.0  -1.0  0     0.0000
IR5    ?    ?    e P      _ 19911019 2128   32.2000 GAU  5.00e-01 -1.00e+00 -1.00e+00 -1.00e+00 >  311.0469   -0.5727    1.1164   50.5811   35.2128   -1.3500   24.0816 288.05  -1.0  -1.0  0     0.0000
IR7    ?    ?    i P      c 19911019 2128   32.7000 GAU  2.00e-01 -1.00e+00 -1.00e+00 -1.00e+00 >  311.0684   -0.0942    1.1474   50.6089   35.7028   -1.3050   24.0839 289.25  -1.0  -1.0  0     0.0000
KHT    ?    ?    i P      _ 19911019 2128   32.0000 GAU  2.00e-01 -1.00e+00 -1.00e+00 -1.00e+00 >  311.5410   -1.2667    1.0536   98.5925   14.7848   -0.1733   24.1357 127.28  -1.0  -1.0  0     0.0000
NST    ?    ?    i P      c 19911019 2128   40.0000 GAU  2.00e-01 -1.00e+00 -1.00e+00 -1.00e+00 >  315.8241    2.4501    0.8521  100.1330   15.6727   -0.0340   24.6057 123.24  -1.0  -1.0  0     0.0000
GYA    ?    ?    i P      _ 19911019 2128   38.4000 GAU  2.00e-01 -1.00e+00 -1.00e+00 -1.00e+00 >  316.3544    0.3198    1.1432  106.6639   26.4586   -1.1620   24.6639  93.26  -1.0  -1.0  0     0.0000
GYA    ?    ?    _ S      _ 19911019 2132   58.0000 GAU  1.00e+00 -1.00e+00 -1.00e+00 -1.00e+00 >  574.7389    1.5353    0.0000  106.6639   26.4586   -1.1620   24.6639  93.26  -1.0  -1.0  0     0.0000
LOE    ?    ?    e P      _ 19911019 2128   35.0000 GAU  5.00e-01 -1.00e+00 -1.00e+00 -1.00e+00 >  316.5473   -3.2730    0.6560  101.7298   17.4063   -0.2587   24.6851 117.70  -1.0  -1.0  0     0.0000
TQV    ?    ?    i P      c 19911019 2128   43.0000 GAU  2.00e-01 -1.00e+00 -1.00e+00 -1.00e+00 >  320.6720    0.6022    1.1290  105.2083   21.8283   -0.0350   25.1388 104.66  -1.0  -1.0  0     0.0000
BAK    ?    ?    _ P      c 19911019 2128   46.0000 GAU  1.00e+00 -1.00e+00 -1.00e+00 -1.00e+00 >  322.2344    2.0398    0.9116   49.9000   40.3833    0.0120   25.3109 300.16  -1.0  -1.0  0     0.0000
KBR    ?    ?    e P      _ 19911019 2128   55.0000 GAU  5.00e-01 -1.00e+00 -1.00e+00 -1.00e+00 >  322.3452   10.9291    0.0068   99.5333   14.0167   -0.0280   25.3231 127.04  -1.0  -1.0  0     0.0000
XAN    ?    ?    i P      _ 19911019 2128   44.8000 GAU  2.00e-01 -1.00e+00 -1.00e+00 -1.00e+00 >  323.2322   -0.1580    1.1463  108.9214   34.0394   -0.6300   25.4209  74.79  -1.0  -1.0  0     0.0000
XAN    ?    ?    _ S      _ 19911019 2133   11.0000 GAU  1.00e+00 -1.00e+00 -1.00e+00 -1.00e+00 >  586.8121    2.4622    0.0000  108.9214   34.0394   -0.6300   25.4209  74.79  -1.0  -1.0  0     0.0000
DHR    ?    ?    i P      d 19911019 2128   48.0000 GAU  2.00e-01 -1.00e+00 -1.00e+00 -1.00e+00 >  324.9944    1.2798    1.0598   50.1389   26.3039   -0.0720   25.6153 267.04  -1.0  -1.0  0     0.0000
DHR    ?    ?    i S      _ 19911019 2133   10.0000 GAU  2.00e-01 -1.00e+00 -1.00e+00 -1.00e+00 >  589.8942   -1.6199    0.0000   50.1389   26.3039   -0.0720   25.6153 267.04  -1.0  -1.0  0     0.0000
HBVN   ?    ?    i P      _ 19911019 2128   49.6000 GAU  2.00e-01 -1.00e+00 -1.00e+00 -1.00e+00 >  325.9351    1.9391    0.9532  105.3519   20.8259   -0.0300   25.7191 106.59  -1.0  -1.0  0     0.0000
HNV    ?    ?    i P      _ 19911019 2128   49.8000 GAU  2.00e-01 -1.00e+00 -1.00e+00 -1.00e+00 >  328.3148   -0.2405    1.1441  105.7972   21.0481   -0.0060   25.9821 105.69  -1.0  -1.0  0     0.0000
BGV    ?    ?    i P      c 19911019 2128   53.0000 GAU  2.00e-01 -1.00e+00 -1.00e+00 -1.00e+00 >  330.5235    0.7508    1.1179  106.2286   21.2941   -0.0150   26.2266 104.77  -1.0  -1.0  0     0.0000
SHE    ?    ?    e P      _ 19911019 2128   53.0000 GAU  5.00e-01 -1.00e+00 -1.00e+00 -1.00e+00 >  331.2001    0.0741    1.1367   48.6420   40.6460   -0.8400   26.3015 300.27  -1.0  -1.0  0     0.0000
SHE    ?    ?    i S      _ 19911019 2133   17.0000 GAU  2.00e-01 -1.00e+00 -1.00e+00 -1.00e+00 >  600.7260   -5.4517    0.0000   48.6420   40.6460   -0.8400   26.3015 300.27  -1.0  -1.0  0     0.0000
MOY    ?    ?    _ P      c 19911019 2128   54.9000 GAU  1.00e+00 -1.00e+00 -1.00e+00 -1.00e+00 >  332.1275    1.0467    1.0471  100.9931   51.6667   -1.3030   26.4043  31.59  -1.0  -1.0  0     0.0000
NNT    ?    ?    e P      _ 19911019 2128   53.8000 GAU  5.00e-01 -1.00e+00 -1.00e+00 -1.00e+00 >  332.8517   -0.7774    1.1004   99.7338   12.5898   -0.1062   26.4846 128.99  -1.0  -1.0  0     0.0000
ZAK    ?    ?    _ P      c 19911019 2128   57.0000 GAU  1.00e+00 -1.00e+00 -1.00e+00 -1.00e+00 >  334.4079    0.8663    1.0634  103.2806   50.3819   -1.2000   26.6573  35.88  -1.0  -1.0  0     0.0000
ZAK    ?    ?    e S      _ 19911019 2133   34.0000 GAU  5.00e-01 -1.00e+00 -1.00e+00 -1.00e+00 >  606.3365    5.9377    0.0000  103.2806   50.3819   -1.2000   26.6573  35.88  -1.0  -1.0  0     0.0000
BTO    ?    ?    _ P      _ 19911019 2129    0.0000 GAU  1.00e+00 -1.00e+00 -1.00e+00 -1.00e+00 >  336.4978    1.7764    0.9541  110.0208   40.6056   -1.1140   26.8896  60.09  -1.0  -1.0  0     0.0000
BTO    ?    ?    i S      _ 19911019 2133   39.0000 GAU  2.00e-01 -1.00e+00 -1.00e+00 -1.00e+00 >  609.9979    7.2763    0.0000  110.0208   40.6056   -1.1140   26.8896  60.09  -1.0  -1.0  0     0.0000
VIV    ?    ?    i P      _ 19911019 2129    0.5000 GAU  2.00e-01 -1.00e+00 -1.00e+00 -1.00e+00 >  338.8281   -0.0539    1.1479  105.7000   18.5475   -0.0050   27.1489 110.64  -1.0  -1.0  0     0.0000
MAK    ?    ?    _ P      c 19911019 2129    7.5000 GAU  1.00e+00 -1.00e+00 -1.00e+00 -1.00e+00 >  343.5900    2.1842    0.8867   47.5050   42.9610   -0.0420   27.6803 304.78  -1.0  -1.0  0     0.0000
MAK    ?    ?    i S      _ 19911019 2133   47.5000 GAU  2.00e-01 -1.00e+00 -1.00e+00 -1.00e+00 >  622.4591    3.3151    0.0000   47.5050   42.9610   -0.0420   27.6803 304.78  -1.0  -1.0  0     0.0000
TAB    ?    ?    i P      c 19911019 2129    5.0000 GAU  2.00e-01 -1.00e+00 -1.00e+00 -1.00e+00 >  343.6007   -0.3265    1.1410   46.3267   38.0675   -1.4300   27.6815 294.06  -1.0  -1.0  0     0.0000
KRV    ?    ?    _ P      d 19911019 2129    8.0000 GAU  1.00e+00 -1.00e+00 -1.00e+00 -1.00e+00 >  346.7234   -0.4492    1.0867   46.3190   40.6470   -0.5320   28.0310 299.53  -1.0  -1.0  0     0.0000
KRV    ?    ?    i S      _ 19911019 2133   55.0000 GAU  2.00e-01 -1.00e+00 -1.00e+00 -1.00e+00 >  627.9827    5.2915    0.0000   46.3190   40.6470   -0.5320   28.0310 299.53  -1.0  -1.0  0     0.0000
HHC    ?    ?    _ P      _ 19911019 2129   10.4000 GAU  1.00e+00 -1.00e+00 -1.00e+00 -1.00e+00 >  347.1938    1.4804    0.9966  111.5636   40.8494   -1.1690   28.0837  60.05  -1.0  -1.0  0     0.0000
HHC    ?    ?    _ S      _ 19911019 2133   58.0000 GAU  1.00e+00 -1.00e+00 -1.00e+00 -1.00e+00 >  628.8129    7.4613    0.0000  111.5636   40.8494   -1.1690   28.0837  60.05  -1.0  -1.0  0     0.0000
IRK    ?    ?    i P      c 19911019 2129   11.8000 GAU  2.00e-01 -1.00e+00 -1.00e+00 -1.00e+00 >  349.1360    0.9383    1.1005  104.2711   52.2431   -0.4670   28.3016  33.56  -1.0  -1.0  0     0.0000
IRK    ?    ?    i S      _ 19911019 2134    2.0000 GAU  2.00e-01 -1.00e+00 -1.00e+00 -1.00e+00 >  632.2433    8.0309    0.0000  104.2711   52.2431   -0.4670   28.3016  33.56  -1.0  -1.0  0     0.0000
TIY    ?    ?    _ P      _ 19911019 2129   11.7000 GAU  1.00e+00 -1.00e+00 -1.00e+00 -1.00e+00 >  349.6721    0.3021    1.0947  112.4342   37.7131   -0.8500   28.3619  66.82  -1.0  -1.0  0     0.0000
TIY    ?    ?    _ S      _ 19911019 2133   55.0000 GAU  1.00e+00 -1.00e+00 -1.00e+00 -1.00e+00 >  633.1912    0.0830    0.0000  112.4342   37.7131   -0.8500   28.3619  66.82  -1.0  -1.0  0     0.0000
SVE    ?    ?    _ P      c 19911019 2129   17.0000 GAU  1.00e+00 -1.00e+00 -1.00e+00 -1.00e+00 >  354.7617    0.5125    1.0867   60.6370   56.8270   -0.2750   28.9350 339.21  -1.0  -1.0  0     0.0000
SVE    ?    ?    i S      _ 19911019 2134    0.0000 GAU  2.00e-01 -1.00e+00 -1.00e+00 -1.00e+00 >  642.2057   -3.9315    0.0000   60.6370   56.8270   -0.2750   28.9350 339.21  -1.0  -1.0  0     0.0000
GRO    ?    ?    _ P      c 19911019 2129   18.0000 GAU  1.00e+00 -1.00e+00 -1.00e+00 -1.00e+00 >  355.4272    0.8470    1.0650   45.7500   43.3200   -0.1230   29.0101 304.81  -1.0  -1.0  0     0.0000
RYD    ?    ?    i P      d 19911019 2129   23.0000 GAU  2.00e-01 -1.00e+00 -1.00e+00 -1.00e+00 >  356.5392    4.7350    0.0000   46.6100   24.7200   -0.6490   29.1356 265.94  -1.0  -1.0  0     0.0000
RYD    ?    ?    i S      _ 19911019 2134    6.0000 GAU  2.00e-01 -1.00e+00 -1.00e+00 -1.00e+00 >  645.3596   -1.0854    0.0000   46.6100   24.7200   -0.6490   29.1356 265.94  -1.0  -1.0  0     0.0000
BHD    ?    ?    e P      d 19911019 2129   18.5000 GAU  5.00e-01 -1.00e+00 -1.00e+00 -1.00e+00 >  357.5074   -0.7331    1.1042   44.3858   33.2744   -0.0318   29.2449 283.98  -1.0  -1.0  0     0.0000
BHD    ?    ?    i S      _ 19911019 2134   11.0000 GAU  2.00e-01 -1.00e+00 -1.00e+00 -1.00e+00 >  647.0772    2.1970    0.0000   44.3858   33.2744   -0.0318   29.2449 283.98  -1.0  -1.0  0     0.0000
ARU    ?    ?    _ P      c 19911019 2129   19.5000 GAU  1.00e+00 -1.00e+00 -1.00e+00 -1.00e+00 >  357.8164   -0.0422    1.0982   58.5625   56.4302   -0.2500   29.2798 336.83  -1.0  -1.0  0     0.0000
ARU    ?    ?    e S      _ 19911019 2134   17.0000 GAU  5.00e-01 -1.00e+00 -1.00e+00 -1.00e+00 >  647.6254    7.6488    0.0000   58.5625   56.4302   -0.2500   29.2798 336.83  -1.0  -1.0  0     0.0000
ERE    ?    ?    _ P      _ 19911019 2129   20.0000 GAU  1.00e+00 -1.00e+00 -1.00e+00 -1.00e+00 >  358.4289   -0.1547    1.0967   44.4700   40.1700   -0.9980   29.3490 298.10  -1.0  -1.0  0     0.0000
ERE    ?    ?    i S      _ 19911019 2134    6.0000 GAU  2.00e-01 -1.00e+00 -1.00e+00 -1.00e+00 >  648.7120   -4.4377    0.0000   44.4700   40.1700   -0.9980   29.3490 298.10  -1.0  -1.0  0     0.0000
MTA    ?    ?    _ P      c 19911019 2129   20.4000 GAU  1.00e+00 -1.00e+00 -1.00e+00 -1.00e+00 >  358.4992    0.1750    1.0974   44.7833   41.7000   -0.5100   29.3569 301.25  -1.0  -1.0  0     0.0000
MTA    ?    ?    i S      _ 19911019 2134   11.8000 GAU  2.00e-01 -1.00e+00 -1.00e+00 -1.00e+00 >  648.8367    1.2375    0.0000   44.7833   41.7000   -0.5100   29.3569 301.25  -1.0  -1.0  0     0.0000
TI2    ?    ?    _ P      c 19911019 2129   20.4000 GAU  1.00e+00 -1.00e+00 -1.00e+00 -1.00e+00 >  358.7698   -0.0955    0.0000   44.7500   41.7333   -0.5100   29.3875 301.31  -1.0  -1.0  0     0.0000
TI2    ?    ?    i S      _ 19911019 2134   11.8000 GAU  2.00e-01 -1.00e+00 -1.00e+00 -1.00e+00 >  649.3166    0.7577    0.0000   44.7500   41.7333   -0.5100   29.3875 301.31  -1.0  -1.0  0     0.0000
MJMA   ?    ?    i P      d 19911019 2129   24.0000 GAU  2.00e-01 -1.00e+00 -1.00e+00 -1.00e+00 >  363.3880   -1.1138    0.0000   45.2890   25.8550   -0.6500   29.9093 268.89  -1.0  -1.0  0     0.0000
MJMA   ?    ?    e S      _ 19911019 2134   10.0000 GAU  5.00e-01 -1.00e+00 -1.00e+00 -1.00e+00 >  657.5073   -9.2331    0.0000   45.2890   25.8550   -0.6500   29.9093 268.89  -1.0  -1.0  0     0.0000
MSL    ?    ?    e P      d 19911019 2129   25.5000 GAU  5.00e-01 -1.00e+00 -1.00e+00 -1.00e+00 >  365.3683   -1.5941    0.0000   43.1483   36.3817   -0.2418   30.1332 290.33  -1.0  -1.0  0     0.0000
MSL    ?    ?    e S      _ 19911019 2134   23.0000 GAU  5.00e-01 -1.00e+00 -1.00e+00 -1.00e+00 >  661.0195    0.2547    0.0000   43.1483   36.3817   -0.2418   30.1332 290.33  -1.0  -1.0  0     0.0000
QIZ    ?    ?    _ P      _ 19911019 2129   28.0000 GAU  1.00e+00 -1.00e+00 -1.00e+00 -1.00e+00 >  366.7154   -0.4412    0.0000  109.8433   19.0294   -0.2300   30.2857 105.63  -1.0  -1.0  0     0.0000
QIZ    ?    ?    _ S      _ 19911019 2134   22.0000 GAU  1.00e+00 -1.00e+00 -1.00e+00 -1.00e+00 >  663.4087   -3.1345    0.0000  109.8433   19.0294   -0.2300   30.2857 105.63  -1.0  -1.0  0     0.0000
WHN    ?    ?    i P      _ 19911019 2129   30.5000 GAU  2.00e-01 -1.00e+00 -1.00e+00 -1.00e+00 >  367.1066    1.6677    0.0000  114.3503   30.5436   -0.0260   30.3299  81.29  -1.0  -1.0  0     0.0000
WHN    ?    ?    i S      _ 19911019 2134   30.0000 GAU  2.00e-01 -1.00e+00 -1.00e+00 -1.00e+00 >  664.1026    4.1716    0.0000  114.3503   30.5436   -0.0260   30.3299  81.29  -1.0  -1.0  0     0.0000
PYA    ?    ?    _ P      c 19911019 2129   34.0000 GAU  1.00e+00 -1.00e+00 -1.00e+00 -1.00e+00 >  373.6358   -1.3616    0.0000   43.0583   44.0333   -0.5440   31.0699 305.28  -1.0  -1.0  0     0.0000
PYA    ?    ?    i S      _ 19911019 2134   38.0000 GAU  2.00e-01 -1.00e+00 -1.00e+00 -1.00e+00 >  675.6866    0.5876    0.0000   43.0583   44.0333   -0.5440   31.0699 305.28  -1.0  -1.0  0     0.0000
SNG    ?    ?    e P      _ 19911019 2129   35.9000 GAU  5.00e-01 -1.00e+00 -1.00e+00 -1.00e+00 >  374.5406   -0.3664    0.0000  100.6165    7.1770   -0.0040   31.1726 134.90  -1.0  -1.0  0     0.0000
