NLLOC "./loc/global.19450604.120948.grid0" "LOCATED" "Location completed."
SIGNATURE "Vipin Maurya (GPT, IIT Roorkee)   obs:./obs/19450604.1208_NandaDevi.isf   NLLoc:v7.00.00(27Oct2017)  run:07Apr2022 14h30m30"
COMMENT "ISC_IMS1.0 events"
GRID  361 181 601  -180 -90 0  1 1 1 PROB_DENSITY
SEARCH OCTREE nInitial 17628 nEvaluated 50020 smallestNodeSide 1.906925/1.628832/0.391276 oct_tree_integral 2.497140e+04 scatter_volume 2.497140e+04
HYPOCENTER  x 80.5078 y 30.1978 z 31.4977  OT 0.629707  ix -1 iy -1 iz -1 MAXIMUM_LIKELIHOOD
GEOGRAPHIC  OT 1945 06 04  12 09 0.629707  Lat 30.197754 Long 80.507813 Depth 31.497721
QUALITY  Pmax 1.75372e+115 MFmin 20.2938 MFmax 20.429 RMS 2.22938 Nphs 50 Gap 69.0066 Dist 13.2837 Mamp -9.90 0 Mdur -9.90 0
VPVSRATIO  VpVsRatio 1.84455  Npair 36  Diff 381
STATISTICS  ExpectX 80.3869 Y 30.1762 Z 26.8742  CovXX 293.573 XY 59.4571 XZ 118.555 YY 86.9776 YZ 28.842 ZZ 234.709 EllAz1  164.244 Dip1  -1.55193 Len1  15.8328 Az2  252.148 Dip2  53.472 Len2  22.5907 Len3  3.756127e+01
STAT_GEOG  ExpectLat 30.176232 Long 80.386940 Depth 26.874192
TRANSFORM  GLOBAL
QML_OriginQuality  assocPhCt 155  usedPhCt 50  assocStaCt -1  usedStaCt 40  depthPhCt -1  stdErr 2.22938  azGap 69.0066  secAzGap 97.2676  gtLevel -  minDist 1477.08 maxDist 6731.53 medDist 6322.6
QML_OriginUncertainty  horUnc -1  minHorUnc 12.7868  maxHorUnc 26.6789  azMaxHorUnc 75.0379
QML_ConfidenceEllipsoid  semiMajorAxisLength 37.5613  semiMinorAxisLength 15.8328  semiIntermediateAxisLength 22.5907  majorAxisPlunge 36.4841  majorAxisAzimuth 75.3918  majorAxisRotation 353.436
FOCALMECH  Hyp  30.197754 80.507813 31.497721 Mech  0 0 0 mf  0 nObs 0
PHASE ID Ins Cmp On Pha  FM Date     HrMn   Sec     Err  ErrMag    Coda      Amp       Per  >   TTpred    Res       Weight    StaLoc(X  Y         Z)        SDist    SAzim  RAz  RDip RQual    Tcorr 
BOM    ?    ?    i P      _ 19450604 1212    6.0000 GAU  2.00e-01 -1.00e+00 -1.00e+00 -1.00e+00 >  186.3403   -0.9700    1.3319   72.8127   18.8958   -0.0060   13.2837 213.46  -1.0  -1.0  0     0.0000
KOD    ?    ?    i S      _ 19450604 1217   17.0000 GAU  2.00e-01 -1.00e+00 -1.00e+00 -1.00e+00 >  496.3703   -0.0000    1.3653   77.4667   10.2333   -2.3450   20.1645 188.71  -1.0  -1.0  0     0.0000
PEH    ?    ?    e P      _ 19450604 1213   40.0000 GAU  5.00e-01 -1.00e+00 -1.00e+00 -1.00e+00 >  295.6105  -16.2402    0.0164  106.4183   29.8367   -0.2130   22.3895  84.34  -1.0  -1.0  0     0.0000
PEH    ?    ?    e S      _ 19450604 1217   59.0000 GAU  5.00e-01 -1.00e+00 -1.00e+00 -1.00e+00 >  540.0435   -1.6732    1.2124  106.4183   29.8367   -0.2130   22.3895  84.34  -1.0  -1.0  0     0.0000
COC    ?    ?    _ P      _ 19450604 1214   10.0000 GAU  1.00e+00 -1.00e+00 -1.00e+00 -1.00e+00 >  305.2862    4.0841    0.7613   79.8667    6.9000   -0.0070   23.3055 181.61  -1.0  -1.0  0     0.0000
COC    ?    ?    _ S      _ 19450604 1218   15.0000 GAU  1.00e+00 -1.00e+00 -1.00e+00 -1.00e+00 >  555.4143   -1.0440    1.2676   79.8667    6.9000   -0.0070   23.3055 181.61  -1.0  -1.0  0     0.0000
IRK    ?    ?    i P      _ 19450604 1214   54.0000 GAU  2.00e-01 -1.00e+00 -1.00e+00 -1.00e+00 >  348.9532    4.4171    0.6797  104.2711   52.2431   -0.4670   28.1131  31.58  -1.0  -1.0  0     0.0000
IRK    ?    ?    _ S      _ 19450604 1219   42.0000 GAU  1.00e+00 -1.00e+00 -1.00e+00 -1.00e+00 >  631.9216    9.4487    0.1068  104.2711   52.2431   -0.4670   28.1131  31.58  -1.0  -1.0  0     0.0000
SVE    ?    ?    i P      _ 19450604 1215    6.0000 GAU  2.00e-01 -1.00e+00 -1.00e+00 -1.00e+00 >  365.9551   -0.5848    1.3435   60.6370   56.8270   -0.2750   30.0294 338.18  -1.0  -1.0  0     0.0000
SVE    ?    ?    _ S      _ 19450604 1219   56.0000 GAU  1.00e+00 -1.00e+00 -1.00e+00 -1.00e+00 >  662.0428   -6.6725    0.3388   60.6370   56.8270   -0.2750   30.0294 338.18  -1.0  -1.0  0     0.0000
ERE    ?    ?    e P      _ 19450604 1215   16.0000 GAU  5.00e-01 -1.00e+00 -1.00e+00 -1.00e+00 >  373.2140    2.1563    1.1525   44.4700   40.1700   -0.9980   30.8511 298.76  -1.0  -1.0  0     0.0000
ERE    ?    ?    e S      _ 19450604 1220   18.0000 GAU  5.00e-01 -1.00e+00 -1.00e+00 -1.00e+00 >  674.9185    2.4518    1.0977   44.4700   40.1700   -0.9980   30.8511 298.76  -1.0  -1.0  0     0.0000
KSA    ?    ?    e P      _ 19450604 1216   16.0000 GAU  5.00e-01 -1.00e+00 -1.00e+00 -1.00e+00 >  432.6158    2.7545    1.0376   35.8900   33.8233   -0.9200   37.7143 287.47  -1.0  -1.0  0     0.0000
KSA    ?    ?    e S      _ 19450604 1222    4.0000 GAU  5.00e-01 -1.00e+00 -1.00e+00 -1.00e+00 >  780.8250    2.5453    1.0795   35.8900   33.8233   -0.9200   37.7143 287.47  -1.0  -1.0  0     0.0000
MOS    ?    ?    i P      _ 19450604 1216   27.0000 GAU  2.00e-01 -1.00e+00 -1.00e+00 -1.00e+00 >  447.1387   -0.7684    1.3296   37.6250   55.7383   -0.1210   39.4444 322.91  -1.0  -1.0  0     0.0000
MOS    ?    ?    i S      _ 19450604 1222   27.0000 GAU  2.00e-01 -1.00e+00 -1.00e+00 -1.00e+00 >  806.9266   -0.5563    1.3454   37.6250   55.7383   -0.1210   39.4444 322.91  -1.0  -1.0  0     0.0000
HLW    ?    ?    _ P      _ 19450604 1217    0.0000 GAU  1.00e+00 -1.00e+00 -1.00e+00 -1.00e+00 >  470.0422    9.3281    0.1123   31.3417   29.8583   -0.1160   42.2231 282.47  -1.0  -1.0  0     0.0000
HLW    ?    ?    _ S      _ 19450604 1223    6.0000 GAU  1.00e+00 -1.00e+00 -1.00e+00 -1.00e+00 >  848.2768   -2.9065    0.9827   31.3417   29.8583   -0.1160   42.2231 282.47  -1.0  -1.0  0     0.0000
BUC    ?    ?    e P      _ 19450604 1217   12.0000 GAU  5.00e-01 -1.00e+00 -1.00e+00 -1.00e+00 >  489.6840    1.6863    1.2294   26.0967   44.4136   -0.0620   44.6596 304.27  -1.0  -1.0  0     0.0000
BUC    ?    ?    i S      _ 19450604 1223   47.0000 GAU  2.00e-01 -1.00e+00 -1.00e+00 -1.00e+00 >  883.9185    2.4518    1.1012   26.0967   44.4136   -0.0620   44.6596 304.27  -1.0  -1.0  0     0.0000
SOF    ?    ?    e P      _ 19450604 1217   27.0000 GAU  5.00e-01 -1.00e+00 -1.00e+00 -1.00e+00 >  506.0508    0.3195    1.3526   23.3342   42.6853   -0.5400   46.7313 301.97  -1.0  -1.0  0     0.0000
SOF    ?    ?    e S      _ 19450604 1224   14.0000 GAU  5.00e-01 -1.00e+00 -1.00e+00 -1.00e+00 >  913.7513   -0.3810    1.3456   23.3342   42.6853   -0.5400   46.7313 301.97  -1.0  -1.0  0     0.0000
BEO    ?    ?    e P      c 19450604 1217   37.0000 GAU  5.00e-01 -1.00e+00 -1.00e+00 -1.00e+00 >  520.9705   -4.6002    0.6444   20.4553   44.8214   -0.1290   48.6549 305.05  -1.0  -1.0  0     0.0000
BEO    ?    ?    e S      _ 19450604 1224   49.0000 GAU  5.00e-01 -1.00e+00 -1.00e+00 -1.00e+00 >  941.0498    7.3205    0.0000   20.4553   44.8214   -0.1290   48.6549 305.05  -1.0  -1.0  0     0.0000
UPP    ?    ?    i P      _ 19450604 1217   58.0000 GAU  2.00e-01 -1.00e+00 -1.00e+00 -1.00e+00 >  536.8569    0.5134    1.3553   17.6267   59.8583   -0.0140   50.7424 324.75  -1.0  -1.0  0     0.0000
UPP    ?    ?    i S      _ 19450604 1225   10.0000 GAU  2.00e-01 -1.00e+00 -1.00e+00 -1.00e+00 >  970.2224   -0.8521    0.0000   17.6267   59.8583   -0.0140   50.7424 324.75  -1.0  -1.0  0     0.0000
PRA    ?    ?    e P      _ 19450604 1218    9.0000 GAU  5.00e-01 -1.00e+00 -1.00e+00 -1.00e+00 >  548.9589   -0.5886    1.3342   14.4331   50.0703   -0.2250   52.3613 312.19  -1.0  -1.0  0     0.0000
PRA    ?    ?    _ S      _ 19450604 1225   36.0000 GAU  1.00e+00 -1.00e+00 -1.00e+00 -1.00e+00 >  992.5207    2.8496    0.0000   14.4331   50.0703   -0.2250   52.3613 312.19  -1.0  -1.0  0     0.0000
TRS    ?    ?    i P      _ 19450604 1218   16.0000 GAU  2.00e-01 -1.00e+00 -1.00e+00 -1.00e+00 >  555.6292   -0.2589    1.3600   13.7539   45.6428   -0.0080   53.2646 306.72  -1.0  -1.0  0     0.0000
TRS    ?    ?    i S      _ 19450604 1225   40.0000 GAU  2.00e-01 -1.00e+00 -1.00e+00 -1.00e+00 > 1004.8396   -5.4694    0.0000   13.7539   45.6428   -0.0080   53.2646 306.72  -1.0  -1.0  0     0.0000
JEN    ?    ?    e P      _ 19450604 1218    2.0000 GAU  5.00e-01 -1.00e+00 -1.00e+00 -1.00e+00 >  561.7184  -20.3481    0.0154   11.5833   50.9519   -0.1930   54.0965 313.47  -1.0  -1.0  0     0.0000
JEN    ?    ?    e S      _ 19450604 1225   38.0000 GAU  5.00e-01 -1.00e+00 -1.00e+00 -1.00e+00 > 1016.1092  -18.7389    0.0000   11.5833   50.9519   -0.1930   54.0965 313.47  -1.0  -1.0  0     0.0000
CHU    ?    ?    e P      _ 19450604 1218   36.0000 GAU  5.00e-01 -1.00e+00 -1.00e+00 -1.00e+00 >  575.2190    0.1513    1.3555    9.5367   46.8499   -0.6300   55.9659 308.72  -1.0  -1.0  0     0.0000
ZUR    ?    ?    e P      c 19450604 1218   37.0000 GAU  5.00e-01 -1.00e+00 -1.00e+00 -1.00e+00 >  579.1680   -2.7977    1.0081    8.5804   47.3687   -0.6040   56.5194 309.47  -1.0  -1.0  0     0.0000
ZUR    ?    ?    e S      _ 19450604 1226   24.0000 GAU  5.00e-01 -1.00e+00 -1.00e+00 -1.00e+00 > 1048.5048   -5.1345    0.0000    8.5804   47.3687   -0.6040   56.5194 309.47  -1.0  -1.0  0     0.0000
STR    ?    ?    e P      _ 19450604 1219    2.0000 GAU  5.00e-01 -1.00e+00 -1.00e+00 -1.00e+00 >  581.5367   19.8336    0.0002    7.7631   48.5794   -0.1350   56.8530 311.01  -1.0  -1.0  0     0.0000
STR    ?    ?    e S      _ 19450604 1226   18.0000 GAU  5.00e-01 -1.00e+00 -1.00e+00 -1.00e+00 > 1052.9141  -15.5438    0.0000    7.7631   48.5794   -0.1350   56.8530 311.01  -1.0  -1.0  0     0.0000
BER    ?    ?    _ P      _ 19450604 1218   35.0000 GAU  1.00e+00 -1.00e+00 -1.00e+00 -1.00e+00 >  581.6437   -7.2734    0.2705    5.3339   60.3838   -0.0500   56.8681 325.22  -1.0  -1.0  0     0.0000
BER    ?    ?    e S      _ 19450604 1226   25.0000 GAU  5.00e-01 -1.00e+00 -1.00e+00 -1.00e+00 > 1053.1133   -8.7430    0.0000    5.3339   60.3838   -0.0500   56.8681 325.22  -1.0  -1.0  0     0.0000
BAS    ?    ?    e P      _ 19450604 1218   44.0000 GAU  5.00e-01 -1.00e+00 -1.00e+00 -1.00e+00 >  583.6603   -0.2900    1.3493    7.5829   47.5400   -0.3090   57.1531 309.81  -1.0  -1.0  0     0.0000
BAS    ?    ?    e S      _ 19450604 1226   26.0000 GAU  5.00e-01 -1.00e+00 -1.00e+00 -1.00e+00 > 1056.8697  -11.4994    0.0000    7.5829   47.5400   -0.3090   57.1531 309.81  -1.0  -1.0  0     0.0000
NEU    ?    ?    e P      _ 19450604 1218   47.0000 GAU  5.00e-01 -1.00e+00 -1.00e+00 -1.00e+00 >  587.3166   -0.9463    1.3049    6.9573   46.9973   -0.4870   57.6719 309.28  -1.0  -1.0  0     0.0000
NEU    ?    ?    e S      _ 19450604 1226   43.0000 GAU  5.00e-01 -1.00e+00 -1.00e+00 -1.00e+00 > 1063.6854   -1.3151    0.0000    6.9573   46.9973   -0.4870   57.6719 309.28  -1.0  -1.0  0     0.0000
DBN    ?    ?    i P      c 19450604 1218   50.0000 GAU  2.00e-01 -1.00e+00 -1.00e+00 -1.00e+00 >  588.9407    0.4296    1.3588    5.1767   52.1017   -0.0030   57.9033 315.46  -1.0  -1.0  0     0.0000
DBN    ?    ?    i S      _ 19450604 1226   51.0000 GAU  2.00e-01 -1.00e+00 -1.00e+00 -1.00e+00 > 1066.7154    3.6549    0.0000    5.1767   52.1017   -0.0030   57.9033 315.46  -1.0  -1.0  0     0.0000
UCC    ?    ?    e P      _ 19450604 1218   54.0000 GAU  5.00e-01 -1.00e+00 -1.00e+00 -1.00e+00 >  594.0150   -0.6447    1.3304    4.3594   50.7983   -0.1050   58.6302 314.05  -1.0  -1.0  0     0.0000
UCC    ?    ?    e S      _ 19450604 1226   58.0000 GAU  5.00e-01 -1.00e+00 -1.00e+00 -1.00e+00 > 1076.1946    1.1757    0.0000    4.3594   50.7983   -0.1050   58.6302 314.05  -1.0  -1.0  0     0.0000
PAR    ?    ?    i P      _ 19450604 1219    6.0000 GAU  2.00e-01 -1.00e+00 -1.00e+00 -1.00e+00 >  604.9698    0.4005    1.3598    2.4936   48.8094   -0.0470   60.2172 312.08  -1.0  -1.0  0     0.0000
PAR    ?    ?    e S      _ 19450604 1227   17.0000 GAU  5.00e-01 -1.00e+00 -1.00e+00 -1.00e+00 > 1096.6886   -0.3183    0.0000    2.4936   48.8094   -0.0470   60.2172 312.08  -1.0  -1.0  0     0.0000
CFF    ?    ?    e P      _ 19450604 1219    7.0000 GAU  5.00e-01 -1.00e+00 -1.00e+00 -1.00e+00 >  607.1623   -0.7920    1.3190    3.1025   45.7628   -0.4000   60.5381 308.56  -1.0  -1.0  0     0.0000
CFF    ?    ?    e S      _ 19450604 1227    0.0000 GAU  5.00e-01 -1.00e+00 -1.00e+00 -1.00e+00 > 1100.7984  -21.4281    0.0000    3.1025   45.7628   -0.4000   60.5381 308.56  -1.0  -1.0  0     0.0000
ABE    ?    ?    i P      _ 19450604 1219    9.0000 GAU  2.00e-01 -1.00e+00 -1.00e+00 -1.00e+00 >  611.1414   -2.7711    1.0145   -2.1000   57.1667   -0.0120   61.1232 322.12  -1.0  -1.0  0     0.0000
ABE    ?    ?    i S      _ 19450604 1227   33.0000 GAU  2.00e-01 -1.00e+00 -1.00e+00 -1.00e+00 > 1108.2645    4.1058    0.0000   -2.1000   57.1667   -0.0120   61.1232 322.12  -1.0  -1.0  0     0.0000
KEW    ?    ?    e P      c 19450604 1219   14.0000 GAU  5.00e-01 -1.00e+00 -1.00e+00 -1.00e+00 >  612.7218    0.6485    1.3388   -0.3131   51.4683   -0.0050   61.3567 315.51  -1.0  -1.0  0     0.0000
KEW    ?    ?    i S      _ 19450604 1227   31.0000 GAU  2.00e-01 -1.00e+00 -1.00e+00 -1.00e+00 > 1111.2325   -0.8622    0.0000   -0.3131   51.4683   -0.0050   61.3567 315.51  -1.0  -1.0  0     0.0000
EDI    ?    ?    e S      _ 19450604 1227   22.0000 GAU  5.00e-01 -1.00e+00 -1.00e+00 -1.00e+00 > 1119.1027  -17.7324    0.0000   -3.1861   55.9233   -0.1250   61.9781 320.89  -1.0  -1.0  0     0.0000
EBR    ?    ?    i P      _ 19450604 1219   29.0000 GAU  2.00e-01 -1.00e+00 -1.00e+00 -1.00e+00 >  628.7246   -0.3543    1.3563    0.4933   40.8206   -0.0500   63.7549 303.80  -1.0  -1.0  0     0.0000
EBR    ?    ?    i S      _ 19450604 1228    2.0000 GAU  2.00e-01 -1.00e+00 -1.00e+00 -1.00e+00 > 1141.3613    0.0090    0.0000    0.4933   40.8206   -0.0500   63.7549 303.80  -1.0  -1.0  0     0.0000
TOL    ?    ?    i P      _ 19450604 1219   49.0000 GAU  2.00e-01 -1.00e+00 -1.00e+00 -1.00e+00 >  651.8143   -3.4440    0.8739   -4.0486   39.8814   -0.4800   67.3294 304.12  -1.0  -1.0  0     0.0000
TOL    ?    ?    i S      _ 19450604 1228   47.0000 GAU  2.00e-01 -1.00e+00 -1.00e+00 -1.00e+00 > 1185.0552    1.3151    0.0000   -4.0486   39.8814   -0.4800   67.3294 304.12  -1.0  -1.0  0     0.0000
CRT    ?    ?    i P      _ 19450604 1220    2.0000 GAU  2.00e-01 -1.00e+00 -1.00e+00 -1.00e+00 >  655.9908    5.3795    0.4925   -3.5979   37.1900   -0.7740   67.9916 301.27  -1.0  -1.0  0     0.0000
CRT    ?    ?    i S      _ 19450604 1228   54.0000 GAU  2.00e-01 -1.00e+00 -1.00e+00 -1.00e+00 > 1192.9918    0.3785    0.0000   -3.5979   37.1900   -0.7740   67.9916 301.27  -1.0  -1.0  0     0.0000
MAL    ?    ?    e P      _ 19450604 1220    0.0000 GAU  5.00e-01 -1.00e+00 -1.00e+00 -1.00e+00 >  660.8476   -1.4773    1.2412   -4.4111   36.7275   -0.0600   68.7682 301.08  -1.0  -1.0  0     0.0000
MAL    ?    ?    i S      _ 19450604 1229    0.0000 GAU  2.00e-01 -1.00e+00 -1.00e+00 -1.00e+00 > 1202.2347   -2.8644    0.0000   -4.4111   36.7275   -0.0600   68.7682 301.08  -1.0  -1.0  0     0.0000
SFS    ?    ?    _ P      _ 19450604 1220    5.0000 GAU  1.00e+00 -1.00e+00 -1.00e+00 -1.00e+00 >  669.6680   -5.2977    0.5358   -6.2055   36.4656   -0.0210   70.1965 301.42  -1.0  -1.0  0     0.0000
SFS    ?    ?    _ S      _ 19450604 1229   24.0000 GAU  1.00e+00 -1.00e+00 -1.00e+00 -1.00e+00 > 1219.0533    4.3170    0.0000   -6.2055   36.4656   -0.0210   70.1965 301.42  -1.0  -1.0  0     0.0000
COI    ?    ?    e P      _ 19450604 1220    5.0000 GAU  5.00e-01 -1.00e+00 -1.00e+00 -1.00e+00 >  670.3099   -5.9396    0.4213   -8.4183   40.2067   -0.1400   70.3014 305.80  -1.0  -1.0  0     0.0000
COI    ?    ?    _ S      _ 19450604 1229   17.0000 GAU  1.00e+00 -1.00e+00 -1.00e+00 -1.00e+00 > 1220.2789   -3.9086    0.0000   -8.4183   40.2067   -0.1400   70.3014 305.80  -1.0  -1.0  0     0.0000
LIS    ?    ?    _ P      _ 19450604 1220   18.0000 GAU  1.00e+00 -1.00e+00 -1.00e+00 -1.00e+00 >  677.1014    0.2689    1.3208   -9.1491   38.7165   -0.0770   71.4193 304.60  -1.0  -1.0  0     0.0000
LIS    ?    ?    _ S      _ 19450604 1229   37.0000 GAU  1.00e+00 -1.00e+00 -1.00e+00 -1.00e+00 > 1233.2664    3.1039    0.0000   -9.1491   38.7165   -0.0770   71.4193 304.60  -1.0  -1.0  0     0.0000
CMO    ?    ?    e P      _ 19450604 1220   58.0000 GAU  5.00e-01 -1.00e+00 -1.00e+00 -1.00e+00 >  714.1213    3.2489    0.9338 -147.8350   64.8600   -0.1830   77.8023  18.95  -1.0  -1.0  0     0.0000
CMO    ?    ?    e S      _ 19450604 1230   51.0000 GAU  5.00e-01 -1.00e+00 -1.00e+00 -1.00e+00 > 1304.5875    5.7828    0.0000 -147.8350   64.8600   -0.1830   77.8023  18.95  -1.0  -1.0  0     0.0000
IVI    ?    ?    _ P      _ 19450604 1221    7.0000 GAU  1.00e+00 -1.00e+00 -1.00e+00 -1.00e+00 >  724.0193    2.3510    1.1026  -48.1833   61.2000   -0.0200   79.6021 337.52  -1.0  -1.0  0     0.0000
IVI    ?    ?    _ S      _ 19450604 1231    7.0000 GAU  1.00e+00 -1.00e+00 -1.00e+00 -1.00e+00 > 1323.8254    2.5449    0.0000  -48.1833   61.2000   -0.0200   79.6021 337.52  -1.0  -1.0  0     0.0000
SIT    ?    ?    e P      _ 19450604 1221   48.0000 GAU  5.00e-01 -1.00e+00 -1.00e+00 -1.00e+00 >  765.2405    2.1298    1.1572 -135.3262   57.0567   -0.0250   87.6465  18.58  -1.0  -1.0  0     0.0000
SIT    ?    ?    e S      _ 19450604 1232   14.0000 GAU  5.00e-01 -1.00e+00 -1.00e+00 -1.00e+00 > 1390.9032    2.4670    0.0000 -135.3262   57.0567   -0.0250   87.6465  18.58  -1.0  -1.0  0     0.0000
BRSB   ?    ?    i P      _ 19450604 1221   59.0000 GAU  2.00e-01 -1.00e+00 -1.00e+00 -1.00e+00 >  776.8197    1.5506    1.2558  153.0311  -27.4781   -0.0150   90.1032 122.20  -1.0  -1.0  0     0.0000
RIV    ?    ?    i S      _ 19450604 1233   13.0000 GAU  2.00e-01 -1.00e+00 -1.00e+00 -1.00e+00 > 1418.6320   33.7383    0.0000  151.1583  -33.8294   -0.0250   92.4151 128.33  -1.0  -1.0  0     0.0000
VIC    ?    ?    e S      _ 19450604 1233   24.0000 GAU  5.00e-01 -1.00e+00 -1.00e+00 -1.00e+00 > 1450.5121   12.8582    0.0000 -123.4153   48.5194   -0.1970   98.4225  15.76  -1.0  -1.0  0     0.0000
SHS    ?    ?    i P      _ 19450604 1227   30.0000 GAU  2.00e-01 -1.00e+00 -1.00e+00 -1.00e+00 >  848.6522  260.7181    0.0000 -122.3883   40.6950   -0.3120  106.0042  17.87  -1.0  -1.0  0     0.0000
BEC    ?    ?    e S      _ 19450604 1235   45.0000 GAU  5.00e-01 -1.00e+00 -1.00e+00 -1.00e+00 > 1500.5386  103.8317    0.0000  -64.6811   32.3794   -0.0410  109.2644 329.29  -1.0  -1.0  0     0.0000
FLO    ?    ?    e S      _ 19450604 1237   32.0000 GAU  5.00e-01 -1.00e+00 -1.00e+00 -1.00e+00 > 1505.6028  205.7675    0.0000  -90.3700   38.8017   -0.1600  110.4786 352.42  -1.0  -1.0  0     0.0000
TIN    ?    ?    e P      _ 19450604 1228    6.0000 GAU  5.00e-01 -1.00e+00 -1.00e+00 -1.00e+00 >  868.6141  276.7562    0.0000 -118.2283   37.0550   -1.1950  110.4944  15.88  -1.0  -1.0  0     0.0000
PAS    ?    ?    i S      _ 19450604 1237   57.0000 GAU  2.00e-01 -1.00e+00 -1.00e+00 -1.00e+00 > 1516.9012  219.4690    0.0000 -118.1711   34.1484   -0.2570  113.2821  16.77  -1.0  -1.0  0     0.0000
LPZ    ?    ?    _ S      _ 19450604 1244   40.0000 GAU  1.00e+00 -1.00e+00 -1.00e+00 -1.00e+00 > 1605.5112  533.8591    0.0000  -68.1327  -16.4953   -3.6580  148.2637 288.45  -1.0  -1.0  0     0.0000
NDI    ?    ?    i Pn     c 19450604 1209   48.0000 GAU  2.00e-01 -1.00e+00 -1.00e+00 -1.00e+00 >    0.0000    0.0000    0.0000   77.2167   28.6833   -0.2300    0.0000   0.00  -1.0  -1.0  0     0.0000
NDI    ?    ?    i Pg     _ 19450604 1209   58.0000 GAU  2.00e-01 -1.00e+00 -1.00e+00 -1.00e+00 >    0.0000    0.0000    0.0000   77.2167   28.6833   -0.2300    0.0000   0.00  -1.0  -1.0  0     0.0000
NDI    ?    ?    i Sg     _ 19450604 1210   33.0000 GAU  2.00e-01 -1.00e+00 -1.00e+00 -1.00e+00 >    0.0000    0.0000    0.0000   77.2167   28.6833   -0.2300    0.0000   0.00  -1.0  -1.0  0     0.0000
CAL    ?    ?    i Pn     c 19450604 1211   34.0000 GAU  2.00e-01 -1.00e+00 -1.00e+00 -1.00e+00 >    0.0000    0.0000    0.0000   88.3307   22.5392   -0.0060    0.0000   0.00  -1.0  -1.0  0     0.0000
ANR    ?    ?    e Pn     _ 19450604 1211   57.0000 GAU  5.00e-01 -1.00e+00 -1.00e+00 -1.00e+00 >    0.0000    0.0000    0.0000   72.3600   40.7550   -0.4940    0.0000   0.00  -1.0  -1.0  0     0.0000
