NLLOC "./loc/global.19750119.080300.grid0" "LOCATED" "Location completed."
SIGNATURE "Vipin Maurya (GPT, IIT Roorkee)   obs:./obs/19750119.0801_KINNAUR.isf   NLLoc:v7.00.00(27Oct2017)  run:29Mar2022 17h10m24"
COMMENT "ISC_IMS1.0 events"
GRID  361 181 601  -180 -90 0  1 1 1 PROB_DENSITY
SEARCH OCTREE nInitial 17628 nEvaluated 50004 smallestNodeSide 3.813850/3.257664/0.782552 oct_tree_integral 7.846708e+04 scatter_volume 7.846708e+04
HYPOCENTER  x 78.4585 y 32.2998 z 33.2585  OT 4.8516  ix -1 iy -1 iz -1 MAXIMUM_LIKELIHOOD
GEOGRAPHIC  OT 1975 01 19  08 02 4.851602  Lat 32.299805 Long 78.458460 Depth 33.258464
QUALITY  Pmax 8.55864e+119 MFmin 19.9436 MFmax 20.0113 RMS 1.8622 Nphs 50 Gap 86.9678 Dist 17.3478 Mamp -9.90 0 Mdur -9.90 0
VPVSRATIO  VpVsRatio 1.8457  Npair 103  Diff 420
STATISTICS  ExpectX 78.447 Y 32.3067 Z 72.3177  CovXX 71.4318 XY 27.0066 XZ -78.7079 YY 276.601 YZ -92.9202 ZZ 3331.05 EllAz1  96.8103 Dip1  1.17812 Len1  15.3302 Az2  186.771 Dip2  -1.90429 Len2  31.2528 Len3  1.085145e+02
STAT_GEOG  ExpectLat 32.306724 Long 78.446993 Depth 72.317684
TRANSFORM  GLOBAL
QML_OriginQuality  assocPhCt 780  usedPhCt 50  assocStaCt -1  usedStaCt 50  depthPhCt -1  stdErr 1.8622  azGap 86.9678  secAzGap 100.036  gtLevel -  minDist 1928.99 maxDist 4307.19 medDist 4075.21
QML_OriginUncertainty  horUnc -1  minHorUnc 12.5002  maxHorUnc 25.3815  azMaxHorUnc 7.37455
QML_ConfidenceEllipsoid  semiMajorAxisLength 108.515  semiMinorAxisLength 15.3302  semiIntermediateAxisLength 31.2528  majorAxisPlunge -87.7605  majorAxisAzimuth 38.5374  majorAxisRotation 328.175
FOCALMECH  Hyp  32.299805 78.458460 33.258464 Mech  0 0 0 mf  0 nObs 0
PHASE ID Ins Cmp On Pha  FM Date     HrMn   Sec     Err  ErrMag    Coda      Amp       Per  >   TTpred    Res       Weight    StaLoc(X  Y         Z)        SDist    SAzim  RAz  RDip RQual    Tcorr 
ASH    ?    ?    _ P      c 19750119 0806    5.4000 GAU  1.00e+00 -1.00e+00 -1.00e+00 -1.00e+00 >  239.4695    1.0789    1.1648   58.3500   37.9500   -0.2200   17.3478 294.60  -1.0  -1.0  0     0.0000
GBA    ?    ?    _ P      c 19750119 0806   16.0000 GAU  1.00e+00 -1.00e+00 -1.00e+00 -1.00e+00 >  255.6851   -4.5367    0.5364   77.4361   13.6042   -0.6860   18.7190 183.10  -1.0  -1.0  0     0.0000
KOD    ?    ?    _ P      d 19750119 0806   56.6000 GAU  1.00e+00 -1.00e+00 -1.00e+00 -1.00e+00 >  292.1637   -0.4153    1.1956   77.4667   10.2333   -2.3450   22.0855 182.60  -1.0  -1.0  0     0.0000
SHI    ?    ?    e P      _ 19750119 0807    1.0000 GAU  5.00e-01 -1.00e+00 -1.00e+00 -1.00e+00 >  294.8521    1.2963    1.1704   52.5261   29.6445   -1.5390   22.3381 270.07  -1.0  -1.0  0     0.0000
NVS    ?    ?    i P      _ 19750119 0807    0.0000 GAU  2.00e-01 -1.00e+00 -1.00e+00 -1.00e+00 >  299.6620   -4.5136    0.5246   83.2346   54.8404   -0.1500   22.7919   7.11  -1.0  -1.0  0     0.0000
BAK    ?    ?    _ P      _ 19750119 0807   24.0000 GAU  1.00e+00 -1.00e+00 -1.00e+00 -1.00e+00 >  313.8768    5.2716    0.4743   49.9000   40.3833    0.0120   24.2551 297.57  -1.0  -1.0  0     0.0000
BAK    ?    ?    i S      _ 19750119 0811   38.0000 GAU  2.00e-01 -1.00e+00 -1.00e+00 -1.00e+00 >  570.4026    2.7458    0.0000   49.9000   40.3833    0.0120   24.2551 297.57  -1.0  -1.0  0     0.0000
MOY    ?    ?    _ P      d 19750119 0807   30.0000 GAU  1.00e+00 -1.00e+00 -1.00e+00 -1.00e+00 >  324.2333    0.9151    1.1774  100.9931   51.6667   -1.3030   25.3932  33.66  -1.0  -1.0  0     0.0000
ZAK    ?    ?    _ P      d 19750119 0807   31.7000 GAU  1.00e+00 -1.00e+00 -1.00e+00 -1.00e+00 >  327.3252   -0.4768    1.1927  103.2806   50.3819   -1.2000   25.7342  38.06  -1.0  -1.0  0     0.0000
ZAK    ?    ?    e S      _ 19750119 0811   54.0000 GAU  5.00e-01 -1.00e+00 -1.00e+00 -1.00e+00 >  594.0323   -4.8839    0.0000  103.2806   50.3819   -1.2000   25.7342  38.06  -1.0  -1.0  0     0.0000
KER    ?    ?    e P      d 19750119 0807   37.5000 GAU  5.00e-01 -1.00e+00 -1.00e+00 -1.00e+00 >  331.3013    1.3471    1.1648   47.1058   34.3522   -1.3100   26.1737 283.13  -1.0  -1.0  0     0.0000
KER    ?    ?    e S      _ 19750119 0812    8.0000 GAU  5.00e-01 -1.00e+00 -1.00e+00 -1.00e+00 >  600.9704    2.1780    0.0000   47.1058   34.3522   -1.3100   26.1737 283.13  -1.0  -1.0  0     0.0000
MAK    ?    ?    i P      d 19750119 0807   41.0000 GAU  2.00e-01 -1.00e+00 -1.00e+00 -1.00e+00 >  334.5839    1.5645    1.1449   47.5050   42.9610   -0.0420   26.5373 302.60  -1.0  -1.0  0     0.0000
TAB    ?    ?    i P      d 19750119 0807   42.0000 GAU  2.00e-01 -1.00e+00 -1.00e+00 -1.00e+00 >  336.4689    0.6795    1.2310   46.3267   38.0675   -1.4300   26.7465 291.50  -1.0  -1.0  0     0.0000
GRS    ?    ?    _ P      d 19750119 0807   45.0000 GAU  1.00e+00 -1.00e+00 -1.00e+00 -1.00e+00 >  337.3338    2.8146    0.9251   46.3333   39.5000   -1.3990   26.8425 294.67  -1.0  -1.0  0     0.0000
GRS    ?    ?    i S      _ 19750119 0812   23.0000 GAU  2.00e-01 -1.00e+00 -1.00e+00 -1.00e+00 >  611.5175    6.6309    0.0000   46.3333   39.5000   -1.3990   26.8425 294.67  -1.0  -1.0  0     0.0000
KRV    ?    ?    _ P      _ 19750119 0807   40.0000 GAU  1.00e+00 -1.00e+00 -1.00e+00 -1.00e+00 >  338.6150   -3.4666    0.7497   46.3190   40.6470   -0.5320   26.9849 297.18  -1.0  -1.0  0     0.0000
KRV    ?    ?    i S      _ 19750119 0812   20.0000 GAU  2.00e-01 -1.00e+00 -1.00e+00 -1.00e+00 >  613.7626    1.3858    0.0000   46.3190   40.6470   -0.5320   26.9849 297.18  -1.0  -1.0  0     0.0000
IRK    ?    ?    _ P      _ 19750119 0807   46.3000 GAU  1.00e+00 -1.00e+00 -1.00e+00 -1.00e+00 >  341.7007   -0.2523    1.2018  104.2711   52.2431   -0.4670   27.3284  35.50  -1.0  -1.0  0     0.0000
IRK    ?    ?    _ S      _ 19750119 0812   28.3000 GAU  1.00e+00 -1.00e+00 -1.00e+00 -1.00e+00 >  619.1775    4.2709    0.0000  104.2711   52.2431   -0.4670   27.3284  35.50  -1.0  -1.0  0     0.0000
SVE    ?    ?    i P      _ 19750119 0807   47.0000 GAU  2.00e-01 -1.00e+00 -1.00e+00 -1.00e+00 >  342.6151   -0.4667    1.2338   60.6370   56.8270   -0.2750   27.4304 338.68  -1.0  -1.0  0     0.0000
SVE    ?    ?    i S      _ 19750119 0812   28.0000 GAU  2.00e-01 -1.00e+00 -1.00e+00 -1.00e+00 >  620.7842    2.3642    0.0000   60.6370   56.8270   -0.2750   27.4304 338.68  -1.0  -1.0  0     0.0000
ARU    ?    ?    e P      _ 19750119 0807   48.0000 GAU  5.00e-01 -1.00e+00 -1.00e+00 -1.00e+00 >  345.7724   -2.6240    0.9252   58.5625   56.4302   -0.2500   27.7829 336.19  -1.0  -1.0  0     0.0000
ARU    ?    ?    e S      _ 19750119 0812   30.0000 GAU  5.00e-01 -1.00e+00 -1.00e+00 -1.00e+00 >  626.3386   -1.1902    0.0000   58.5625   56.4302   -0.2500   27.7829 336.19  -1.0  -1.0  0     0.0000
TIF    ?    ?    _ P      _ 19750119 0807   57.0000 GAU  1.00e+00 -1.00e+00 -1.00e+00 -1.00e+00 >  350.0947    2.0537    1.0501   44.8000   41.7167   -0.3990   28.2670 299.12  -1.0  -1.0  0     0.0000
BKR    ?    ?    _ P      d 19750119 0808    5.0000 GAU  1.00e+00 -1.00e+00 -1.00e+00 -1.00e+00 >  358.5411    1.6073    1.1103   43.5167   41.7333   -1.8300   29.2180 298.88  -1.0  -1.0  0     0.0000
BKR    ?    ?    i S      _ 19750119 0813    1.0000 GAU  2.00e-01 -1.00e+00 -1.00e+00 -1.00e+00 >  648.9198    7.2286    0.0000   43.5167   41.7333   -1.8300   29.2180 298.88  -1.0  -1.0  0     0.0000
PYA    ?    ?    i P      d 19750119 0808   10.3000 GAU  2.00e-01 -1.00e+00 -1.00e+00 -1.00e+00 >  364.7202    0.7282    1.2280   43.0583   44.0333   -0.5440   29.9159 303.38  -1.0  -1.0  0     0.0000
SOC    ?    ?    _ P      d 19750119 0808   29.0000 GAU  1.00e+00 -1.00e+00 -1.00e+00 -1.00e+00 >  385.0775   -0.9291    1.1613   39.7167   43.5833   -0.1920   32.2259 301.78  -1.0  -1.0  0     0.0000
SNG    ?    ?    _ P      d 19750119 0808   31.0000 GAU  1.00e+00 -1.00e+00 -1.00e+00 -1.00e+00 >  387.4128   -1.2644    1.1273  100.6165    7.1770   -0.0040   32.4923 135.84  -1.0  -1.0  0     0.0000
SNG    ?    ?    _ S      _ 19750119 0813    0.0000 GAU  1.00e+00 -1.00e+00 -1.00e+00 -1.00e+00 >  700.1593  -45.0109    0.0000  100.6165    7.1770   -0.0040   32.4923 135.84  -1.0  -1.0  0     0.0000
HKC    ?    ?    e P      c 19750119 0808   38.0000 GAU  5.00e-01 -1.00e+00 -1.00e+00 -1.00e+00 >  392.6936    0.4548    1.2325  114.1719   22.3036   -0.0270   33.0960  98.49  -1.0  -1.0  0     0.0000
HKC    ?    ?    _ S      _ 19750119 0813   58.0000 GAU  1.00e+00 -1.00e+00 -1.00e+00 -1.00e+00 >  709.5479    3.6005    0.0000  114.1719   22.3036   -0.0270   33.0960  98.49  -1.0  -1.0  0     0.0000
KSA    ?    ?    _ P      _ 19750119 0809    1.0000 GAU  1.00e+00 -1.00e+00 -1.00e+00 -1.00e+00 >  413.1099    3.0385    0.8846   35.8900   33.8233   -0.9200   35.4529 284.33  -1.0  -1.0  0     0.0000
KSA    ?    ?    _ S      _ 19750119 0813   53.0000 GAU  1.00e+00 -1.00e+00 -1.00e+00 -1.00e+00 >  745.9339  -37.7855    0.0000   35.8900   33.8233   -0.9200   35.4529 284.33  -1.0  -1.0  0     0.0000
SIM    ?    ?    _ P      d 19750119 0809    7.0000 GAU  1.00e+00 -1.00e+00 -1.00e+00 -1.00e+00 >  420.8514    1.2970    1.1447   34.1160   44.9490   -0.2750   36.3569 303.44  -1.0  -1.0  0     0.0000
SIM    ?    ?    i S      _ 19750119 0814   46.0000 GAU  2.00e-01 -1.00e+00 -1.00e+00 -1.00e+00 >  759.7761    1.3723    0.0000   34.1160   44.9490   -0.2750   36.3569 303.44  -1.0  -1.0  0     0.0000
TUP    ?    ?    _ P      _ 19750119 0809    8.0000 GAU  1.00e+00 -1.00e+00 -1.00e+00 -1.00e+00 >  422.8258    0.3226    1.2046  119.9539   54.4250   -0.6500   36.5884  40.29  -1.0  -1.0  0     0.0000
MOS    ?    ?    e P      d 19750119 0809    7.0000 GAU  5.00e-01 -1.00e+00 -1.00e+00 -1.00e+00 >  423.8637   -1.7153    1.0900   37.6250   55.7383   -0.1210   36.7102 321.99  -1.0  -1.0  0     0.0000
MOS    ?    ?    e S      _ 19750119 0814   48.0000 GAU  5.00e-01 -1.00e+00 -1.00e+00 -1.00e+00 >  765.1685   -2.0201    0.0000   37.6250   55.7383   -0.1210   36.7102 321.99  -1.0  -1.0  0     0.0000
OBN    ?    ?    _ P      d 19750119 0809   12.0000 GAU  1.00e+00 -1.00e+00 -1.00e+00 -1.00e+00 >  426.6690    0.4794    1.2004   36.5687   55.1138   -0.1300   37.0401 320.66  -1.0  -1.0  0     0.0000
OBN    ?    ?    i S      _ 19750119 0814   54.0000 GAU  2.00e-01 -1.00e+00 -1.00e+00 -1.00e+00 >  770.1941   -1.0457    0.0000   36.5687   55.1138   -0.1300   37.0401 320.66  -1.0  -1.0  0     0.0000
MGN    ?    ?    i P      _ 19750119 0809   17.2000 GAU  2.00e-01 -1.00e+00 -1.00e+00 -1.00e+00 >  432.0769    0.2715    1.2469   32.1812   40.9247   -0.7200   37.6784 296.70  -1.0  -1.0  0     0.0000
TCU    ?    ?    _ P      _ 19750119 0809   17.8000 GAU  1.00e+00 -1.00e+00 -1.00e+00 -1.00e+00 >  433.3690   -0.4206    1.1954  120.6759   24.1475   -0.0840   37.8313  91.43  -1.0  -1.0  0     0.0000
TCU    ?    ?    _ S      _ 19750119 0815   13.3000 GAU  1.00e+00 -1.00e+00 -1.00e+00 -1.00e+00 >  782.2104    6.2380    0.0000  120.6759   24.1475   -0.0840   37.8313  91.43  -1.0  -1.0  0     0.0000
ANP    ?    ?    _ P      _ 19750119 0809   23.5000 GAU  1.00e+00 -1.00e+00 -1.00e+00 -1.00e+00 >  436.1679    2.4805    0.9828  121.5202   25.1865   -0.8258   38.1633  89.40  -1.0  -1.0  0     0.0000
ANP    ?    ?    _ S      _ 19750119 0815   17.0000 GAU  1.00e+00 -1.00e+00 -1.00e+00 -1.00e+00 >  787.2356    4.9128    0.0000  121.5202   25.1865   -0.8258   38.1633  89.40  -1.0  -1.0  0     0.0000
HWA    ?    ?    _ P      _ 19750119 0809   28.5000 GAU  1.00e+00 -1.00e+00 -1.00e+00 -1.00e+00 >  440.5195    3.1289    0.8679  121.6050   23.9770   -0.0161   38.6811  91.17  -1.0  -1.0  0     0.0000
HWA    ?    ?    i S      _ 19750119 0815   27.0000 GAU  2.00e-01 -1.00e+00 -1.00e+00 -1.00e+00 >  795.0530    7.0954    0.0000  121.6050   23.9770   -0.0161   38.6811  91.17  -1.0  -1.0  0     0.0000
HEN    ?    ?    e P      _ 19750119 0809   33.0000 GAU  5.00e-01 -1.00e+00 -1.00e+00 -1.00e+00 >  440.9758    7.1726    0.2019  120.7381   22.0055   -0.0221   38.7355  94.57  -1.0  -1.0  0     0.0000
TTN    ?    ?    e P      _ 19750119 0809   30.0000 GAU  5.00e-01 -1.00e+00 -1.00e+00 -1.00e+00 >  441.2891    3.8593    0.7255  121.1465   22.7540   -0.0090   38.7728  93.23  -1.0  -1.0  0     0.0000
TTN    ?    ?    _ S      _ 19750119 0815   35.0000 GAU  1.00e+00 -1.00e+00 -1.00e+00 -1.00e+00 >  796.4365   13.7119    0.0000  121.1465   22.7540   -0.0090   38.7728  93.23  -1.0  -1.0  0     0.0000
BCK    ?    ?    i P      _ 19750119 0809   29.0000 GAU  2.00e-01 -1.00e+00 -1.00e+00 -1.00e+00 >  444.7565   -0.6081    1.2252   30.5890   37.4608   -0.8600   39.1872 291.31  -1.0  -1.0  0     0.0000
BCK    ?    ?    e S      _ 19750119 0815   45.0000 GAU  5.00e-01 -1.00e+00 -1.00e+00 -1.00e+00 >  802.6735   17.4749    0.0000   30.5890   37.4608   -0.8600   39.1872 291.31  -1.0  -1.0  0     0.0000
ISK    ?    ?    i P      _ 19750119 0809   35.7000 GAU  2.00e-01 -1.00e+00 -1.00e+00 -1.00e+00 >  451.7290   -0.8806    1.2032   29.0592   41.0656   -0.1320   40.0248 297.11  -1.0  -1.0  0     0.0000
IST    ?    ?    _ P      _ 19750119 0809   36.0000 GAU  1.00e+00 -1.00e+00 -1.00e+00 -1.00e+00 >  452.1355   -0.9871    1.1560   28.9958   41.0456   -0.0500   40.0738 297.09  -1.0  -1.0  0     0.0000
KIS    ?    ?    _ P      c 19750119 0809   38.0000 GAU  1.00e+00 -1.00e+00 -1.00e+00 -1.00e+00 >  452.9506    0.1978    1.2065   28.8180   46.9980   -0.1850   40.1721 306.33  -1.0  -1.0  0     0.0000
KIS    ?    ?    i S      _ 19750119 0815   49.0000 GAU  2.00e-01 -1.00e+00 -1.00e+00 -1.00e+00 >  817.4353    6.7131    0.0000   28.8180   46.9980   -0.1850   40.1721 306.33  -1.0  -1.0  0     0.0000
DRB    ?    ?    e P      _ 19750119 0809   38.0000 GAU  5.00e-01 -1.00e+00 -1.00e+00 -1.00e+00 >  455.3908   -2.2424    0.9993   28.6374   39.5811   -0.6200   40.4669 294.86  -1.0  -1.0  0     0.0000
DMK    ?    ?    e P      _ 19750119 0809   42.9000 GAU  5.00e-01 -1.00e+00 -1.00e+00 -1.00e+00 >  459.3825   -1.3341    1.1445   27.7572   41.8216   -0.3150   40.9506 298.37  -1.0  -1.0  0     0.0000
EDC    ?    ?    e P      _ 19750119 0809   44.2000 GAU  5.00e-01 -1.00e+00 -1.00e+00 -1.00e+00 >  459.6616   -0.3132    1.2316   27.8634   40.3468   -0.2700   40.9845 296.12  -1.0  -1.0  0     0.0000
IAS    ?    ?    _ P      _ 19750119 0809   48.0000 GAU  1.00e+00 -1.00e+00 -1.00e+00 -1.00e+00 >  460.0845    3.0639    0.8799   27.5617   47.1933   -0.1600   41.0359 306.56  -1.0  -1.0  0     0.0000
YER    ?    ?    i P      _ 19750119 0809   42.7000 GAU  2.00e-01 -1.00e+00 -1.00e+00 -1.00e+00 >  460.1937   -2.3453    0.9835   28.2828   37.1347   -0.7300   41.0492 291.20  -1.0  -1.0  0     0.0000
YER    ?    ?    _ S      _ 19750119 0815   51.0000 GAU  1.00e+00 -1.00e+00 -1.00e+00 -1.00e+00 >  830.5041   -4.3557    0.0000   28.2828   37.1347   -0.7300   41.0492 291.20  -1.0  -1.0  0     0.0000
BAG    ?    ?    _ P      d 19750119 0809   44.0000 GAU  1.00e+00 -1.00e+00 -1.00e+00 -1.00e+00 >  461.4595   -2.3111    0.9727  120.5797   16.4108   -1.5070   41.2031 102.39  -1.0  -1.0  0     0.0000
FOC    ?    ?    _ P      _ 19750119 0809   51.0000 GAU  1.00e+00 -1.00e+00 -1.00e+00 -1.00e+00 >  461.9164    4.2320    0.6594   27.1833   45.6950   -0.0610   41.2588 304.28  -1.0  -1.0  0     0.0000
BAC    ?    ?    e P      _ 19750119 0809   48.0000 GAU  5.00e-01 -1.00e+00 -1.00e+00 -1.00e+00 >  463.6325   -0.4841    1.2237   26.9000   46.5667   -0.1670   41.4679 305.59  -1.0  -1.0  0     0.0000
MNK    ?    ?    i P      _ 19750119 0809   50.0000 GAU  2.00e-01 -1.00e+00 -1.00e+00 -1.00e+00 >  465.6935   -0.5451    1.2293   27.8333   54.5000   -0.1980   41.7195 317.58  -1.0  -1.0  0     0.0000
MNK    ?    ?    i S      _ 19750119 0816    7.0000 GAU  2.00e-01 -1.00e+00 -1.00e+00 -1.00e+00 >  840.4449    1.7035    0.0000   27.8333   54.5000   -0.1980   41.7195 317.58  -1.0  -1.0  0     0.0000
PUL    ?    ?    _ P      d 19750119 0809   51.0000 GAU  1.00e+00 -1.00e+00 -1.00e+00 -1.00e+00 >  466.2129   -0.0645    1.2059   30.3167   59.7667   -0.0650   41.7831 325.75  -1.0  -1.0  0     0.0000
PUL    ?    ?    i S      _ 19750119 0816    8.0000 GAU  2.00e-01 -1.00e+00 -1.00e+00 -1.00e+00 >  841.3845    1.7639    0.0000   30.3167   59.7667   -0.0650   41.7831 325.75  -1.0  -1.0  0     0.0000
BUC    ?    ?    e P      _ 19750119 0809   51.0000 GAU  5.00e-01 -1.00e+00 -1.00e+00 -1.00e+00 >  468.3191   -2.1707    1.0125   26.0967   44.4136   -0.0620   42.0410 302.36  -1.0  -1.0  0     0.0000
MLR    ?    ?    _ P      _ 19750119 0809   53.0000 GAU  1.00e+00 -1.00e+00 -1.00e+00 -1.00e+00 >  469.0096   -0.8612    0.0000   25.9450   45.4909   -1.3600   42.1256 303.97  -1.0  -1.0  0     0.0000
MAN    ?    ?    _ P      _ 19750119 0809   57.6000 GAU  1.00e+00 -1.00e+00 -1.00e+00 -1.00e+00 >  472.2580    0.4904    0.0000  121.0780   14.6600   -0.0700   42.5247 104.26  -1.0  -1.0  0     0.0000
QCP    ?    ?    _ P      _ 19750119 0809   58.0000 GAU  1.00e+00 -1.00e+00 -1.00e+00 -1.00e+00 >  472.3514    0.7970    0.0000  121.0771   14.6370   -0.0580   42.5362 104.29  -1.0  -1.0  0     0.0000
DIM    ?    ?    i P      d 19750119 0809   58.5000 GAU  2.00e-01 -1.00e+00 -1.00e+00 -1.00e+00 >  472.7403    0.9081    0.0000   25.5333   42.0500   -0.1600   42.5841 298.89  -1.0  -1.0  0     0.0000
KDZ    ?    ?    i P      d 19750119 0810    1.5000 GAU  2.00e-01 -1.00e+00 -1.00e+00 -1.00e+00 >  473.7232    2.9252    0.0000   25.4167   41.6500   -0.4090   42.7051 298.31  -1.0  -1.0  0     0.0000
CMP    ?    ?    e P      _ 19750119 0810    1.0000 GAU  5.00e-01 -1.00e+00 -1.00e+00 -1.00e+00 >  474.2220    1.9264    0.0000   25.0383   45.2683   -0.5980   42.7666 303.66  -1.0  -1.0  0     0.0000
VLA    ?    ?    e P      _ 19750119 0809   59.0000 GAU  5.00e-01 -1.00e+00 -1.00e+00 -1.00e+00 >  475.1278   -0.9794    0.0000  131.8933   43.1200   -0.0730   42.8784  59.49  -1.0  -1.0  0     0.0000
VLA    ?    ?    i S      _ 19750119 0816   20.0000 GAU  2.00e-01 -1.00e+00 -1.00e+00 -1.00e+00 >  857.5266   -2.3782    0.0000  131.8933   43.1200   -0.0730   42.8784  59.49  -1.0  -1.0  0     0.0000
NGS    ?    ?    _ P      c 19750119 0810    2.2000 GAU  1.00e+00 -1.00e+00 -1.00e+00 -1.00e+00 >  475.3860    1.9624    0.0000  129.8700   32.7317   -0.0270   42.9103  74.96  -1.0  -1.0  0     0.0000
NGS    ?    ?    e S      _ 19750119 0816   23.6000 GAU  5.00e-01 -1.00e+00 -1.00e+00 -1.00e+00 >  857.9945    0.7539    0.0000  129.8700   32.7317   -0.0270   42.9103  74.96  -1.0  -1.0  0     0.0000
NAH    ?    ?    _ P      _ 19750119 0810    2.0000 GAU  1.00e+00 -1.00e+00 -1.00e+00 -1.00e+00 >  476.1453    1.0031    0.0000  127.6833   26.2167   -0.0110   43.0041  84.93  -1.0  -1.0  0     0.0000
AAE    ?    ?    e P      _ 19750119 0810    6.0000 GAU  5.00e-01 -1.00e+00 -1.00e+00 -1.00e+00 >  479.5868    1.5616    0.0000   38.7656    9.0292   -2.4420   43.4302 246.56  -1.0  -1.0  0     0.0000
LVV    ?    ?    _ P      c 19750119 0810    5.0000 GAU  1.00e+00 -1.00e+00 -1.00e+00 -1.00e+00 >  480.0607    0.0877    0.0000   24.0310   49.8190   -0.3200   43.4890 310.31  -1.0  -1.0  0     0.0000
LVV    ?    ?    i S      _ 19750119 0816   31.0000 GAU  2.00e-01 -1.00e+00 -1.00e+00 -1.00e+00 >  866.4730   -0.3246    0.0000   24.0310   49.8190   -0.3200   43.4890 310.31  -1.0  -1.0  0     0.0000
APA    ?    ?    e P      _ 19750119 0810    8.0000 GAU  5.00e-01 -1.00e+00 -1.00e+00 -1.00e+00 >  482.5569    0.5915    0.0000   33.4050   67.5689   -0.1820   43.7992 337.03  -1.0  -1.0  0     0.0000
APA    ?    ?    i S      _ 19750119 0816   39.0000 GAU  2.00e-01 -1.00e+00 -1.00e+00 -1.00e+00 >  871.0053    3.1431    0.0000   33.4050   67.5689   -0.1820   43.7992 337.03  -1.0  -1.0  0     0.0000
YAK    ?    ?    _ P      d 19750119 0810    4.0000 GAU  1.00e+00 -1.00e+00 -1.00e+00 -1.00e+00 >  483.5883   -4.4399    0.0000  129.6811   62.0311   -0.0910   43.9277  31.80  -1.0  -1.0  0     0.0000
YAK    ?    ?    _ S      _ 19750119 0816   42.0000 GAU  1.00e+00 -1.00e+00 -1.00e+00 -1.00e+00 >  872.8790    4.2694    0.0000  129.6811   62.0311   -0.0910   43.9277  31.80  -1.0  -1.0  0     0.0000
