NLLOC "./loc/global.20051008.035053.grid0" "LOCATED" "Location completed."
SIGNATURE "Vipin Maurya (GPT, IIT Roorkee)   obs:./obs/20051008.0350_KASHMIR.isf   NLLoc:v7.00.00(27Oct2017)  run:29Mar2022 17h10m00"
COMMENT "ISC_IMS1.0 events"
GRID  361 181 601  -180 -90 0  1 1 1 PROB_DENSITY
SEARCH OCTREE nInitial 17628 nEvaluated 50012 smallestNodeSide 2.004716/1.628832/0.391276 oct_tree_integral 2.512505e+04 scatter_volume 2.512505e+04
HYPOCENTER  x 73.747 y 34.5337 z 0.195638  OT 38.0736  ix -1 iy -1 iz -1 MAXIMUM_LIKELIHOOD
GEOGRAPHIC  OT 2005 10 08  03 50 38.073620  Lat 34.533691 Long 73.746995 Depth 0.195638
QUALITY  Pmax 4.67767e+123 MFmin 20.1439 MFmax 20.2531 RMS 1.45543 Nphs 50 Gap 130.07 Dist 14.2185 Mamp -9.90 0 Mdur -9.90 0
VPVSRATIO  VpVsRatio 1.83856  Npair 120  Diff 461.3
STATISTICS  ExpectX 73.7315 Y 34.5482 Z 53.4398  CovXX 34.5091 XY -8.53446 XZ -40.2058 YY 122.842 YZ 33.7002 ZZ 1915.22 EllAz1  84.9973 Dip1  1.1296 Len1  10.7875 Az2  175.021 Dip2  1.18462 Len2  20.8276 Len3  8.225581e+01
STAT_GEOG  ExpectLat 34.548235 Long 73.731454 Depth 53.439836
TRANSFORM  GLOBAL
QML_OriginQuality  assocPhCt 1998  usedPhCt 50  assocStaCt -1  usedStaCt 50  depthPhCt -1  stdErr 1.45543  azGap 130.07  secAzGap 136.076  gtLevel -  minDist 1581.02 maxDist 3073.72 medDist 2798.32
QML_OriginUncertainty  horUnc -1  minHorUnc 8.80294  maxHorUnc 16.8646  azMaxHorUnc 174.532
QML_ConfidenceEllipsoid  semiMajorAxisLength 82.2558  semiMinorAxisLength 10.7875  semiIntermediateAxisLength 20.8276  majorAxisPlunge -88.363  majorAxisAzimuth 131.371  majorAxisRotation 223.685
FOCALMECH  Hyp  34.533691 73.746995 0.195638 Mech  0 0 0 mf  0 nObs 0
PHASE ID Ins Cmp On Pha  FM Date     HrMn   Sec     Err  ErrMag    Coda      Amp       Per  >   TTpred    Res       Weight    StaLoc(X  Y         Z)        SDist    SAzim  RAz  RDip RQual    Tcorr 
WMQ    ?    ?    _ P      _ 20051008 0354   11.3000 GAU  1.00e+00 -1.00e+00 -1.00e+00 -1.00e+00 >  202.5495   10.6769    0.0085   87.6950   43.8211   -0.8970   14.2185  45.08  -1.0  -1.0  0     0.0000
WMQ    ?    ?    _ S      _ 20051008 0356   58.7000 GAU  1.00e+00 -1.00e+00 -1.00e+00 -1.00e+00 >  360.9971   19.6293    0.0000   87.6950   43.8211   -0.8970   14.2185  45.08  -1.0  -1.0  0     0.0000
KURK   ?    ?    _ S      c 20051008 0357   44.1010 GAU  1.00e+00 -1.00e+00 -1.00e+00 -1.00e+00 >  418.0921    7.9353    0.0000   78.6202   50.7154   -0.1840   16.5649  10.87  -1.0  -1.0  0     0.0000
VOSK   ?    ?    _ S      c 20051008 0358   45.5640 GAU  1.00e+00 -1.00e+00 -1.00e+00 -1.00e+00 >  460.0436   27.4468    0.0000   70.9797   52.7233   -0.4500   18.2961 354.66  -1.0  -1.0  0     0.0000
BRVK   ?    ?    e P      c 20051008 0354   55.8700 GAU  5.00e-01 -1.00e+00 -1.00e+00 -1.00e+00 >  259.6873   -1.8909    0.9991   70.2828   53.0581   -0.3150   18.6869 353.49  -1.0  -1.0  0     0.0000
CHKZ   ?    ?    _ P      c 20051008 0355    3.1910 GAU  1.00e+00 -1.00e+00 -1.00e+00 -1.00e+00 >  266.0804   -0.9631    1.0893   70.6153   53.6761   -0.1230   19.2693 354.37  -1.0  -1.0  0     0.0000
CHKZ   ?    ?    _ S      c 20051008 0358   41.9510 GAU  1.00e+00 -1.00e+00 -1.00e+00 -1.00e+00 >  483.5636    0.3138    0.0000   70.6153   53.6761   -0.1230   19.2693 354.37  -1.0  -1.0  0     0.0000
AKTK   ?    ?    _ P      c 20051008 0355    6.9700 GAU  1.00e+00 -1.00e+00 -1.00e+00 -1.00e+00 >  269.6483   -0.7519    1.1049   58.0167   50.4347   -0.3600   19.5953 329.01  -1.0  -1.0  0     0.0000
AKTK   ?    ?    _ S      _ 20051008 0358   38.5900 GAU  1.00e+00 -1.00e+00 -1.00e+00 -1.00e+00 >  491.4301  -10.9137    0.0000   58.0167   50.4347   -0.3600   19.5953 329.01  -1.0  -1.0  0     0.0000
ZAL    ?    ?    _ P      _ 20051008 0355   20.9750 GAU  1.00e+00 -1.00e+00 -1.00e+00 -1.00e+00 >  283.8257   -0.9243    1.0924   84.7981   53.9367   -0.2130   20.8987  18.44  -1.0  -1.0  0     0.0000
GTA    ?    ?    i P      c 20051008 0355   27.8000 GAU  2.00e-01 -1.00e+00 -1.00e+00 -1.00e+00 >  288.2525    1.4739    1.0530   99.8144   39.4106   -1.3410   21.3087  69.11  -1.0  -1.0  0     0.0000
NVS    ?    ?    i P      c 20051008 0355   24.6000 GAU  2.00e-01 -1.00e+00 -1.00e+00 -1.00e+00 >  288.7216   -2.1952    0.9506   83.2346   54.8404   -0.1500   21.3523  15.11  -1.0  -1.0  0     0.0000
NVS    ?    ?    i S      _ 20051008 0359   20.4000 GAU  2.00e-01 -1.00e+00 -1.00e+00 -1.00e+00 >  526.5561   -4.2297    0.0000   83.2346   54.8404   -0.1500   21.3523  15.11  -1.0  -1.0  0     0.0000
MAK    ?    ?    i P      c 20051008 0355   32.7000 GAU  2.00e-01 -1.00e+00 -1.00e+00 -1.00e+00 >  295.8633   -1.2369    1.1004   47.5050   42.9610   -0.0420   22.0177 300.33  -1.0  -1.0  0     0.0000
UMR    ?    ?    e P      _ 20051008 0355   40.4400 GAU  5.00e-01 -1.00e+00 -1.00e+00 -1.00e+00 >  301.5713    0.7951    1.1255   47.7158   29.5519   -0.0820   22.5531 264.49  -1.0  -1.0  0     0.0000
QRN    ?    ?    e P      _ 20051008 0355   41.3700 GAU  5.00e-01 -1.00e+00 -1.00e+00 -1.00e+00 >  302.8113    0.4850    1.1478   47.9177   28.7444   -0.1350   22.6699 262.36  -1.0  -1.0  0     0.0000
KBD    ?    ?    e P      _ 20051008 0355   41.6100 GAU  5.00e-01 -1.00e+00 -1.00e+00 -1.00e+00 >  303.1291    0.4073    1.1518   47.6933   29.1756   -0.1240   22.6998 263.59  -1.0  -1.0  0     0.0000
MIB    ?    ?    e P      _ 20051008 0355   42.2000 GAU  5.00e-01 -1.00e+00 -1.00e+00 -1.00e+00 >  303.9783    0.1481    1.1609   47.3388   29.8032   -0.1250   22.7799 265.39  -1.0  -1.0  0     0.0000
RDF    ?    ?    e P      _ 20051008 0355   43.9400 GAU  5.00e-01 -1.00e+00 -1.00e+00 -1.00e+00 >  305.3053    0.5611    1.1432   47.5497   28.9259   -0.1800   22.9052 263.10  -1.0  -1.0  0     0.0000
NAY    ?    ?    e P      _ 20051008 0355   45.6400 GAU  5.00e-01 -1.00e+00 -1.00e+00 -1.00e+00 >  306.7731    0.7933    1.1257   47.2421   29.2489   -0.2180   23.0440 264.12  -1.0  -1.0  0     0.0000
GNI    ?    ?    e P      _ 20051008 0355   51.4500 GAU  5.00e-01 -1.00e+00 -1.00e+00 -1.00e+00 >  312.7982    0.5782    1.1421   44.7414   40.1495   -1.5830   23.6202 292.33  -1.0  -1.0  0     0.0000
GNI    ?    ?    _ S      _ 20051008 0400    8.4230 GAU  1.00e+00 -1.00e+00 -1.00e+00 -1.00e+00 >  567.9257    2.4237    0.0000   44.7414   40.1495   -1.5830   23.6202 292.33  -1.0  -1.0  0     0.0000
MTA    ?    ?    _ P      _ 20051008 0355   50.8960 GAU  1.00e+00 -1.00e+00 -1.00e+00 -1.00e+00 >  314.0541   -1.2317    1.0638   44.7833   41.7000   -0.5100   23.7575 296.17  -1.0  -1.0  0     0.0000
TI2    ?    ?    i P      c 20051008 0355   51.2000 GAU  2.00e-01 -1.00e+00 -1.00e+00 -1.00e+00 >  314.3218   -1.1954    1.1053   44.7500   41.7333   -0.5100   23.7868 296.24  -1.0  -1.0  0     0.0000
SVE    ?    ?    i P      c 20051008 0355   54.2000 GAU  2.00e-01 -1.00e+00 -1.00e+00 -1.00e+00 >  316.3221   -0.1957    1.1724   60.6370   56.8270   -0.2750   24.0056 342.24  -1.0  -1.0  0     0.0000
ARU    ?    ?    e P      c 20051008 0355   55.7400 GAU  5.00e-01 -1.00e+00 -1.00e+00 -1.00e+00 >  318.3076   -0.6412    1.1452   58.5625   56.4302   -0.2500   24.2230 339.33  -1.0  -1.0  0     0.0000
ARU    ?    ?    e S      _ 20051008 0400   15.3000 GAU  5.00e-01 -1.00e+00 -1.00e+00 -1.00e+00 >  577.6841   -0.4578    0.0000   58.5625   56.4302   -0.2500   24.2230 339.33  -1.0  -1.0  0     0.0000
LZH    ?    ?    _ P      c 20051008 0356    0.4000 GAU  1.00e+00 -1.00e+00 -1.00e+00 -1.00e+00 >  320.9438    1.3826    1.0323  103.8444   36.0867   -1.5600   24.5119  77.63  -1.0  -1.0  0     0.0000
ZEI    ?    ?    e P      _ 20051008 0355   56.2000 GAU  5.00e-01 -1.00e+00 -1.00e+00 -1.00e+00 >  321.4613   -3.3350    0.7150   43.8984   42.7700   -2.1000   24.5686 298.51  -1.0  -1.0  0     0.0000
VANB   ?    ?    e P      _ 20051008 0356    0.6800 GAU  5.00e-01 -1.00e+00 -1.00e+00 -1.00e+00 >  321.7848    0.8216    1.1232   43.3890   38.5950   -1.2270   24.6041 288.42  -1.0  -1.0  0     0.0000
AKH    ?    ?    _ P      _ 20051008 0356    1.6260 GAU  1.00e+00 -1.00e+00 -1.00e+00 -1.00e+00 >  322.5607    0.9917    1.0760   43.4800   41.4100   -1.7200   24.6893 295.18  -1.0  -1.0  0     0.0000
ONI    ?    ?    _ P      _ 20051008 0356    3.3860 GAU  1.00e+00 -1.00e+00 -1.00e+00 -1.00e+00 >  324.1517    1.1607    1.0586   43.4500   42.5800   -0.8100   24.8639 297.94  -1.0  -1.0  0     0.0000
ONI    ?    ?    _ S      _ 20051008 0400   30.0770 GAU  1.00e+00 -1.00e+00 -1.00e+00 -1.00e+00 >  587.9988    4.0046    0.0000   43.4500   42.5800   -0.8100   24.8639 297.94  -1.0  -1.0  0     0.0000
KARS   ?    ?    e P      _ 20051008 0356    4.6800 GAU  5.00e-01 -1.00e+00 -1.00e+00 -1.00e+00 >  324.6553    1.9511    0.9680   43.0788   40.6276   -1.4500   24.9192 293.25  -1.0  -1.0  0     0.0000
CD2    ?    ?    i P      c 20051008 0356    7.0000 GAU  2.00e-01 -1.00e+00 -1.00e+00 -1.00e+00 >  329.1404   -0.2141    1.1721  103.7578   30.9100   -0.6280   25.4125  89.73  -1.0  -1.0  0     0.0000
CD2    ?    ?    _ S      _ 20051008 0400   33.1000 GAU  1.00e+00 -1.00e+00 -1.00e+00 -1.00e+00 >  596.7683   -1.7419    0.0000  103.7578   30.9100   -0.6280   25.4125  89.73  -1.0  -1.0  0     0.0000
KIV    ?    ?    e P      c 20051008 0356    7.9200 GAU  5.00e-01 -1.00e+00 -1.00e+00 -1.00e+00 >  331.2635   -1.4171    1.0697   42.6863   43.9553   -1.0540   25.6464 300.89  -1.0  -1.0  0     0.0000
MOY    ?    ?    e P      _ 20051008 0356   14.1000 GAU  5.00e-01 -1.00e+00 -1.00e+00 -1.00e+00 >  334.3031    1.7232    1.0070  100.9931   51.6667   -1.3030   25.9818  40.40  -1.0  -1.0  0     0.0000
EZM    ?    ?    e P      _ 20051008 0356   16.4600 GAU  5.00e-01 -1.00e+00 -1.00e+00 -1.00e+00 >  337.1246    1.2618    1.0749   41.2289   39.9004   -1.8600   26.2937 291.41  -1.0  -1.0  0     0.0000
ZAK    ?    ?    i P      d 20051008 0356   19.4000 GAU  2.00e-01 -1.00e+00 -1.00e+00 -1.00e+00 >  340.3762    0.9501    1.1200  103.2806   50.3819   -1.2000   26.6537  44.48  -1.0  -1.0  0     0.0000
KMI    ?    ?    _ P      _ 20051008 0356   20.1000 GAU  1.00e+00 -1.00e+00 -1.00e+00 -1.00e+00 >  341.1390    0.8873    1.0856  102.7400   25.1233   -1.9400   26.7383 102.74  -1.0  -1.0  0     0.0000
KMI    ?    ?    _ S      _ 20051008 0400   58.8000 GAU  1.00e+00 -1.00e+00 -1.00e+00 -1.00e+00 >  617.7396    2.9868    0.0000  102.7400   25.1233   -1.9400   26.7383 102.74  -1.0  -1.0  0     0.0000
BINT   ?    ?    e P      _ 20051008 0356   21.2000 GAU  5.00e-01 -1.00e+00 -1.00e+00 -1.00e+00 >  342.2666    0.8598    1.1197   40.4890   38.8758   -1.3420   26.8634 289.12  -1.0  -1.0  0     0.0000
MZLS   ?    ?    _ P      _ 20051008 0356   19.0110 GAU  1.00e+00 -1.00e+00 -1.00e+00 -1.00e+00 >  342.5868   -1.6494    1.0131   45.2071   24.0275   -0.8800   26.8990 254.69  -1.0  -1.0  0     0.0000
DIY    ?    ?    e P      _ 20051008 0356   24.5200 GAU  5.00e-01 -1.00e+00 -1.00e+00 -1.00e+00 >  344.4540    1.9924    0.9606   40.2263   37.8958   -0.9000   27.1064 286.98  -1.0  -1.0  0     0.0000
CHTO   ?    ?    e P      _ 20051008 0356   22.6900 GAU  5.00e-01 -1.00e+00 -1.00e+00 -1.00e+00 >  346.4354   -1.8190    1.0108   98.9438   18.8138   -0.3160   27.3268 118.62  -1.0  -1.0  0     0.0000
CHG    ?    ?    _ P      d 20051008 0356   23.3000 GAU  1.00e+00 -1.00e+00 -1.00e+00 -1.00e+00 >  346.4354   -1.2090    1.0662   98.9438   18.8138   -0.4160   27.3268 118.62  -1.0  -1.0  0     0.0000
SOKR   ?    ?    e P      _ 20051008 0356   28.9000 GAU  5.00e-01 -1.00e+00 -1.00e+00 -1.00e+00 >  346.9874    3.8389    0.5776   56.7919   59.5692    0.0850   27.3883 341.27  -1.0  -1.0  0     0.0000
SOKR   ?    ?    i S      _ 20051008 0400   57.6000 GAU  2.00e-01 -1.00e+00 -1.00e+00 -1.00e+00 >  627.9870   -8.4606    0.0000   56.7919   59.5692    0.0850   27.3883 341.27  -1.0  -1.0  0     0.0000
GUMT   ?    ?    e P      _ 20051008 0356   29.4200 GAU  5.00e-01 -1.00e+00 -1.00e+00 -1.00e+00 >  349.2688    2.0776    0.9450   39.4800   40.4600   -1.3260   27.6426 292.58  -1.0  -1.0  0     0.0000
SONM   ?    ?    _ P      _ 20051008 0356   27.8400 GAU  1.00e+00 -1.00e+00 -1.00e+00 -1.00e+00 >  349.3879    0.3785    1.1186  106.4167   47.8083    0.0000   27.6559  51.36  -1.0  -1.0  0     0.0000
SOC    ?    ?    i P      _ 20051008 0356   26.8000 GAU  2.00e-01 -1.00e+00 -1.00e+00 -1.00e+00 >  349.8238   -1.0974    1.1162   39.7167   43.5833   -0.1920   27.7045 299.31  -1.0  -1.0  0     0.0000
SOC    ?    ?    i S      _ 20051008 0401    7.9000 GAU  2.00e-01 -1.00e+00 -1.00e+00 -1.00e+00 >  632.9705   -3.1441    0.0000   39.7167   43.5833   -0.1920   27.7045 299.31  -1.0  -1.0  0     0.0000
IRK    ?    ?    i P      c 20051008 0356   31.8000 GAU  2.00e-01 -1.00e+00 -1.00e+00 -1.00e+00 >  352.7312    0.9952    1.1152  104.2711   52.2431   -0.4670   28.0294  41.44  -1.0  -1.0  0     0.0000
HILS   ?    ?    _ P      _ 20051008 0356   31.2710 GAU  1.00e+00 -1.00e+00 -1.00e+00 -1.00e+00 >  354.1784   -0.9810    1.0878   41.7917   27.3835   -1.0800   28.1913 264.15  -1.0  -1.0  0     0.0000
MYA    ?    ?    e P      _ 20051008 0356   37.7600 GAU  5.00e-01 -1.00e+00 -1.00e+00 -1.00e+00 >  356.9009    2.7855    0.8035   38.4253   38.3261   -1.0500   28.4966 288.07  -1.0  -1.0  0     0.0000
AFFS   ?    ?    _ P      _ 20051008 0356   36.5030 GAU  1.00e+00 -1.00e+00 -1.00e+00 -1.00e+00 >  358.7933   -0.3639    1.1232   43.0005   23.9267   -1.0900   28.7092 256.61  -1.0  -1.0  0     0.0000
XAN    ?    ?    _ P      _ 20051008 0356   38.7000 GAU  1.00e+00 -1.00e+00 -1.00e+00 -1.00e+00 >  360.6475   -0.0211    1.1276  108.9214   34.0394   -0.6300   28.9178  80.82  -1.0  -1.0  0     0.0000
BTO    ?    ?    e P      _ 20051008 0356   42.6000 GAU  5.00e-01 -1.00e+00 -1.00e+00 -1.00e+00 >  362.8814    1.6450    0.0000  110.0208   40.6056   -1.1140   29.1696  67.16  -1.0  -1.0  0     0.0000
GYA    ?    ?    i P      c 20051008 0356   40.7000 GAU  2.00e-01 -1.00e+00 -1.00e+00 -1.00e+00 >  364.4348   -1.8084    1.0188  106.6639   26.4586   -1.1620   29.3449  96.91  -1.0  -1.0  0     0.0000
GYA    ?    ?    _ S      _ 20051008 0401   33.6000 GAU  1.00e+00 -1.00e+00 -1.00e+00 -1.00e+00 >  658.7891   -3.2627    0.0000  106.6639   26.4586   -1.1620   29.3449  96.91  -1.0  -1.0  0     0.0000
KAMS   ?    ?    _ P      _ 20051008 0356   41.2450 GAU  1.00e+00 -1.00e+00 -1.00e+00 -1.00e+00 >  364.7526   -1.5812    1.0223   44.5798   20.3092   -0.7500   29.3808 248.69  -1.0  -1.0  0     0.0000
ANN    ?    ?    i P      c 20051008 0356   41.7000 GAU  2.00e-01 -1.00e+00 -1.00e+00 -1.00e+00 >  365.6978   -2.0714    0.0000   37.4330   44.8000   -0.0350   29.4875 301.38  -1.0  -1.0  0     0.0000
ANN    ?    ?    e S      _ 20051008 0401   36.1000 GAU  5.00e-01 -1.00e+00 -1.00e+00 -1.00e+00 >  661.0300   -3.0036    0.0000   37.4330   44.8000   -0.0350   29.4875 301.38  -1.0  -1.0  0     0.0000
GAZ    ?    ?    e P      _ 20051008 0356   41.1300 GAU  5.00e-01 -1.00e+00 -1.00e+00 -1.00e+00 >  366.2315   -3.1751    0.7491   37.2113   37.1721   -0.8640   29.5478 285.86  -1.0  -1.0  0     0.0000
GZT    ?    ?    i P      _ 20051008 0356   41.1800 GAU  2.00e-01 -1.00e+00 -1.00e+00 -1.00e+00 >  366.7837   -3.6773    0.6403   37.1375   37.1356    0.0000   29.6101 285.80  -1.0  -1.0  0     0.0000
PECR   ?    ?    e P      _ 20051008 0356   45.0000 GAU  5.00e-01 -1.00e+00 -1.00e+00 -1.00e+00 >  367.4887   -0.5623    0.0000   44.0833   56.3167    0.0000   29.6898 326.35  -1.0  -1.0  0     0.0000
MUKL   ?    ?    i P      _ 20051008 0356   47.6000 GAU  2.00e-01 -1.00e+00 -1.00e+00 -1.00e+00 >  368.9092    0.6172    0.0000   49.1500   14.5333    0.0000   29.8502 234.05  -1.0  -1.0  0     0.0000
TOKT   ?    ?    e P      _ 20051008 0356   46.1200 GAU  5.00e-01 -1.00e+00 -1.00e+00 -1.00e+00 >  369.1513   -1.1049    0.0000   36.5448   40.3203   -0.7260   29.8776 292.27  -1.0  -1.0  0     0.0000
VOR    ?    ?    i P      c 20051008 0356   47.4000 GAU  2.00e-01 -1.00e+00 -1.00e+00 -1.00e+00 >  370.9487   -1.6223    0.0000   39.2000   51.7311   -0.1608   30.0807 315.51  -1.0  -1.0  0     0.0000
KVT    ?    ?    e P      _ 20051008 0356   49.8500 GAU  5.00e-01 -1.00e+00 -1.00e+00 -1.00e+00 >  372.4496   -0.6732    0.0000   36.0464   41.0806   -0.6500   30.2504 293.79  -1.0  -1.0  0     0.0000
NST    ?    ?    _ P      d 20051008 0356   50.2000 GAU  1.00e+00 -1.00e+00 -1.00e+00 -1.00e+00 >  372.6087   -0.4824    0.0000  100.1330   15.6727   -0.0340   30.2684 121.91  -1.0  -1.0  0     0.0000
HHC    ?    ?    i P      c 20051008 0356   53.0000 GAU  2.00e-01 -1.00e+00 -1.00e+00 -1.00e+00 >  373.2286    1.6978    0.0000  111.5636   40.8494   -1.1690   30.3385  66.67  -1.0  -1.0  0     0.0000
HHC    ?    ?    _ S      _ 20051008 0401   55.4000 GAU  1.00e+00 -1.00e+00 -1.00e+00 -1.00e+00 >  674.3871    2.9393    0.0000  111.5636   40.8494   -1.1690   30.3385  66.67  -1.0  -1.0  0     0.0000
BNN    ?    ?    e P      _ 20051008 0356   52.7600 GAU  5.00e-01 -1.00e+00 -1.00e+00 -1.00e+00 >  374.4437    0.2427    0.0000   35.8460   38.8520   -1.3500   30.4759 289.39  -1.0  -1.0  0     0.0000
QURS   ?    ?    _ P      _ 20051008 0356   52.8630 GAU  1.00e+00 -1.00e+00 -1.00e+00 -1.00e+00 >  375.1694   -0.3800    0.0000   37.3240   31.3860   -0.4910   30.5580 274.47  -1.0  -1.0  0     0.0000
FKH    ?    ?    e P      _ 20051008 0356   54.1600 GAU  5.00e-01 -1.00e+00 -1.00e+00 -1.00e+00 >  375.9130    0.1734    0.0000   36.4018   34.2355   -1.1700   30.6422 280.27  -1.0  -1.0  0     0.0000
TATS   ?    ?    _ P      _ 20051008 0356   52.4940 GAU  1.00e+00 -1.00e+00 -1.00e+00 -1.00e+00 >  376.1617   -1.7413    0.0000   43.4775   19.5412   -1.1000   30.6704 248.63  -1.0  -1.0  0     0.0000
ASF    ?    ?    _ P      _ 20051008 0356   54.6620 GAU  1.00e+00 -1.00e+00 -1.00e+00 -1.00e+00 >  376.3561    0.2323    0.0000   36.9000   32.2000    0.0000   30.6924 276.20  -1.0  -1.0  0     0.0000
ASF    ?    ?    _ S      _ 20051008 0402    3.6370 GAU  1.00e+00 -1.00e+00 -1.00e+00 -1.00e+00 >  679.9345    5.6289    0.0000   36.9000   32.2000    0.0000   30.6924 276.20  -1.0  -1.0  0     0.0000
CEYT   ?    ?    e P      _ 20051008 0356   55.4500 GAU  5.00e-01 -1.00e+00 -1.00e+00 -1.00e+00 >  376.6518    0.7246    0.0000   35.7480   37.0100   -0.1000   30.7259 285.81  -1.0  -1.0  0     0.0000
KBRS   ?    ?    _ P      _ 20051008 0356   56.1250 GAU  1.00e+00 -1.00e+00 -1.00e+00 -1.00e+00 >  378.2182   -0.1668    0.0000   39.2623   25.7893   -0.7800   30.9033 263.03  -1.0  -1.0  0     0.0000
TIY    ?    ?    _ P      c 20051008 0356   56.0000 GAU  1.00e+00 -1.00e+00 -1.00e+00 -1.00e+00 >  380.7414   -2.8150    0.0000  112.4342   37.7131   -0.8500   31.1893  72.72  -1.0  -1.0  0     0.0000
TIY    ?    ?    _ S      _ 20051008 0402   10.0000 GAU  1.00e+00 -1.00e+00 -1.00e+00 -1.00e+00 >  687.7149    4.2114    0.0000  112.4342   37.7131   -0.8500   31.1893  72.72  -1.0  -1.0  0     0.0000
BYBT   ?    ?    e P      _ 20051008 0356   58.3100 GAU  5.00e-01 -1.00e+00 -1.00e+00 -1.00e+00 >  380.9435   -0.7071    0.0000   34.7667   41.4685   -0.0850   31.2123 294.55  -1.0  -1.0  0     0.0000
BHL    ?    ?    e P      _ 20051008 0357    0.0400 GAU  5.00e-01 -1.00e+00 -1.00e+00 -1.00e+00 >  381.8651    0.1013    0.0000   35.6531   33.9039   -0.9550   31.3168 279.88  -1.0  -1.0  0     0.0000
KSDI   ?    ?    _ P      _ 20051008 0357    1.3000 GAU  1.00e+00 -1.00e+00 -1.00e+00 -1.00e+00 >  383.1971    0.0292    0.0000   35.6590   33.1920   -0.1230   31.4680 278.55  -1.0  -1.0  0     0.0000
KSDI   ?    ?    _ S      _ 20051008 0402    7.1000 GAU  1.00e+00 -1.00e+00 -1.00e+00 -1.00e+00 >  692.0734   -3.0470    0.0000   35.6590   33.1920   -0.1230   31.4680 278.55  -1.0  -1.0  0     0.0000
NIG    ?    ?    e P      _ 20051008 0357    5.1200 GAU  5.00e-01 -1.00e+00 -1.00e+00 -1.00e+00 >  383.4926    3.5538    0.0000   34.6100   38.1100   -2.2910   31.5016 288.11  -1.0  -1.0  0     0.0000
TOS    ?    ?    e P      _ 20051008 0357    4.6600 GAU  5.00e-01 -1.00e+00 -1.00e+00 -1.00e+00 >  385.9114    0.6750    0.0000   34.0230   41.0360   -1.0460   31.7764 293.74  -1.0  -1.0  0     0.0000
