NLLOC "./loc/global.19581228.053514.grid0" "LOCATED" "Location completed."
SIGNATURE "Vipin Maurya (GPT, IIT Roorkee)   obs:./obs/19581228.0534_Dharchula.isf   NLLoc:v7.00.00(27Oct2017)  run:27May2022 12h21m22"
COMMENT "ISC_IMS1.0 events"
GRID  361 181 601  -180 -90 0  1 1 1 PROB_DENSITY
SEARCH OCTREE nInitial 17628 nEvaluated 50012 smallestNodeSide 3.679244/3.257664/0.782552 oct_tree_integral 6.601381e+04 scatter_volume 6.601381e+04
HYPOCENTER  x 80.0362 y 30.1025 z 77.8639  OT 49.7714  ix -1 iy -1 iz -1 MAXIMUM_LIKELIHOOD
GEOGRAPHIC  OT 1958 12 28  05 34 49.771382  Lat 30.102539 Long 80.036204 Depth 77.863932
QUALITY  Pmax 1.95053e+120 MFmin 19.5973 MFmax 19.692 RMS 1.70054 Nphs 50 Gap 102.003 Dist 17.1031 Mamp -9.90 0 Mdur -9.90 0
VPVSRATIO  VpVsRatio 1.85138  Npair 77  Diff 442
STATISTICS  ExpectX 80.0316 Y 30.0821 Z 80.6673  CovXX 51.9384 XY 34.3087 XZ 94.6642 YY 179.207 YZ 26.3855 ZZ 1986.6 EllAz1  103.334 Dip1  -2.52981 Len1  11.8095 Az2  193.267 Dip2  1.50862 Len2  25.6639 Len3  8.384840e+01
STAT_GEOG  ExpectLat 30.082082 Long 80.031640 Depth 80.667281
TRANSFORM  GLOBAL
QML_OriginQuality  assocPhCt 408  usedPhCt 50  assocStaCt -1  usedStaCt 47  depthPhCt -1  stdErr 1.70054  azGap 102.003  secAzGap 107.085  gtLevel -  minDist 1901.78 maxDist 4703.83 medDist 4240.89
QML_OriginUncertainty  horUnc -1  minHorUnc 9.97703  maxHorUnc 20.7868  azMaxHorUnc 14.1658
QML_ConfidenceEllipsoid  semiMajorAxisLength 83.8484  semiMinorAxisLength 11.8095  semiIntermediateAxisLength 25.6639  majorAxisPlunge 87.054  majorAxisAzimuth 72.4862  majorAxisRotation 59.319
FOCALMECH  Hyp  30.102539 80.036204 77.863932 Mech  0 0 0 mf  0 nObs 0
PHASE ID Ins Cmp On Pha  FM Date     HrMn   Sec     Err  ErrMag    Coda      Amp       Per  >   TTpred    Res       Weight    StaLoc(X  Y         Z)        SDist    SAzim  RAz  RDip RQual    Tcorr 
MDR    ?    ?    _ P      _ 19581228 0538   37.0000 GAU  1.00e+00 -1.00e+00 -1.00e+00 -1.00e+00 >  233.9544   -6.7258    0.2546   80.1833   13.0000   -0.0150   17.1031 179.51  -1.0  -1.0  0     0.0000
WUW    ?    ?    _ P      _ 19581228 0539   19.0000 GAU  1.00e+00 -1.00e+00 -1.00e+00 -1.00e+00 >  268.7852    0.4434    1.1923  102.6383   37.9283    0.0000   20.2360  61.22  -1.0  -1.0  0     0.0000
SEM    ?    ?    _ P      _ 19581228 0539   16.0000 GAU  1.00e+00 -1.00e+00 -1.00e+00 -1.00e+00 >  269.5462   -3.3176    0.8113   80.2500   50.4083   -0.2090   20.3064   0.39  -1.0  -1.0  0     0.0000
SEM    ?    ?    _ S      _ 19581228 0542   58.0000 GAU  1.00e+00 -1.00e+00 -1.00e+00 -1.00e+00 >  492.8806   -4.6520    0.5600   80.2500   50.4083   -0.2090   20.3064   0.39  -1.0  -1.0  0     0.0000
CDU    ?    ?    _ P      c 19581228 0539   22.0000 GAU  1.00e+00 -1.00e+00 -1.00e+00 -1.00e+00 >  273.2616   -1.0330    1.1616  104.0111   30.6603   -0.5060   20.6509  82.35  -1.0  -1.0  0     0.0000
CDU    ?    ?    _ S      _ 19581228 0543    9.0000 GAU  1.00e+00 -1.00e+00 -1.00e+00 -1.00e+00 >  499.6671   -0.4384    1.1979  104.0111   30.6603   -0.5060   20.6509  82.35  -1.0  -1.0  0     0.0000
KMI    ?    ?    _ P      c 19581228 0539   21.0000 GAU  1.00e+00 -1.00e+00 -1.00e+00 -1.00e+00 >  273.6377   -2.4091    0.9779  102.7400   25.1233   -1.9400   20.6858  98.40  -1.0  -1.0  0     0.0000
KMI    ?    ?    _ S      _ 19581228 0543    5.0000 GAU  1.00e+00 -1.00e+00 -1.00e+00 -1.00e+00 >  500.3537   -5.1251    0.4785  102.7400   25.1233   -1.9400   20.6858  98.40  -1.0  -1.0  0     0.0000
LAN    ?    ?    _ S      _ 19581228 0543   18.0000 GAU  1.00e+00 -1.00e+00 -1.00e+00 -1.00e+00 >  501.5691    6.6595    0.2026  103.8333   36.0500   -1.5180   20.7477  67.06  -1.0  -1.0  0     0.0000
PBA    ?    ?    _ P      _ 19581228 0539   37.0000 GAU  1.00e+00 -1.00e+00 -1.00e+00 -1.00e+00 >  286.3335    0.8951    1.1616   92.7167   11.6667   -0.0790   21.8728 144.76  -1.0  -1.0  0     0.0000
PBA    ?    ?    _ S      _ 19581228 0543   29.0000 GAU  1.00e+00 -1.00e+00 -1.00e+00 -1.00e+00 >  523.4813   -4.2527    0.0000   92.7167   11.6667   -0.0790   21.8728 144.76  -1.0  -1.0  0     0.0000
TNH    ?    ?    _ P      _ 19581228 0539   41.0000 GAU  1.00e+00 -1.00e+00 -1.00e+00 -1.00e+00 >  288.9461    2.2825    0.9690  105.7517   34.5783    0.0000   22.1190  71.59  -1.0  -1.0  0     0.0000
YNC    ?    ?    _ P      _ 19581228 0539   52.0000 GAU  1.00e+00 -1.00e+00 -1.00e+00 -1.00e+00 >  299.4477    2.7809    0.8747  106.2700   38.4750    0.0000   23.1353  61.74  -1.0  -1.0  0     0.0000
COC    ?    ?    _ P      _ 19581228 0539   50.0000 GAU  1.00e+00 -1.00e+00 -1.00e+00 -1.00e+00 >  300.0682    0.1604    1.2020   79.8667    6.9000   -0.0070   23.2031 180.43  -1.0  -1.0  0     0.0000
COC    ?    ?    _ S      _ 19581228 0543   55.0000 GAU  1.00e+00 -1.00e+00 -1.00e+00 -1.00e+00 >  545.8248   -0.5962    0.0000   79.8667    6.9000   -0.0070   23.2031 180.43  -1.0  -1.0  0     0.0000
SIA    ?    ?    _ P      c 19581228 0540    3.0000 GAU  1.00e+00 -1.00e+00 -1.00e+00 -1.00e+00 >  313.8257   -0.5970    1.1913  108.9200   34.2483   -0.3950   24.7117  72.76  -1.0  -1.0  0     0.0000
SIA    ?    ?    _ S      _ 19581228 0544   27.0000 GAU  1.00e+00 -1.00e+00 -1.00e+00 -1.00e+00 >  570.1113    7.1173    0.0000  108.9200   34.2483   -0.3950   24.7117  72.76  -1.0  -1.0  0     0.0000
BTO    ?    ?    _ P      c 19581228 0540   15.0000 GAU  1.00e+00 -1.00e+00 -1.00e+00 -1.00e+00 >  329.5385   -4.3099    0.6223  110.0208   40.6056   -1.1140   26.4482  58.42  -1.0  -1.0  0     0.0000
BTO    ?    ?    _ S      _ 19581228 0544   56.0000 GAU  1.00e+00 -1.00e+00 -1.00e+00 -1.00e+00 >  597.5922    8.6364    0.0000  110.0208   40.6056   -1.1140   26.4482  58.42  -1.0  -1.0  0     0.0000
OBM    ?    ?    _ P      _ 19581228 0540   27.0000 GAU  1.00e+00 -1.00e+00 -1.00e+00 -1.00e+00 >  336.5925    0.6361    1.1814  106.9700   47.9200   -1.3300   27.2337  41.56  -1.0  -1.0  0     0.0000
IRK    ?    ?    _ P      _ 19581228 0540   38.0000 GAU  1.00e+00 -1.00e+00 -1.00e+00 -1.00e+00 >  347.0727    1.1559    1.1359  104.2711   52.2431   -0.4670   28.4086  31.89  -1.0  -1.0  0     0.0000
GRS    ?    ?    _ P      _ 19581228 0540   42.0000 GAU  1.00e+00 -1.00e+00 -1.00e+00 -1.00e+00 >  352.5648   -0.3361    1.2010   46.3333   39.5000   -1.3990   29.0282 298.07  -1.0  -1.0  0     0.0000
GRS    ?    ?    _ S      _ 19581228 0545   33.0000 GAU  1.00e+00 -1.00e+00 -1.00e+00 -1.00e+00 >  638.2116    5.0170    0.0000   46.3333   39.5000   -1.3990   29.0282 298.07  -1.0  -1.0  0     0.0000
SVE    ?    ?    _ P      _ 19581228 0540   50.0000 GAU  1.00e+00 -1.00e+00 -1.00e+00 -1.00e+00 >  360.8798   -0.6511    1.1885   60.6370   56.8270   -0.2750   29.9680 338.66  -1.0  -1.0  0     0.0000
SVE    ?    ?    _ S      _ 19581228 0545   50.0000 GAU  1.00e+00 -1.00e+00 -1.00e+00 -1.00e+00 >  652.9593    7.2694    0.0000   60.6370   56.8270   -0.2750   29.9680 338.66  -1.0  -1.0  0     0.0000
GZH    ?    ?    _ P      c 19581228 0540   54.0000 GAU  1.00e+00 -1.00e+00 -1.00e+00 -1.00e+00 >  365.4249   -1.1963    1.1464  113.3439   23.0869   -0.0110   30.4827  95.24  -1.0  -1.0  0     0.0000
GZH    ?    ?    _ S      _ 19581228 0545   56.0000 GAU  1.00e+00 -1.00e+00 -1.00e+00 -1.00e+00 >  661.0219    5.2067    0.0000  113.3439   23.0869   -0.0110   30.4827  95.24  -1.0  -1.0  0     0.0000
TIF    ?    ?    _ P      _ 19581228 0540   56.0000 GAU  1.00e+00 -1.00e+00 -1.00e+00 -1.00e+00 >  365.9973    0.2313    1.2003   44.8000   41.7167   -0.3990   30.5475 302.08  -1.0  -1.0  0     0.0000
TIF    ?    ?    _ S      _ 19581228 0545   57.0000 GAU  1.00e+00 -1.00e+00 -1.00e+00 -1.00e+00 >  662.0375    5.1911    0.0000   44.8000   41.7167   -0.3990   30.5475 302.08  -1.0  -1.0  0     0.0000
HKC    ?    ?    _ P      d 19581228 0541    6.0000 GAU  1.00e+00 -1.00e+00 -1.00e+00 -1.00e+00 >  374.1817    2.0469    1.0102  114.1719   22.3036   -0.0270   31.4771  96.13  -1.0  -1.0  0     0.0000
HKC    ?    ?    _ S      _ 19581228 0546    8.0000 GAU  1.00e+00 -1.00e+00 -1.00e+00 -1.00e+00 >  676.5654    1.6632    0.0000  114.1719   22.3036   -0.0270   31.4771  96.13  -1.0  -1.0  0     0.0000
MED    ?    ?    _ P      c 19581228 0541    6.0000 GAU  1.00e+00 -1.00e+00 -1.00e+00 -1.00e+00 >  377.6797   -1.4511    1.1187   98.6833    3.5500   -0.0320   31.8755 142.82  -1.0  -1.0  0     0.0000
MED    ?    ?    _ S      _ 19581228 0546   46.0000 GAU  1.00e+00 -1.00e+00 -1.00e+00 -1.00e+00 >  682.7792   33.4494    0.0000   98.6833    3.5500   -0.0320   31.8755 142.82  -1.0  -1.0  0     0.0000
NAN    ?    ?    _ P      c 19581228 0541   18.0000 GAU  1.00e+00 -1.00e+00 -1.00e+00 -1.00e+00 >  388.0792    0.1495    1.2022  118.7833   32.0633   -0.0100   33.0645  76.46  -1.0  -1.0  0     0.0000
NAN    ?    ?    _ S      _ 19581228 0546   37.0000 GAU  1.00e+00 -1.00e+00 -1.00e+00 -1.00e+00 >  701.2672    5.9614    0.0000  118.7833   32.0633   -0.0100   33.0645  76.46  -1.0  -1.0  0     0.0000
ZSC    ?    ?    _ P      c 19581228 0541   38.0000 GAU  1.00e+00 -1.00e+00 -1.00e+00 -1.00e+00 >  406.7963    1.4323    1.1027  121.1864   31.0967   -0.0900   35.2283  77.64  -1.0  -1.0  0     0.0000
KSA    ?    ?    _ P      _ 19581228 0541   54.0000 GAU  1.00e+00 -1.00e+00 -1.00e+00 -1.00e+00 >  424.9074   -0.6788    1.1870   35.8900   33.8233   -0.9200   37.3540 287.51  -1.0  -1.0  0     0.0000
KSA    ?    ?    _ S      _ 19581228 0547   42.0000 GAU  1.00e+00 -1.00e+00 -1.00e+00 -1.00e+00 >  767.0680    5.1607    0.0000   35.8900   33.8233   -0.9200   37.3540 287.51  -1.0  -1.0  0     0.0000
HSK    ?    ?    _ P      c 19581228 0542    1.0000 GAU  1.00e+00 -1.00e+00 -1.00e+00 -1.00e+00 >  431.5253   -0.2967    1.2019  125.3000   43.9167   -0.2500   38.1392  55.95  -1.0  -1.0  0     0.0000
HSK    ?    ?    _ S      _ 19581228 0547   58.0000 GAU  1.00e+00 -1.00e+00 -1.00e+00 -1.00e+00 >  778.9500    9.2786    0.0000  125.3000   43.9167   -0.2500   38.1392  55.95  -1.0  -1.0  0     0.0000
SIM    ?    ?    _ P      c 19581228 0542    5.0000 GAU  1.00e+00 -1.00e+00 -1.00e+00 -1.00e+00 >  436.3475   -1.1189    1.1539   34.1160   44.9490   -0.2750   38.7144 305.62  -1.0  -1.0  0     0.0000
MOS    ?    ?    _ P      _ 19581228 0542   10.0000 GAU  1.00e+00 -1.00e+00 -1.00e+00 -1.00e+00 >  441.0279   -0.7992    1.1795   37.6250   55.7383   -0.1210   39.2752 323.14  -1.0  -1.0  0     0.0000
MAN    ?    ?    _ P      _ 19581228 0542   22.0000 GAU  1.00e+00 -1.00e+00 -1.00e+00 -1.00e+00 >  452.7781   -0.5495    1.1935  121.0780   14.6600   -0.0700   40.6944 103.03  -1.0  -1.0  0     0.0000
MAN    ?    ?    _ S      _ 19581228 0549   11.0000 GAU  1.00e+00 -1.00e+00 -1.00e+00 -1.00e+00 >  817.2335   43.9951    0.0000  121.0780   14.6600   -0.0700   40.6944 103.03  -1.0  -1.0  0     0.0000
HLW    ?    ?    _ P      _ 19581228 0542   32.0000 GAU  1.00e+00 -1.00e+00 -1.00e+00 -1.00e+00 >  462.2064    0.0222    1.2041   31.3417   29.8583   -0.1160   41.8454 282.43  -1.0  -1.0  0     0.0000
HLW    ?    ?    _ S      _ 19581228 0548   48.0000 GAU  1.00e+00 -1.00e+00 -1.00e+00 -1.00e+00 >  834.2812    3.9474    0.0000   31.3417   29.8583   -0.1160   41.8454 282.43  -1.0  -1.0  0     0.0000
NGS    ?    ?    _ P      _ 19581228 0542   36.0000 GAU  1.00e+00 -1.00e+00 -1.00e+00 -1.00e+00 >  465.2352    0.9934    1.1526  129.8700   32.7317   -0.0270   42.2176  73.07  -1.0  -1.0  0     0.0000
NGS    ?    ?    _ S      _ 19581228 0549   53.0000 GAU  1.00e+00 -1.00e+00 -1.00e+00 -1.00e+00 >  839.7651   63.4635    0.0000  129.8700   32.7317   -0.0270   42.2176  73.07  -1.0  -1.0  0     0.0000
IST    ?    ?    _ P      c 19581228 0542   36.0000 GAU  1.00e+00 -1.00e+00 -1.00e+00 -1.00e+00 >  465.9255    0.3031    1.1980   28.9958   41.0456   -0.0500   42.3025 299.39  -1.0  -1.0  0     0.0000
IST    ?    ?    _ S      _ 19581228 0548   53.0000 GAU  1.00e+00 -1.00e+00 -1.00e+00 -1.00e+00 >  841.0153    2.2133    0.0000   28.9958   41.0456   -0.0500   42.3025 299.39  -1.0  -1.0  0     0.0000
VLA    ?    ?    e P      _ 19581228 0542   41.0000 GAU  5.00e-01 -1.00e+00 -1.00e+00 -1.00e+00 >  470.5630    0.6656    1.2120  131.8933   43.1200   -0.0730   42.8750  57.53  -1.0  -1.0  0     0.0000
VLA    ?    ?    e S      _ 19581228 0549   12.0000 GAU  5.00e-01 -1.00e+00 -1.00e+00 -1.00e+00 >  849.4198   12.8089    0.0000  131.8933   43.1200   -0.0730   42.8750  57.53  -1.0  -1.0  0     0.0000
CIN    ?    ?    _ P      _ 19581228 0542   42.0000 GAU  1.00e+00 -1.00e+00 -1.00e+00 -1.00e+00 >  473.5091   -1.2805    1.1378   28.0867   37.6000   -0.1200   43.2402 294.39  -1.0  -1.0  0     0.0000
FOC    ?    ?    _ S      _ 19581228 0549   19.0000 GAU  1.00e+00 -1.00e+00 -1.00e+00 -1.00e+00 >  860.4412    8.7874    0.0000   27.1833   45.6950   -0.0610   43.6290 306.21  -1.0  -1.0  0     0.0000
BAC    ?    ?    _ P      _ 19581228 0543    4.0000 GAU  1.00e+00 -1.00e+00 -1.00e+00 -1.00e+00 >  478.4891   15.7395    0.0005   26.9000   46.5667   -0.1670   43.8602 307.45  -1.0  -1.0  0     0.0000
BAC    ?    ?    _ S      _ 19581228 0549   33.0000 GAU  1.00e+00 -1.00e+00 -1.00e+00 -1.00e+00 >  863.8098   19.4188    0.0000   26.9000   46.5667   -0.1670   43.8602 307.45  -1.0  -1.0  0     0.0000
PUL    ?    ?    i P      _ 19581228 0542   52.0000 GAU  2.00e-01 -1.00e+00 -1.00e+00 -1.00e+00 >  482.4813   -0.2527    1.2468   30.3167   59.7667   -0.0650   44.3596 326.67  -1.0  -1.0  0     0.0000
PUL    ?    ?    i S      _ 19581228 0549   23.0000 GAU  2.00e-01 -1.00e+00 -1.00e+00 -1.00e+00 >  871.0671    2.1615    0.0000   30.3167   59.7667   -0.0650   44.3596 326.67  -1.0  -1.0  0     0.0000
BUC    ?    ?    _ P      c 19581228 0542   54.0000 GAU  1.00e+00 -1.00e+00 -1.00e+00 -1.00e+00 >  482.6154    1.6132    1.0780   26.0967   44.4136   -0.0620   44.3764 304.34  -1.0  -1.0  0     0.0000
BUC    ?    ?    _ S      _ 19581228 0549   28.0000 GAU  1.00e+00 -1.00e+00 -1.00e+00 -1.00e+00 >  871.3111    6.9175    0.0000   26.0967   44.4136   -0.0620   44.3764 304.34  -1.0  -1.0  0     0.0000
CMP    ?    ?    _ P      _ 19581228 0543    2.0000 GAU  1.00e+00 -1.00e+00 -1.00e+00 -1.00e+00 >  488.5686    3.6600    0.6962   25.0383   45.2683   -0.5980   45.1255 305.56  -1.0  -1.0  0     0.0000
CMP    ?    ?    _ S      _ 19581228 0549   42.0000 GAU  1.00e+00 -1.00e+00 -1.00e+00 -1.00e+00 >  882.1467   10.0819    0.0000   25.0383   45.2683   -0.5980   45.1255 305.56  -1.0  -1.0  0     0.0000
LVV    ?    ?    i P      _ 19581228 0543    5.0000 GAU  2.00e-01 -1.00e+00 -1.00e+00 -1.00e+00 >  495.0781    0.1505    1.2468   24.0310   49.8190   -0.3200   45.9505 311.90  -1.0  -1.0  0     0.0000
LVV    ?    ?    _ S      _ 19581228 0549   58.0000 GAU  1.00e+00 -1.00e+00 -1.00e+00 -1.00e+00 >  894.0156   14.2130    0.0000   24.0310   49.8190   -0.3200   45.9505 311.90  -1.0  -1.0  0     0.0000
APA    ?    ?    _ P      c 19581228 0543    9.0000 GAU  1.00e+00 -1.00e+00 -1.00e+00 -1.00e+00 >  498.1924    1.0362    1.1484   33.4050   67.5689   -0.1820   46.3474 337.46  -1.0  -1.0  0     0.0000
APA    ?    ?    _ S      _ 19581228 0549   52.0000 GAU  1.00e+00 -1.00e+00 -1.00e+00 -1.00e+00 >  899.7004    2.5283    0.0000   33.4050   67.5689   -0.1820   46.3474 337.46  -1.0  -1.0  0     0.0000
SOF    ?    ?    _ P      _ 19581228 0543    9.0000 GAU  1.00e+00 -1.00e+00 -1.00e+00 -1.00e+00 >  498.8853    0.3433    1.1966   23.3342   42.6853   -0.5400   46.4358 302.01  -1.0  -1.0  0     0.0000
SOF    ?    ?    _ S      _ 19581228 0550   28.0000 GAU  1.00e+00 -1.00e+00 -1.00e+00 -1.00e+00 >  900.9656   37.2630    0.0000   23.3342   42.6853   -0.5400   46.4358 302.01  -1.0  -1.0  0     0.0000
ATH    ?    ?    _ P      _ 19581228 0543    9.0000 GAU  1.00e+00 -1.00e+00 -1.00e+00 -1.00e+00 >  500.3477   -1.1191    1.1539   23.7167   37.9722   -0.0950   46.6229 295.51  -1.0  -1.0  0     0.0000
NUR    ?    ?    _ P      _ 19581228 0543   11.0000 GAU  1.00e+00 -1.00e+00 -1.00e+00 -1.00e+00 >  505.4252   -4.1966    0.6434   24.6490   60.5090   -0.1020   47.2748 326.53  -1.0  -1.0  0     0.0000
NUR    ?    ?    _ S      _ 19581228 0550    2.0000 GAU  1.00e+00 -1.00e+00 -1.00e+00 -1.00e+00 >  912.9197   -0.6910    0.0000   24.6490   60.5090   -0.1020   47.2748 326.53  -1.0  -1.0  0     0.0000
TIM    ?    ?    _ P      _ 19581228 0543   22.0000 GAU  1.00e+00 -1.00e+00 -1.00e+00 -1.00e+00 >  509.4249    2.8037    0.8702   21.2208   45.7366   -0.0880   47.7910 306.28  -1.0  -1.0  0     0.0000
TIM    ?    ?    _ S      _ 19581228 0550   24.0000 GAU  1.00e+00 -1.00e+00 -1.00e+00 -1.00e+00 >  920.2387   13.9900    0.0000   21.2208   45.7366   -0.0880   47.7910 306.28  -1.0  -1.0  0     0.0000
WAR    ?    ?    _ P      c 19581228 0543   20.0000 GAU  1.00e+00 -1.00e+00 -1.00e+00 -1.00e+00 >  510.9589   -0.7303    1.1839   21.0236   52.2417   -0.1100   47.9897 315.05  -1.0  -1.0  0     0.0000
WAR    ?    ?    _ S      _ 19581228 0550   16.0000 GAU  1.00e+00 -1.00e+00 -1.00e+00 -1.00e+00 >  923.0476    3.1810    0.0000   21.0236   52.2417   -0.1100   47.9897 315.05  -1.0  -1.0  0     0.0000
MAT    ?    ?    _ P      _ 19581228 0543   23.0000 GAU  1.00e+00 -1.00e+00 -1.00e+00 -1.00e+00 >  513.3815   -0.1529    1.2040  138.2089   36.5417   -0.4220   48.3041  66.09  -1.0  -1.0  0     0.0000
MAT    ?    ?    _ S      _ 19581228 0550   32.0000 GAU  1.00e+00 -1.00e+00 -1.00e+00 -1.00e+00 >  927.4854   14.7432    0.0000  138.2089   36.5417   -0.4220   48.3041  66.09  -1.0  -1.0  0     0.0000
BEO    ?    ?    _ P      c 19581228 0543   26.0000 GAU  1.00e+00 -1.00e+00 -1.00e+00 -1.00e+00 >  513.9325    2.2961    0.9666   20.4553   44.8214   -0.1290   48.3758 305.09  -1.0  -1.0  0     0.0000
BEO    ?    ?    _ S      _ 19581228 0550   24.0000 GAU  1.00e+00 -1.00e+00 -1.00e+00 -1.00e+00 >  928.4951    5.7335    0.0000   20.4553   44.8214   -0.1290   48.3758 305.09  -1.0  -1.0  0     0.0000
SPC    ?    ?    _ P      _ 19581228 0543   42.0000 GAU  1.00e+00 -1.00e+00 -1.00e+00 -1.00e+00 >  514.0165   18.2121    0.0000   20.2450   49.1889   -1.7720   48.3867 310.93  -1.0  -1.0  0     0.0000
KRA    ?    ?    _ P      _ 19581228 0543   26.0000 GAU  1.00e+00 -1.00e+00 -1.00e+00 -1.00e+00 >  515.5808    0.6478    0.0000   19.9397   50.0561   -0.2230   48.5905 312.09  -1.0  -1.0  0     0.0000
KRA    ?    ?    _ S      _ 19581228 0550   24.0000 GAU  1.00e+00 -1.00e+00 -1.00e+00 -1.00e+00 >  931.5165    2.7121    0.0000   19.9397   50.0561   -0.2230   48.5905 312.09  -1.0  -1.0  0     0.0000
SOD    ?    ?    _ P      _ 19581228 0543   25.0000 GAU  1.00e+00 -1.00e+00 -1.00e+00 -1.00e+00 >  515.6206   -0.3920    1.1994   26.6291   67.3712   -0.1810   48.5957 335.68  -1.0  -1.0  0     0.0000
SOD    ?    ?    _ S      _ 19581228 0550   27.0000 GAU  1.00e+00 -1.00e+00 -1.00e+00 -1.00e+00 >  931.5894    5.6392    0.0000   26.6291   67.3712   -0.1810   48.5957 335.68  -1.0  -1.0  0     0.0000
TIK    ?    ?    _ S      _ 19581228 0550   33.0000 GAU  1.00e+00 -1.00e+00 -1.00e+00 -1.00e+00 >  937.9145    5.3141    0.0000  128.8667   71.6333   -0.0410   49.0463  18.30  -1.0  -1.0  0     0.0000
RAC    ?    ?    _ P      _ 19581228 0543   35.0000 GAU  1.00e+00 -1.00e+00 -1.00e+00 -1.00e+00 >  524.1293    1.0993    0.0000   18.1942   50.0833   -0.2090   49.7108 312.13  -1.0  -1.0  0     0.0000
HRB    ?    ?    _ P      _ 19581228 0543   38.0000 GAU  1.00e+00 -1.00e+00 -1.00e+00 -1.00e+00 >  524.6015    3.6271    0.0000   18.1928   47.8736   -0.1150   49.7731 309.23  -1.0  -1.0  0     0.0000
HRB    ?    ?    _ S      _ 19581228 0550   50.0000 GAU  1.00e+00 -1.00e+00 -1.00e+00 -1.00e+00 >  948.0724   12.1562    0.0000   18.1928   47.8736   -0.1150   49.7731 309.23  -1.0  -1.0  0     0.0000
YSS    ?    ?    e P      _ 19581228 0543   41.0000 GAU  5.00e-01 -1.00e+00 -1.00e+00 -1.00e+00 >  529.4640    1.7647    0.0000  142.7550   46.9539   -0.0980   50.4162  51.92  -1.0  -1.0  0     0.0000
BRA    ?    ?    _ P      _ 19581228 0543   42.0000 GAU  1.00e+00 -1.00e+00 -1.00e+00 -1.00e+00 >  529.9859    2.2428    0.0000   17.1050   48.1683   -0.2700   50.4854 309.66  -1.0  -1.0  0     0.0000
