NLLOC "./loc/global.19050404.005224.grid0" "LOCATED" "Location completed."
SIGNATURE "Vipin Maurya (GPT, IIT Roorkee)   obs:./obs/19050404.0050_KANGRA.isf   NLLoc:v7.00.00(27Oct2017)  run:16Apr2022 16h26m08"
COMMENT "ISC_IMS1.0 events"
GRID  361 181 601  -180 -90 0  1 1 1 PROB_DENSITY
SEARCH OCTREE nInitial 17628 nEvaluated 50004 smallestNodeSide 3.813850/3.257664/0.782552 oct_tree_integral 6.116436e+04 scatter_volume 6.116436e+04
HYPOCENTER  x 77.3266 y 32.7686 z 0.391276  OT 53.7723  ix -1 iy -1 iz -1 MAXIMUM_LIKELIHOOD
GEOGRAPHIC  OT 1905 04 04  00 49 53.772273  Lat 32.768555 Long 77.326601 Depth 0.391276
QUALITY  Pmax 1.25217e+87 MFmin 19.6513 MFmax 19.6854 RMS 9.00419 Nphs 50 Gap 158.898 Dist 24.6777 Mamp -9.90 0 Mdur -9.90 0
VPVSRATIO  VpVsRatio 3.13097  Npair 27  Diff 804
STATISTICS  ExpectX 76.2003 Y 32.1652 Z 28.0113  CovXX 7027.14 XY 5094.73 XZ -311.162 YY 7328.9 YZ -774.317 ZZ 750.535 EllAz1  331.08 Dip1  77.1683 Len1  47.1744 Az2  313.204 Dip2  -12.2314 Len2  87.1095 Len3  2.085970e+02
STAT_GEOG  ExpectLat 32.165225 Long 76.200264 Depth 28.011266
TRANSFORM  GLOBAL
QML_OriginQuality  assocPhCt 83  usedPhCt 50  assocStaCt -1  usedStaCt 31  depthPhCt -1  stdErr 9.00419  azGap 158.898  secAzGap 158.898  gtLevel -  minDist 2744.03 maxDist 6103.83 medDist 5485.84
QML_OriginUncertainty  horUnc -1  minHorUnc 69.1841  maxHorUnc 168.025  azMaxHorUnc 44.1518
QML_ConfidenceEllipsoid  semiMajorAxisLength 208.597  semiMinorAxisLength 47.1744  semiIntermediateAxisLength 87.1095  majorAxisPlunge -3.82013  majorAxisAzimuth 44.0338  majorAxisRotation 102.153
FOCALMECH  Hyp  32.768555 77.326601 0.391276 Mech  0 0 0 mf  0 nObs 0
PHASE ID Ins Cmp On Pha  FM Date     HrMn   Sec     Err  ErrMag    Coda      Amp       Per  >   TTpred    Res       Weight    StaLoc(X  Y         Z)        SDist    SAzim  RAz  RDip RQual    Tcorr 
DRN    ?    ?    _ P      _ 19050404 0055    3.0000 GAU  1.00e+00 -1.00e+00 -1.00e+00 -1.00e+00 >  322.4253  -13.1976    0.2848   48.3300   42.0300    0.0280   24.6777 300.41  -1.0  -1.0  0     0.0000
DRN    ?    ?    _ S      _ 19050404 0059   21.0000 GAU  1.00e+00 -1.00e+00 -1.00e+00 -1.00e+00 >  584.9595  -17.7318    0.0811   48.3300   42.0300    0.0280   24.6777 300.41  -1.0  -1.0  0     0.0000
TIF    ?    ?    _ P      _ 19050404 0055   48.0000 GAU  1.00e+00 -1.00e+00 -1.00e+00 -1.00e+00 >  345.3111    8.9166    0.5710   44.8000   41.7167   -0.3990   27.2050 298.61  -1.0  -1.0  0     0.0000
TIF    ?    ?    _ S      _ 19050404 0100   31.0000 GAU  1.00e+00 -1.00e+00 -1.00e+00 -1.00e+00 >  625.0487   12.1790    0.6160   44.8000   41.7167   -0.3990   27.2050 298.61  -1.0  -1.0  0     0.0000
IRK    ?    ?    _ P      _ 19050404 0055   44.0000 GAU  1.00e+00 -1.00e+00 -1.00e+00 -1.00e+00 >  348.0855    2.1422    1.6470  104.2711   52.2431   -0.4670   27.5140  36.91  -1.0  -1.0  0     0.0000
IRK    ?    ?    _ S      _ 19050404 0100   52.0000 GAU  1.00e+00 -1.00e+00 -1.00e+00 -1.00e+00 >  629.9184   28.3093    0.3325  104.2711   52.2431   -0.4670   27.5140  36.91  -1.0  -1.0  0     0.0000
AKH    ?    ?    _ P      _ 19050404 0055   59.0000 GAU  1.00e+00 -1.00e+00 -1.00e+00 -1.00e+00 >  353.7162   11.5116    0.6230   43.4800   41.4100   -1.7200   28.1429 297.67  -1.0  -1.0  0     0.0000
AKH    ?    ?    _ S      _ 19050404 0100   34.0000 GAU  1.00e+00 -1.00e+00 -1.00e+00 -1.00e+00 >  639.8276    0.4001    1.9320   43.4800   41.4100   -1.7200   28.1429 297.67  -1.0  -1.0  0     0.0000
BOR    ?    ?    _ P      _ 19050404 0055   52.0000 GAU  1.00e+00 -1.00e+00 -1.00e+00 -1.00e+00 >  354.8282    3.3995    1.3241   43.3833   41.8333   -0.7940   28.2675 298.54  -1.0  -1.0  0     0.0000
BOR    ?    ?    _ S      _ 19050404 0100   53.0000 GAU  1.00e+00 -1.00e+00 -1.00e+00 -1.00e+00 >  641.7891   17.4387    0.3507   43.3833   41.8333   -0.7940   28.2675 298.54  -1.0  -1.0  0     0.0000
MAN    ?    ?    _ P      _ 19050404 0058   25.0000 GAU  1.00e+00 -1.00e+00 -1.00e+00 -1.00e+00 >  485.5312   25.6965    0.2408  121.0780   14.6600   -0.0700   43.5643 103.89  -1.0  -1.0  0     0.0000
MAN    ?    ?    _ S      _ 19050404 0105    3.0000 GAU  1.00e+00 -1.00e+00 -1.00e+00 -1.00e+00 >  875.5837   33.6441    0.2832  121.0780   14.6600   -0.0700   43.5643 103.89  -1.0  -1.0  0     0.0000
KRA    ?    ?    _ P      _ 19050404 0058   12.0000 GAU  1.00e+00 -1.00e+00 -1.00e+00 -1.00e+00 >  497.7933    0.4344    1.9290   19.9397   50.0561   -0.2230   45.0955 310.22  -1.0  -1.0  0     0.0000
HRB    ?    ?    _ P      _ 19050404 0058   19.0000 GAU  1.00e+00 -1.00e+00 -1.00e+00 -1.00e+00 >  507.3787   -2.1510    1.8341   18.1928   47.8736   -0.1150   46.3074 307.22  -1.0  -1.0  0     0.0000
TAD    ?    ?    _ P      _ 19050404 0058   49.0000 GAU  1.00e+00 -1.00e+00 -1.00e+00 -1.00e+00 >  508.5209   26.7068    0.2850  133.7667   34.2833   -0.0040   46.4527  71.80  -1.0  -1.0  0     0.0000
TAD    ?    ?    _ S      _ 19050404 0105   49.0000 GAU  1.00e+00 -1.00e+00 -1.00e+00 -1.00e+00 >  917.4250   37.8028    0.0886  133.7667   34.2833   -0.0040   46.4527  71.80  -1.0  -1.0  0     0.0000
UPP    ?    ?    _ P      _ 19050404 0058   22.0000 GAU  1.00e+00 -1.00e+00 -1.00e+00 -1.00e+00 >  513.3649   -5.1371    1.2203   17.6267   59.8583   -0.0140   47.0711 323.69  -1.0  -1.0  0     0.0000
UPP    ?    ?    _ S      _ 19050404 0105   19.0000 GAU  1.00e+00 -1.00e+00 -1.00e+00 -1.00e+00 >  926.2715   -1.0438    1.9483   17.6267   59.8583   -0.0140   47.0711 323.69  -1.0  -1.0  0     0.0000
KOB    ?    ?    _ P      _ 19050404 0058   26.0000 GAU  1.00e+00 -1.00e+00 -1.00e+00 -1.00e+00 >  516.5088   -4.2811    1.4199  135.1800   34.6883   -0.0580   47.4744  70.85  -1.0  -1.0  0     0.0000
KOB    ?    ?    _ S      _ 19050404 0105   26.0000 GAU  1.00e+00 -1.00e+00 -1.00e+00 -1.00e+00 >  932.0194    0.2083    1.9461  135.1800   34.6883   -0.0580   47.4744  70.85  -1.0  -1.0  0     0.0000
VIE    ?    ?    _ P      _ 19050404 0058   48.0000 GAU  1.00e+00 -1.00e+00 -1.00e+00 -1.00e+00 >  516.7313   17.4965    0.3473   16.3617   48.2483   -0.1980   47.5030 307.85  -1.0  -1.0  0     0.0000
VIE    ?    ?    _ S      _ 19050404 0104   12.0000 GAU  1.00e+00 -1.00e+00 -1.00e+00 -1.00e+00 >  932.4262  -74.1985    0.0000   16.3617   48.2483   -0.1980   47.5030 307.85  -1.0  -1.0  0     0.0000
OSK    ?    ?    _ P      _ 19050404 0058   51.0000 GAU  1.00e+00 -1.00e+00 -1.00e+00 -1.00e+00 >  519.6248   17.6029    0.3409  135.6600   34.6117   -0.4720   47.8756  70.81  -1.0  -1.0  0     0.0000
OSK    ?    ?    _ S      _ 19050404 0106    3.0000 GAU  1.00e+00 -1.00e+00 -1.00e+00 -1.00e+00 >  937.7202   31.5075    0.3426  135.6600   34.6117   -0.4720   47.8756  70.81  -1.0  -1.0  0     0.0000
DJA    ?    ?    _ P      _ 19050404 0058   33.0000 GAU  1.00e+00 -1.00e+00 -1.00e+00 -1.00e+00 >  520.5318   -1.3041    1.9303  106.8362   -6.1833   -0.0080   47.9926 138.77  -1.0  -1.0  0     0.0000
DJA    ?    ?    _ S      _ 19050404 0105   33.0000 GAU  1.00e+00 -1.00e+00 -1.00e+00 -1.00e+00 >  939.3801   -0.1524    1.9626  106.8362   -6.1833   -0.0080   47.9926 138.77  -1.0  -1.0  0     0.0000
KMR    ?    ?    _ P      _ 19050404 0058   38.0000 GAU  1.00e+00 -1.00e+00 -1.00e+00 -1.00e+00 >  528.3102   -4.0824    1.4649   14.1319   48.0565   -0.3790   49.0018 307.77  -1.0  -1.0  0     0.0000
POT    ?    ?    _ P      _ 19050404 0058   46.0000 GAU  1.00e+00 -1.00e+00 -1.00e+00 -1.00e+00 >  530.8641    1.3636    1.8064   13.0678   52.3803   -0.0800   49.3353 313.54  -1.0  -1.0  0     0.0000
POT    ?    ?    _ S      _ 19050404 0105   51.0000 GAU  1.00e+00 -1.00e+00 -1.00e+00 -1.00e+00 >  958.3150   -1.0872    1.9457   13.0678   52.3803   -0.0800   49.3353 313.54  -1.0  -1.0  0     0.0000
TRS    ?    ?    _ P      _ 19050404 0058   44.0000 GAU  1.00e+00 -1.00e+00 -1.00e+00 -1.00e+00 >  532.5934   -2.3657    1.8019   13.7539   45.6428   -0.0080   49.5617 304.66  -1.0  -1.0  0     0.0000
TRS    ?    ?    _ S      _ 19050404 0105   43.0000 GAU  1.00e+00 -1.00e+00 -1.00e+00 -1.00e+00 >  961.4886  -12.2609    0.3152   13.7539   45.6428   -0.0080   49.5617 304.66  -1.0  -1.0  0     0.0000
POL    ?    ?    _ P      _ 19050404 0058   50.0000 GAU  1.00e+00 -1.00e+00 -1.00e+00 -1.00e+00 >  532.9757    3.2520    1.3639   13.8500   44.8667   -0.0320   49.6118 303.63  -1.0  -1.0  0     0.0000
POL    ?    ?    _ S      _ 19050404 0105   58.0000 GAU  1.00e+00 -1.00e+00 -1.00e+00 -1.00e+00 >  962.1904    2.0373    1.6710   13.8500   44.8667   -0.0320   49.6118 303.63  -1.0  -1.0  0     0.0000
LEI    ?    ?    _ P      _ 19050404 0058   44.0000 GAU  1.00e+00 -1.00e+00 -1.00e+00 -1.00e+00 >  534.5724   -4.3447    1.4053   12.3917   51.3350   -0.1130   49.8214 312.21  -1.0  -1.0  0     0.0000
LEI    ?    ?    _ S      _ 19050404 0105   53.0000 GAU  1.00e+00 -1.00e+00 -1.00e+00 -1.00e+00 >  965.1221   -5.8944    1.0435   12.3917   51.3350   -0.1130   49.8214 312.21  -1.0  -1.0  0     0.0000
JEN    ?    ?    i P      _ 19050404 0058   54.0000 GAU  2.00e-01 -1.00e+00 -1.00e+00 -1.00e+00 >  538.6595    1.5682    1.7965   11.5833   50.9519   -0.1930   50.3598 311.77  -1.0  -1.0  0     0.0000
JEN    ?    ?    i S      _ 19050404 0106    6.0000 GAU  2.00e-01 -1.00e+00 -1.00e+00 -1.00e+00 >  972.6320   -0.4042    2.0030   11.5833   50.9519   -0.1930   50.3598 311.77  -1.0  -1.0  0     0.0000
TOK    ?    ?    _ P      _ 19050404 0059    8.0000 GAU  1.00e+00 -1.00e+00 -1.00e+00 -1.00e+00 >  542.1029   12.1249    0.6170  139.7583   35.6867    0.2850   50.8156  68.26  -1.0  -1.0  0     0.0000
TOK    ?    ?    _ S      _ 19050404 0106   25.0000 GAU  1.00e+00 -1.00e+00 -1.00e+00 -1.00e+00 >  978.9650   12.2628    0.0000  139.7583   35.6867    0.2850   50.8156  68.26  -1.0  -1.0  0     0.0000
PAD    ?    ?    _ P      _ 19050404 0058   58.0000 GAU  1.00e+00 -1.00e+00 -1.00e+00 -1.00e+00 >  542.6694    1.5584    1.7708   11.8861   45.4086   -0.0120   50.8908 304.62  -1.0  -1.0  0     0.0000
PAD    ?    ?    _ S      _ 19050404 0106   27.0000 GAU  1.00e+00 -1.00e+00 -1.00e+00 -1.00e+00 >  980.0072   13.2206    0.0000   11.8861   45.4086   -0.0120   50.8908 304.62  -1.0  -1.0  0     0.0000
MIZ    ?    ?    _ P      _ 19050404 0059    8.0000 GAU  1.00e+00 -1.00e+00 -1.00e+00 -1.00e+00 >  543.3945   10.8332    0.6178  141.1333   39.1333   -0.0610   50.9871  63.61  -1.0  -1.0  0     0.0000
MIZ    ?    ?    _ S      _ 19050404 0106   28.0000 GAU  1.00e+00 -1.00e+00 -1.00e+00 -1.00e+00 >  981.3416   12.8862    0.0000  141.1333   39.1333   -0.0610   50.9871  63.61  -1.0  -1.0  0     0.0000
RDP    ?    ?    _ P      _ 19050404 0058   51.0000 GAU  1.00e+00 -1.00e+00 -1.00e+00 -1.00e+00 >  543.4378   -6.2101    0.9719   12.7167   41.7583   -0.7600   50.9929 299.86  -1.0  -1.0  0     0.0000
RDP    ?    ?    _ S      _ 19050404 0106   42.0000 GAU  1.00e+00 -1.00e+00 -1.00e+00 -1.00e+00 >  981.4212   26.8065    0.0000   12.7167   41.7583   -0.7600   50.9929 299.86  -1.0  -1.0  0     0.0000
GTT    ?    ?    _ P      _ 19050404 0058   55.0000 GAU  1.00e+00 -1.00e+00 -1.00e+00 -1.00e+00 >  545.8089   -4.5812    1.3507    9.9642   51.5464   -0.2720   51.3084 312.66  -1.0  -1.0  0     0.0000
GTT    ?    ?    i S      _ 19050404 0106    8.0000 GAU  2.00e-01 -1.00e+00 -1.00e+00 -1.00e+00 >  985.7857  -11.5580    0.3212    9.9642   51.5464   -0.2720   51.3084 312.66  -1.0  -1.0  0     0.0000
FIR    ?    ?    _ P      _ 19050404 0059    8.0000 GAU  1.00e+00 -1.00e+00 -1.00e+00 -1.00e+00 >  548.2204    6.0074    0.7281   11.2567   43.7778   -0.0460   51.6303 302.67  -1.0  -1.0  0     0.0000
FIR    ?    ?    _ S      _ 19050404 0106   24.0000 GAU  1.00e+00 -1.00e+00 -1.00e+00 -1.00e+00 >  990.2277   -0.0000    1.9573   11.2567   43.7778   -0.0460   51.6303 302.67  -1.0  -1.0  0     0.0000
UCC    ?    ?    _ P      _ 19050404 0059   38.0000 GAU  1.00e+00 -1.00e+00 -1.00e+00 -1.00e+00 >  572.2342   11.9935    0.6191    4.3594   50.7983   -0.1050   54.8931 312.38  -1.0  -1.0  0     0.0000
UCC    ?    ?    _ S      _ 19050404 0107    8.0000 GAU  1.00e+00 -1.00e+00 -1.00e+00 -1.00e+00 > 1034.6192   -0.3914    0.0000    4.3594   50.7983   -0.1050   54.8931 312.38  -1.0  -1.0  0     0.0000
EDI    ?    ?    _ P      _ 19050404 0101    0.0000 GAU  1.00e+00 -1.00e+00 -1.00e+00 -1.00e+00 >  596.2435   69.9842    0.1088   -3.1861   55.9233   -0.1250   58.2667 319.48  -1.0  -1.0  0     0.0000
EDI    ?    ?    _ S      _ 19050404 0108    0.0000 GAU  1.00e+00 -1.00e+00 -1.00e+00 -1.00e+00 > 1079.3009    6.9268    0.0000   -3.1861   55.9233   -0.1250   58.2667 319.48  -1.0  -1.0  0     0.0000
SHID   ?    ?    _ P      _ 19050404 0101    0.0000 GAU  1.00e+00 -1.00e+00 -1.00e+00 -1.00e+00 >  597.1886   69.0391    0.1088   -1.2833   50.6833    0.0000   58.4020 313.18  -1.0  -1.0  0     0.0000
COI    ?    ?    _ P      _ 19050404 0101   18.0000 GAU  1.00e+00 -1.00e+00 -1.00e+00 -1.00e+00 >  652.0453   32.1824    0.3299   -8.4183   40.2067   -0.1400   66.6062 303.92  -1.0  -1.0  0     0.0000
COI    ?    ?    _ S      _ 19050404 0109   12.0000 GAU  1.00e+00 -1.00e+00 -1.00e+00 -1.00e+00 > 1184.2894  -26.0617    0.0000   -8.4183   40.2067   -0.1400   66.6062 303.92  -1.0  -1.0  0     0.0000
HON    ?    ?    _ P      _ 19050404 0108   36.0000 GAU  1.00e+00 -1.00e+00 -1.00e+00 -1.00e+00 >  846.5421  275.6856    0.0000 -158.0006   21.3242   -0.0020  104.4058  52.28  -1.0  -1.0  0     0.0000
API    ?    ?    e P      _ 19050404 0101   36.0000 GAU  5.00e-01 -1.00e+00 -1.00e+00 -1.00e+00 >  893.0317 -190.8040    0.0000 -171.7750  -13.8072   -0.0020  114.8630  90.83  -1.0  -1.0  0     0.0000
API    ?    ?    e S      _ 19050404 0119   18.0000 GAU  5.00e-01 -1.00e+00 -1.00e+00 -1.00e+00 > 1531.6205  232.6073    0.0000 -171.7750  -13.8072   -0.0020  114.8630  90.83  -1.0  -1.0  0     0.0000
TAS    ?    ?    _ Pn     _ 19050404 0052   24.0000 GAU  1.00e+00 -1.00e+00 -1.00e+00 -1.00e+00 >    0.0000    0.0000    0.0000   69.2950   41.3250   -0.4700    0.0000   0.00  -1.0  -1.0  0     0.0000
TAS    ?    ?    _ Sn     _ 19050404 0054   26.0000 GAU  1.00e+00 -1.00e+00 -1.00e+00 -1.00e+00 >    0.0000    0.0000    0.0000   69.2950   41.3250   -0.4700    0.0000   0.00  -1.0  -1.0  0     0.0000
BEYL   ?    ?    _ PP     _ 19050404 0058    0.0000 GAU  1.00e+00 -1.00e+00 -1.00e+00 -1.00e+00 >    0.0000    0.0000    0.0000 -100000000000000000000.0000 -100000000000000000000.0000 -100000000000000000000.0000    0.0000   0.00  -1.0  -1.0  0     0.0000
ZKW    ?    ?    _ PP     _ 19050404 0059    0.0000 GAU  1.00e+00 -1.00e+00 -1.00e+00 -1.00e+00 >    0.0000    0.0000    0.0000  121.4333   31.1833   -0.0070    0.0000   0.00  -1.0  -1.0  0     0.0000
KRA    ?    ?    _ PcS    _ 19050404 0103   48.0000 GAU  1.00e+00 -1.00e+00 -1.00e+00 -1.00e+00 >    0.0000    0.0000    0.0000   19.9397   50.0561   -0.2230    0.0000   0.00  -1.0  -1.0  0     0.0000
WAS    ?    ?    _ PP     _ 19050404 0108   25.0000 GAU  1.00e+00 -1.00e+00 -1.00e+00 -1.00e+00 >    0.0000    0.0000    0.0000  -77.0331   38.8925   -0.0010    0.0000   0.00  -1.0  -1.0  0     0.0000
CLH    ?    ?    _ PP     _ 19050404 0108   39.0000 GAU  1.00e+00 -1.00e+00 -1.00e+00 -1.00e+00 >    0.0000    0.0000    0.0000  -76.8458   38.7347    0.0000    0.0000   0.00  -1.0  -1.0  0     0.0000
CHR    ?    ?    _ PP     _ 19050404 0110    0.0000 GAU  1.00e+00 -1.00e+00 -1.00e+00 -1.00e+00 >    0.0000    0.0000    0.0000  172.6267  -43.5328   -0.0080    0.0000   0.00  -1.0  -1.0  0     0.0000
TAC    ?    ?    _ PP     _ 19050404 0111   25.0000 GAU  1.00e+00 -1.00e+00 -1.00e+00 -1.00e+00 >    0.0000    0.0000    0.0000  -99.1936   19.4050   -2.2970    0.0000   0.00  -1.0  -1.0  0     0.0000
JEN    ?    ?    e L      _ 19050404 0116    0.0000 GAU  5.00e-01 -1.00e+00 -1.00e+00 -1.00e+00 >    0.0000    0.0000    0.0000   11.5833   50.9519   -0.1930    0.0000   0.00  -1.0  -1.0  0     0.0000
JEN    ?    ?    e L      _ 19050404 0118   42.0000 GAU  5.00e-01 -1.00e+00 -1.00e+00 -1.00e+00 >    0.0000    0.0000    0.0000   11.5833   50.9519   -0.1930    0.0000   0.00  -1.0  -1.0  0     0.0000
GTT    ?    ?    _ M      _ 19050404 0119    0.0000 GAU  1.00e+00 -1.00e+00 -1.00e+00 -1.00e+00 >    0.0000    0.0000    0.0000    9.9642   51.5464   -0.2720    0.0000   0.00  -1.0  -1.0  0     0.0000
GTT    ?    ?    _ M      _ 19050404 0122    0.0000 GAU  1.00e+00 -1.00e+00 -1.00e+00 -1.00e+00 >    0.0000    0.0000    0.0000    9.9642   51.5464   -0.2720    0.0000   0.00  -1.0  -1.0  0     0.0000
CHR    ?    ?    _ SS     _ 19050404 0125   54.0000 GAU  1.00e+00 -1.00e+00 -1.00e+00 -1.00e+00 >    0.0000    0.0000    0.0000  172.6267  -43.5328   -0.0080    0.0000   0.00  -1.0  -1.0  0     0.0000
TAC    ?    ?    _ SS     _ 19050404 0128    3.0000 GAU  1.00e+00 -1.00e+00 -1.00e+00 -1.00e+00 >    0.0000    0.0000    0.0000  -99.1936   19.4050   -2.2970    0.0000   0.00  -1.0  -1.0  0     0.0000
API    ?    ?    _ L      _ 19050404 0140    0.0000 GAU  1.00e+00 -1.00e+00 -1.00e+00 -1.00e+00 >    0.0000    0.0000    0.0000 -171.7750  -13.8072   -0.0020    0.0000   0.00  -1.0  -1.0  0     0.0000
API    ?    ?    _ M      _ 19050404 0150    0.0000 GAU  1.00e+00 -1.00e+00 -1.00e+00 -1.00e+00 >    0.0000    0.0000    0.0000 -171.7750  -13.8072   -0.0020    0.0000   0.00  -1.0  -1.0  0     0.0000
JEN    ?    ?    i ?      _ 19050404 0201    6.0000 GAU  2.00e-01 -1.00e+00 -1.00e+00 -1.00e+00 >    0.0000    0.0000    0.0000   11.5833   50.9519   -0.1930    0.0000   0.00  -1.0  -1.0  0     0.0000
JEN    ?    ?    i ?      _ 19050404 0205   30.0000 GAU  2.00e-01 -1.00e+00 -1.00e+00 -1.00e+00 >    0.0000    0.0000    0.0000   11.5833   50.9519   -0.1930    0.0000   0.00  -1.0  -1.0  0     0.0000
JEN    ?    ?    _ L      _ 19050404 0216   18.0000 GAU  1.00e+00 -1.00e+00 -1.00e+00 -1.00e+00 >    0.0000    0.0000    0.0000   11.5833   50.9519   -0.1930    0.0000   0.00  -1.0  -1.0  0     0.0000
JEN    ?    ?    _ M      _ 19050404 0223   24.0000 GAU  1.00e+00 -1.00e+00 -1.00e+00 -1.00e+00 >    0.0000    0.0000    0.0000   11.5833   50.9519   -0.1930    0.0000   0.00  -1.0  -1.0  0     0.0000
JEN    ?    ?    _ M      _ 19050404 0226   12.0000 GAU  1.00e+00 -1.00e+00 -1.00e+00 -1.00e+00 >    0.0000    0.0000    0.0000   11.5833   50.9519   -0.1930    0.0000   0.00  -1.0  -1.0  0     0.0000
JEN    ?    ?    _ M      _ 19050404 0242   54.0000 GAU  1.00e+00 -1.00e+00 -1.00e+00 -1.00e+00 >    0.0000    0.0000    0.0000   11.5833   50.9519   -0.1930    0.0000   0.00  -1.0  -1.0  0     0.0000
JEN    ?    ?    _ M      _ 19050404 0245   54.0000 GAU  1.00e+00 -1.00e+00 -1.00e+00 -1.00e+00 >    0.0000    0.0000    0.0000   11.5833   50.9519   -0.1930    0.0000   0.00  -1.0  -1.0  0     0.0000
END_PHASE
END_NLLOC

