NLLOC "./loc/global.20110918.124104.grid0" "LOCATED" "Location completed."
SIGNATURE "Vipin Maurya (GPT, IIT Roorkee)   obs:./obs/20110918.1240_SIKKIM.isf   NLLoc:v7.00.00(27Oct2017)  run:29Mar2022 17h10m28"
COMMENT "ISC_IMS1.0 events"
GRID  361 181 601  -180 -90 0  1 1 1 PROB_DENSITY
SEARCH OCTREE nInitial 17628 nEvaluated 50004 smallestNodeSide 1.839622/1.628832/0.391276 oct_tree_integral 1.329835e+04 scatter_volume 1.329835e+04
HYPOCENTER  x 88.1057 y 27.7368 z 50.6702  OT 51.7198  ix -1 iy -1 iz -1 MAXIMUM_LIKELIHOOD
GEOGRAPHIC  OT 2011 09 18  12 40 51.719753  Lat 27.736816 Long 88.105699 Depth 50.670247
QUALITY  Pmax 9.26653e+122 MFmin 19.9683 MFmax 20.2499 RMS 3.64769 Nphs 50 Gap 58.3112 Dist 13.3539 Mamp -9.90 0 Mdur -9.90 0
VPVSRATIO  VpVsRatio 1.81838  Npair 116  Diff 489.3
STATISTICS  ExpectX 88.1087 Y 27.7295 Z 48.4058  CovXX 54.2856 XY 12.486 XZ -6.20837 YY 36.3405 YZ 27.3988 ZZ 534.261 EllAz1  333.52 Dip1  -3.0887 Len1  10.0247 Az2  243.564 Dip2  0.803003 Len2  14.6248 Len3  4.349104e+01
STAT_GEOG  ExpectLat 27.729459 Long 88.108738 Depth 48.405785
TRANSFORM  GLOBAL
QML_OriginQuality  assocPhCt 2341  usedPhCt 50  assocStaCt -1  usedStaCt 50  depthPhCt -1  stdErr 3.64769  azGap 58.3112  secAzGap 68.8305  gtLevel -  minDist 1484.88 maxDist 2915.69 medDist 2745.06
QML_OriginUncertainty  horUnc -1  minHorUnc 8.29796  maxHorUnc 11.8146  azMaxHorUnc 62.8506
QML_ConfidenceEllipsoid  semiMajorAxisLength 43.491  semiMinorAxisLength 10.0247  semiIntermediateAxisLength 14.6248  majorAxisPlunge -86.8084  majorAxisAzimuth 168.121  majorAxisRotation 75.5071
FOCALMECH  Hyp  27.736816 88.105699 50.670247 Mech  0 0 0 mf  0 nObs 0
PHASE ID Ins Cmp On Pha  FM Date     HrMn   Sec     Err  ErrMag    Coda      Amp       Per  >   TTpred    Res       Weight    StaLoc(X  Y         Z)        SDist    SAzim  RAz  RDip RQual    Tcorr 
KMI    ?    ?    _ P      _ 20110918 1243   58.6000 GAU  1.00e+00 -1.00e+00 -1.00e+00 -1.00e+00 >  186.7457    0.1345    1.1498  102.7400   25.1233   -1.9400   13.3539  97.95  -1.0  -1.0  0     0.0000
CHTO   ?    ?    e S      _ 20110918 1246   43.8900 GAU  5.00e-01 -1.00e+00 -1.00e+00 -1.00e+00 >  333.6728   18.4974    0.0000   98.9438   18.8138   -0.3160   13.3561 129.60  -1.0  -1.0  0     0.0000
CD2    ?    ?    _ P      _ 20110918 1244   14.9000 GAU  1.00e+00 -1.00e+00 -1.00e+00 -1.00e+00 >  195.5096    7.6706    0.0647  103.7578   30.9100   -0.6280   13.9974  73.14  -1.0  -1.0  0     0.0000
CD2    ?    ?    _ S      _ 20110918 1247    0.8000 GAU  1.00e+00 -1.00e+00 -1.00e+00 -1.00e+00 >  349.2889   19.7913    0.0000  103.7578   30.9100   -0.6280   13.9974  73.14  -1.0  -1.0  0     0.0000
GTA    ?    ?    _ P      _ 20110918 1244   23.1000 GAU  1.00e+00 -1.00e+00 -1.00e+00 -1.00e+00 >  211.1178    0.2625    1.1196   99.8144   39.4106   -1.3410   15.1848  36.77  -1.0  -1.0  0     0.0000
KSH    ?    ?    _ P      _ 20110918 1244   26.5000 GAU  1.00e+00 -1.00e+00 -1.00e+00 -1.00e+00 >  215.0477   -0.2674    1.1223   75.9731   39.5167   -1.3140   15.4876 322.61  -1.0  -1.0  0     0.0000
LZH    ?    ?    _ P      _ 20110918 1244   30.5000 GAU  1.00e+00 -1.00e+00 -1.00e+00 -1.00e+00 >  218.0586    0.7216    1.0935  103.8444   36.0867   -1.5600   15.7229  53.99  -1.0  -1.0  0     0.0000
LZH    ?    ?    _ S      _ 20110918 1247   28.4000 GAU  1.00e+00 -1.00e+00 -1.00e+00 -1.00e+00 >  391.2145    5.4658    0.0000  103.8444   36.0867   -1.5600   15.7229  53.99  -1.0  -1.0  0     0.0000
WMQ    ?    ?    _ P      _ 20110918 1244   35.8000 GAU  1.00e+00 -1.00e+00 -1.00e+00 -1.00e+00 >  222.6933    1.3870    1.0198   87.6950   43.8211   -0.8970   16.0877 358.93  -1.0  -1.0  0     0.0000
WMQ    ?    ?    _ S      _ 20110918 1247   40.3000 GAU  1.00e+00 -1.00e+00 -1.00e+00 -1.00e+00 >  400.0587    8.5216    0.0000   87.6950   43.8211   -0.8970   16.0877 358.93  -1.0  -1.0  0     0.0000
AAA    ?    ?    e P      _ 20110918 1244   57.7000 GAU  5.00e-01 -1.00e+00 -1.00e+00 -1.00e+00 >  245.9089    0.0713    1.1640   76.9467   43.2717   -0.8000   17.9579 332.80  -1.0  -1.0  0     0.0000
TKM2   ?    ?    _ P      _ 20110918 1245    1.5000 GAU  1.00e+00 -1.00e+00 -1.00e+00 -1.00e+00 >  249.1491    0.6311    1.1003   75.5966   42.9208   -2.0200   18.2492 329.57  -1.0  -1.0  0     0.0000
AAK    ?    ?    _ S      _ 20110918 1248   32.6190 GAU  1.00e+00 -1.00e+00 -1.00e+00 -1.00e+00 >  459.4647    1.4346    0.0000   74.4940   42.6390   -1.6450   18.5442 327.02  -1.0  -1.0  0     0.0000
ENH    ?    ?    e P      _ 20110918 1245    6.4300 GAU  5.00e-01 -1.00e+00 -1.00e+00 -1.00e+00 >  255.6578   -0.9476    1.1177  109.4868   30.2718   -0.4870   18.8421  77.14  -1.0  -1.0  0     0.0000
XAN    ?    ?    _ P      _ 20110918 1245    4.4000 GAU  1.00e+00 -1.00e+00 -1.00e+00 -1.00e+00 >  256.2955   -3.6153    0.6155  108.9214   34.0394   -0.6300   18.9003  65.38  -1.0  -1.0  0     0.0000
MAKZ   ?    ?    _ P      _ 20110918 1245   15.0000 GAU  1.00e+00 -1.00e+00 -1.00e+00 -1.00e+00 >  264.6952   -1.4150    1.0297   81.9770   46.8080   -0.5700   19.6693 347.46  -1.0  -1.0  0     0.0000
PALK   ?    ?    _ P      _ 20110918 1245   36.7940 GAU  1.00e+00 -1.00e+00 -1.00e+00 -1.00e+00 >  285.8841   -0.8099    1.0944   80.7022    7.2728   -0.4600   21.6317 200.29  -1.0  -1.0  0     0.0000
PALK   ?    ?    _ S      _ 20110918 1249   35.1940 GAU  1.00e+00 -1.00e+00 -1.00e+00 -1.00e+00 >  522.5158    0.9584    0.0000   80.7022    7.2728   -0.4600   21.6317 200.29  -1.0  -1.0  0     0.0000
QIZ    ?    ?    _ P      _ 20110918 1245   38.0000 GAU  1.00e+00 -1.00e+00 -1.00e+00 -1.00e+00 >  286.8755   -0.5952    1.1090  109.8433   19.0294   -0.2300   21.7245 108.93  -1.0  -1.0  0     0.0000
QIZ    ?    ?    _ S      _ 20110918 1249   31.6000 GAU  1.00e+00 -1.00e+00 -1.00e+00 -1.00e+00 >  524.3215   -4.4412    0.0000  109.8433   19.0294   -0.2300   21.7245 108.93  -1.0  -1.0  0     0.0000
TRD    ?    ?    e P      _ 20110918 1245   41.7700 GAU  5.00e-01 -1.00e+00 -1.00e+00 -1.00e+00 >  288.9776    1.0726    1.0923   76.9585    8.5080   -0.0640   21.9215 210.81  -1.0  -1.0  0     0.0000
BTO    ?    ?    e P      _ 20110918 1245   41.3000 GAU  5.00e-01 -1.00e+00 -1.00e+00 -1.00e+00 >  291.2079   -1.6276    1.0256  110.0208   40.6056   -1.1140   22.1310  48.78  -1.0  -1.0  0     0.0000
BTO    ?    ?    _ S      _ 20110918 1249   41.1000 GAU  1.00e+00 -1.00e+00 -1.00e+00 -1.00e+00 >  532.2054   -2.8251    0.0000  110.0208   40.6056   -1.1140   22.1310  48.78  -1.0  -1.0  0     0.0000
TIY    ?    ?    e P      _ 20110918 1245   46.5000 GAU  5.00e-01 -1.00e+00 -1.00e+00 -1.00e+00 >  296.9782   -2.1979    0.9202  112.4342   37.7131   -0.8500   22.6756  57.71  -1.0  -1.0  0     0.0000
TIY    ?    ?    _ S      _ 20110918 1249   49.9000 GAU  1.00e+00 -1.00e+00 -1.00e+00 -1.00e+00 >  541.7807   -3.6004    0.0000  112.4342   37.7131   -0.8500   22.6756  57.71  -1.0  -1.0  0     0.0000
WHN    ?    ?    _ P      _ 20110918 1245   51.0000 GAU  1.00e+00 -1.00e+00 -1.00e+00 -1.00e+00 >  300.8351   -1.5549    1.0103  114.3503   30.5436   -0.0260   23.0417  76.66  -1.0  -1.0  0     0.0000
WHN    ?    ?    _ S      _ 20110918 1249   51.1000 GAU  1.00e+00 -1.00e+00 -1.00e+00 -1.00e+00 >  547.7474   -8.3671    0.0000  114.3503   30.5436   -0.0260   23.0417  76.66  -1.0  -1.0  0     0.0000
GZH    ?    ?    i P      c 20110918 1245   53.3000 GAU  2.00e-01 -1.00e+00 -1.00e+00 -1.00e+00 >  302.7074   -1.1271    1.1074  113.3439   23.0869   -0.0110   23.2216  95.85  -1.0  -1.0  0     0.0000
GZH    ?    ?    _ S      _ 20110918 1250    1.3000 GAU  1.00e+00 -1.00e+00 -1.00e+00 -1.00e+00 >  550.6712   -1.0909    0.0000  113.3439   23.0869   -0.0110   23.2216  95.85  -1.0  -1.0  0     0.0000
HHC    ?    ?    e P      _ 20110918 1245   54.1000 GAU  5.00e-01 -1.00e+00 -1.00e+00 -1.00e+00 >  303.2630   -0.8828    1.1241  111.5636   40.8494   -1.1690   23.2788  49.63  -1.0  -1.0  0     0.0000
HHC    ?    ?    _ S      _ 20110918 1250    5.0000 GAU  1.00e+00 -1.00e+00 -1.00e+00 -1.00e+00 >  551.5993    1.6809    0.0000  111.5636   40.8494   -1.1690   23.2788  49.63  -1.0  -1.0  0     0.0000
SEM    ?    ?    i P      _ 20110918 1245   54.6900 GAU  2.00e-01 -1.00e+00 -1.00e+00 -1.00e+00 >  304.8036   -1.8333    0.9965   80.2500   50.4083   -0.2090   23.4459 347.35  -1.0  -1.0  0     0.0000
SEM    ?    ?    i S      _ 20110918 1250    6.6800 GAU  2.00e-01 -1.00e+00 -1.00e+00 -1.00e+00 >  554.3094    0.6509    0.0000   80.2500   50.4083   -0.2090   23.4459 347.35  -1.0  -1.0  0     0.0000
MCO    ?    ?    _ P      _ 20110918 1246    0.0000 GAU  1.00e+00 -1.00e+00 -1.00e+00 -1.00e+00 >  307.1827    1.0975    1.0567  113.5583   22.1219   -0.1740   23.7061  98.01  -1.0  -1.0  0     0.0000
KURK   ?    ?    e P      _ 20110918 1246    1.5000 GAU  5.00e-01 -1.00e+00 -1.00e+00 -1.00e+00 >  310.5814   -0.8012    1.1316   78.6202   50.7154   -0.1840   24.0783 345.18  -1.0  -1.0  0     0.0000
KURK   ?    ?    _ S      _ 20110918 1250   15.8900 GAU  1.00e+00 -1.00e+00 -1.00e+00 -1.00e+00 >  564.5349   -0.3647    0.0000   78.6202   50.7154   -0.1840   24.0783 345.18  -1.0  -1.0  0     0.0000
HKC    ?    ?    _ P      c 20110918 1246    5.0000 GAU  1.00e+00 -1.00e+00 -1.00e+00 -1.00e+00 >  311.5678    1.7124    0.9705  114.1719   22.3036   -0.0270   24.1865  97.13  -1.0  -1.0  0     0.0000
SONM   ?    ?    _ P      _ 20110918 1246    7.3000 GAU  1.00e+00 -1.00e+00 -1.00e+00 -1.00e+00 >  315.4239    0.1564    1.1225  106.4167   47.8083    0.0000   24.6097  30.44  -1.0  -1.0  0     0.0000
SONM   ?    ?    _ S      _ 20110918 1250   30.4000 GAU  1.00e+00 -1.00e+00 -1.00e+00 -1.00e+00 >  573.0750    5.6053    0.0000  106.4167   47.8083    0.0000   24.6097  30.44  -1.0  -1.0  0     0.0000
DLV    ?    ?    e P      _ 20110918 1246    8.5500 GAU  5.00e-01 -1.00e+00 -1.00e+00 -1.00e+00 >  316.8302   -0.0000    1.1647  108.4867   11.9433   -1.5750   24.7642 125.57  -1.0  -1.0  0     0.0000
ULN    ?    ?    e P      _ 20110918 1246    9.7000 GAU  5.00e-01 -1.00e+00 -1.00e+00 -1.00e+00 >  318.4263   -0.4460    1.1555  107.0528   47.8652   -1.6150   24.9398  31.10  -1.0  -1.0  0     0.0000
ZAK    ?    ?    e P      _ 20110918 1246   15.4000 GAU  5.00e-01 -1.00e+00 -1.00e+00 -1.00e+00 >  322.7349    0.9453    1.1075  103.2806   50.3819   -1.2000   25.4144  22.89  -1.0  -1.0  0     0.0000
MOY    ?    ?    e P      _ 20110918 1246   19.4000 GAU  5.00e-01 -1.00e+00 -1.00e+00 -1.00e+00 >  326.3528    1.3274    1.0573  100.9931   51.6667   -1.3030   25.8138  18.52  -1.0  -1.0  0     0.0000
TIA    ?    ?    _ P      c 20110918 1246   18.8000 GAU  1.00e+00 -1.00e+00 -1.00e+00 -1.00e+00 >  327.2843   -0.2040    1.1235  117.1244   36.2114   -0.3000   25.9167  63.57  -1.0  -1.0  0     0.0000
TIA    ?    ?    _ S      _ 20110918 1250   48.3000 GAU  1.00e+00 -1.00e+00 -1.00e+00 -1.00e+00 >  593.8534    2.7268    0.0000  117.1244   36.2114   -0.3000   25.9167  63.57  -1.0  -1.0  0     0.0000
BJT    ?    ?    e P      _ 20110918 1246   21.9000 GAU  5.00e-01 -1.00e+00 -1.00e+00 -1.00e+00 >  329.6477    0.5326    1.1450  116.1679   40.0183   -0.1970   26.1783  54.75  -1.0  -1.0  0     0.0000
BJI    ?    ?    _ P      _ 20110918 1246   21.8000 GAU  1.00e+00 -1.00e+00 -1.00e+00 -1.00e+00 >  329.7597    0.3205    1.1175  116.1750   40.0403   -0.0430   26.1907  54.71  -1.0  -1.0  0     0.0000
BJI    ?    ?    _ S      _ 20110918 1250   51.8000 GAU  1.00e+00 -1.00e+00 -1.00e+00 -1.00e+00 >  598.1738    1.9064    0.0000  116.1750   40.0403   -0.0430   26.1907  54.71  -1.0  -1.0  0     0.0000
TSI    ?    ?    _ P      _ 20110918 1246   21.7000 GAU  1.00e+00 -1.00e+00 -1.00e+00 -1.00e+00 >  329.9305    0.0498    1.1243   98.5645    3.5008    0.0000   26.2096 155.78  -1.0  -1.0  0     0.0000
IPM    ?    ?    e P      _ 20110918 1246   20.9400 GAU  5.00e-01 -1.00e+00 -1.00e+00 -1.00e+00 >  330.0375   -0.8173    1.1302  101.0255    4.5795   -0.2460   26.2215 149.71  -1.0  -1.0  0     0.0000
ZALV   ?    ?    _ P      _ 20110918 1246   22.0750 GAU  1.00e+00 -1.00e+00 -1.00e+00 -1.00e+00 >  330.5273   -0.1720    1.1240   84.8000   53.9000    0.0000   26.2757 355.60  -1.0  -1.0  0     0.0000
ZALV   ?    ?    _ S      _ 20110918 1250   51.4750 GAU  1.00e+00 -1.00e+00 -1.00e+00 -1.00e+00 >  599.5148    0.2405    0.0000   84.8000   53.9000    0.0000   26.2757 355.60  -1.0  -1.0  0     0.0000
KTGM   ?    ?    _ P      d 20110918 1246   24.8420 GAU  1.00e+00 -1.00e+00 -1.00e+00 -1.00e+00 >  333.2349   -0.1127    1.1246  103.1356    5.3283   -0.0330   26.5760 144.75  -1.0  -1.0  0     0.0000
TLY    ?    ?    e P      _ 20110918 1246   26.5000 GAU  5.00e-01 -1.00e+00 -1.00e+00 -1.00e+00 >  333.7597    1.0205    1.0987  103.6438   51.6807   -0.5790   26.6343  21.75  -1.0  -1.0  0     0.0000
TLY    ?    ?    e S      _ 20110918 1250   56.0000 GAU  5.00e-01 -1.00e+00 -1.00e+00 -1.00e+00 >  605.1688   -0.8886    0.0000  103.6438   51.6807   -0.5790   26.6343  21.75  -1.0  -1.0  0     0.0000
NJ2    ?    ?    e P      _ 20110918 1246   28.8000 GAU  5.00e-01 -1.00e+00 -1.00e+00 -1.00e+00 >  336.2572    0.8230    1.1205  118.8544   32.0517   -0.0450   26.9119  73.22  -1.0  -1.0  0     0.0000
NJ2    ?    ?    _ S      _ 20110918 1251    0.1000 GAU  1.00e+00 -1.00e+00 -1.00e+00 -1.00e+00 >  609.5451   -1.1649    0.0000  118.8544   32.0517   -0.0450   26.9119  73.22  -1.0  -1.0  0     0.0000
PSI    ?    ?    _ P      _ 20110918 1246   27.3500 GAU  1.00e+00 -1.00e+00 -1.00e+00 -1.00e+00 >  337.8648   -2.2346    0.8972   98.9240    2.6950   -0.9870   27.0908 155.69  -1.0  -1.0  0     0.0000
PSI    ?    ?    _ S      _ 20110918 1251   10.6250 GAU  1.00e+00 -1.00e+00 -1.00e+00 -1.00e+00 >  612.3657    6.5395    0.0000   98.9240    2.6950   -0.9870   27.0908 155.69  -1.0  -1.0  0     0.0000
IRK    ?    ?    e P      _ 20110918 1246   32.7000 GAU  5.00e-01 -1.00e+00 -1.00e+00 -1.00e+00 >  339.8867    1.0936    1.0897  104.2711   52.2431   -0.4670   27.3161  21.81  -1.0  -1.0  0     0.0000
NVS    ?    ?    e P      _ 20110918 1246   31.9000 GAU  5.00e-01 -1.00e+00 -1.00e+00 -1.00e+00 >  340.0484    0.1319    1.1630   83.2346   54.8404   -0.1500   27.3342 353.89  -1.0  -1.0  0     0.0000
NVS    ?    ?    e S      _ 20110918 1251    8.4000 GAU  5.00e-01 -1.00e+00 -1.00e+00 -1.00e+00 >  616.2017    0.4786    0.0000   83.2346   54.8404   -0.1500   27.3342 353.89  -1.0  -1.0  0     0.0000
QZH    ?    ?    i P      c 20110918 1246   32.3000 GAU  2.00e-01 -1.00e+00 -1.00e+00 -1.00e+00 >  340.5853   -0.0050    1.1768  118.5917   24.9431   -0.0210   27.3941  88.80  -1.0  -1.0  0     0.0000
QZH    ?    ?    _ S      _ 20110918 1251   10.4000 GAU  1.00e+00 -1.00e+00 -1.00e+00 -1.00e+00 >  617.1455    1.5347    0.0000  118.5917   24.9431   -0.0210   27.3941  88.80  -1.0  -1.0  0     0.0000
FRIM   ?    ?    _ P      c 20110918 1246   35.4360 GAU  1.00e+00 -1.00e+00 -1.00e+00 -1.00e+00 >  343.2998    0.4164    1.1133  101.6336    3.2328   -0.0970   27.6973 149.84  -1.0  -1.0  0     0.0000
BRVK   ?    ?    e P      _ 20110918 1246   42.5000 GAU  5.00e-01 -1.00e+00 -1.00e+00 -1.00e+00 >  350.9072   -0.1269    1.1645   70.2828   53.0581   -0.3150   28.5508 337.36  -1.0  -1.0  0     0.0000
SSE    ?    ?    _ P      _ 20110918 1246   46.8000 GAU  1.00e+00 -1.00e+00 -1.00e+00 -1.00e+00 >  354.0483    1.0320    1.0640  121.1867   31.0956   -0.0150   28.9048  75.23  -1.0  -1.0  0     0.0000
SSE    ?    ?    _ S      _ 20110918 1251   38.3000 GAU  1.00e+00 -1.00e+00 -1.00e+00 -1.00e+00 >  640.9249    5.6553    0.0000  121.1867   31.0956   -0.0150   28.9048  75.23  -1.0  -1.0  0     0.0000
KGM    ?    ?    _ P      d 20110918 1246   51.9590 GAU  1.00e+00 -1.00e+00 -1.00e+00 -1.00e+00 >  359.7696    0.4697    1.1105  103.3190    2.0157   -0.1030   29.5508 147.88  -1.0  -1.0  0     0.0000
TPUB   ?    ?    e P      _ 20110918 1246   52.6800 GAU  5.00e-01 -1.00e+00 -1.00e+00 -1.00e+00 >  360.1907    0.7696    1.1257  120.6300   23.3000    0.0000   29.5984  91.20  -1.0  -1.0  0     0.0000
SSLB   ?    ?    e P      _ 20110918 1246   53.8800 GAU  5.00e-01 -1.00e+00 -1.00e+00 -1.00e+00 >  361.5663    0.5940    1.1406  120.9500   23.7900    0.0000   29.7538  90.09  -1.0  -1.0  0     0.0000
DL2    ?    ?    i P      c 20110918 1246   56.1000 GAU  2.00e-01 -1.00e+00 -1.00e+00 -1.00e+00 >  363.2661    1.1141    0.0000  121.6283   38.9061   -0.0620   29.9460  59.42  -1.0  -1.0  0     0.0000
DL2    ?    ?    _ S      _ 20110918 1251   51.5000 GAU  1.00e+00 -1.00e+00 -1.00e+00 -1.00e+00 >  657.2758    2.5044    0.0000  121.6283   38.9061   -0.0620   29.9460  59.42  -1.0  -1.0  0     0.0000
TATO   ?    ?    e P      _ 20110918 1246   55.0100 GAU  5.00e-01 -1.00e+00 -1.00e+00 -1.00e+00 >  363.2948   -0.0046    0.0000  121.4881   24.9754   -0.0530   29.9492  87.54  -1.0  -1.0  0     0.0000
TWG    ?    ?    e P      _ 20110918 1246   57.2000 GAU  5.00e-01 -1.00e+00 -1.00e+00 -1.00e+00 >  364.8108    0.6694    0.0000  121.0717   22.8207   -0.1950   30.1207  91.90  -1.0  -1.0  0     0.0000
NACB   ?    ?    e P      _ 20110918 1246   59.0000 GAU  5.00e-01 -1.00e+00 -1.00e+00 -1.00e+00 >  365.7191    1.5611    0.0000  121.5900   24.1800    0.0000   30.2235  89.04  -1.0  -1.0  0     0.0000
PPI    ?    ?    _ P      _ 20110918 1246   58.3000 GAU  1.00e+00 -1.00e+00 -1.00e+00 -1.00e+00 >  368.7199   -2.1397    0.0000  100.3970   -0.4568    0.0000   30.5632 155.25  -1.0  -1.0  0     0.0000
CIT    ?    ?    e P      _ 20110918 1247    5.9000 GAU  5.00e-01 -1.00e+00 -1.00e+00 -1.00e+00 >  371.0871    3.0932    0.0000  113.5519   52.0211   -0.7900   30.8315  31.06  -1.0  -1.0  0     0.0000
YOJ    ?    ?    e P      _ 20110918 1247   14.1000 GAU  5.00e-01 -1.00e+00 -1.00e+00 -1.00e+00 >  376.2099    6.1703    0.0000  123.0108   24.4617   -0.0320   31.4131  87.90  -1.0  -1.0  0     0.0000
SZP    ?    ?    e P      _ 20110918 1247   10.0000 GAU  5.00e-01 -1.00e+00 -1.00e+00 -1.00e+00 >  376.3750    1.9053    0.0000  120.4560   17.5510   -0.0500   31.4319 101.95  -1.0  -1.0  0     0.0000
BOLP   ?    ?    e P      _ 20110918 1247    9.9500 GAU  5.00e-01 -1.00e+00 -1.00e+00 -1.00e+00 >  376.7234    1.5069    0.0000  119.9130   16.3810   -0.0710   31.4715 104.40  -1.0  -1.0  0     0.0000
ABRA   ?    ?    e P      _ 20110918 1247   11.2600 GAU  5.00e-01 -1.00e+00 -1.00e+00 -1.00e+00 >  377.9666    1.5737    0.0000  120.7120   17.6490   -0.0500   31.6129 101.58  -1.0  -1.0  0     0.0000
SCZP   ?    ?    e P      _ 20110918 1247   11.6800 GAU  5.00e-01 -1.00e+00 -1.00e+00 -1.00e+00 >  379.1324    0.8279    0.0000  119.9110   15.7760   -0.0210   31.7455 105.43  -1.0  -1.0  0     0.0000
SNY    ?    ?    _ P      _ 20110918 1247   13.3000 GAU  1.00e+00 -1.00e+00 -1.00e+00 -1.00e+00 >  381.8880   -0.3078    0.0000  123.5781   41.8278   -0.0540   32.0594  54.55  -1.0  -1.0  0     0.0000
SNY    ?    ?    _ S      _ 20110918 1252   23.3000 GAU  1.00e+00 -1.00e+00 -1.00e+00 -1.00e+00 >  690.3262    1.2541    0.0000  123.5781   41.8278   -0.0540   32.0594  54.55  -1.0  -1.0  0     0.0000
HIA    ?    ?    e P      _ 20110918 1247   17.0000 GAU  5.00e-01 -1.00e+00 -1.00e+00 -1.00e+00 >  384.8065    0.4738    0.0000  119.7417   49.2667   -0.6100   32.3923  39.71  -1.0  -1.0  0     0.0000
SGCP   ?    ?    e P      _ 20110918 1247   17.9800 GAU  5.00e-01 -1.00e+00 -1.00e+00 -1.00e+00 >  386.0428    0.2174    0.0000  122.0460   18.2420   -0.0500   32.5335  99.60  -1.0  -1.0  0     0.0000
CVP    ?    ?    e P      c 20110918 1247   20.4700 GAU  5.00e-01 -1.00e+00 -1.00e+00 -1.00e+00 >  386.2274    2.5228    0.0000  121.8220   17.7030   -0.0600   32.5546 100.67  -1.0  -1.0  0     0.0000
PCPH   ?    ?    e P      c 20110918 1247   23.0300 GAU  5.00e-01 -1.00e+00 -1.00e+00 -1.00e+00 >  388.8691    2.4411    0.0000  121.0960   15.5620   -0.0070   32.8567 104.80  -1.0  -1.0  0     0.0000
CAUP   ?    ?    e P      _ 20110918 1247   21.5600 GAU  5.00e-01 -1.00e+00 -1.00e+00 -1.00e+00 >  388.9993    0.8409    0.0000  121.8230   16.9440   -0.0500   32.8716 101.95  -1.0  -1.0  0     0.0000
